AXSFwn
HFDTEDATE:070826
HFPLTPILOTINCHARGE:Adrian Ripoll Torres
HFCM2CREW2:NIL
HFGTYGLIDERTYPE:AirDesign Volt 5 
HFGIDGLIDERID:NIL
HFDTMGPSDATUM:WGS84
HFRFWFIRMWAREVERSION:EU_2.00V
HFRHWHARDWAREVERSION:4.5
HFFTYFRTYPE:alfapilot,Voolaris Tracker
HFGPSRECEIVER:UBLOX,M10,72,50000,GPS,GLO,GAL
HFPRSPRESSALTSENSOR:ST,LPS22HB,10000
HFALGALTGPS:GEO
HFALPALTPRESSURE:ISA
HFTZNTIMEZONE:0
B0903334201314N00044625EA0069200794
B0903344201316N00044618EA0069300794
B0903354201318N00044611EA0069400795
B0903364201321N00044603EA0069500795
B0903374201324N00044595EA0069400795
B0903384201327N00044587EA0069600796
B0903394201331N00044578EA0069500811
B0903404201333N00044570EA0069600811
B0903414201336N00044561EA0069700812
B0903424201339N00044553EA0069700813
B0903434201343N00044546EA0069800813
B0903444201347N00044540EA0069700813
B0903454201351N00044533EA0069900813
B0903464201357N00044528EA0069800813
B0903474201362N00044524EA0069900808
B0903484201368N00044521EA0070000813
B0903494201374N00044519EA0070100814
B0903504201381N00044519EA0070100813
B0903514201387N00044519EA0070300819
B0903524201393N00044520EA0070400820
B0903534201399N00044523EA0070600820
B0903544201406N00044526EA0070500823
B0903554201411N00044530EA0070600818
B0903564201417N00044534EA0070700820
B0903574201423N00044537EA0071000820
B0903584201429N00044540EA0071100821
B0903594201435N00044541EA0071000824
B0904004201441N00044542EA0071200825
B0904014201447N00044541EA0071300826
B0904024201453N00044539EA0071400828
B0904034201460N00044537EA0071500829
B0904044201465N00044535EA0071600827
B0904054201472N00044532EA0071700830
B0904064201478N00044529EA0071900832
B0904074201484N00044526EA0071800837
B0904084201490N00044522EA0072200839
B0904094201494N00044517EA0072300839
B0904104201498N00044511EA0072400840
B0904114201500N00044504EA0072400841
B0904124201501N00044496EA0072600841
B0904134201502N00044488EA0072700842
B0904144201501N00044479EA0072600843
B0904154201499N00044471EA0072700843
B0904164201496N00044462EA0072800844
B0904174201493N00044453EA0072600844
B0904184201490N00044444EA0072800844
B0904194201488N00044436EA0073000847
B0904204201486N00044427EA0072800847
B0904214201486N00044418EA0072900847
B0904224201487N00044409EA0073000846
B0904234201490N00044401EA0073000848
B0904244201494N00044394EA0073300851
B0904254201499N00044387EA0073300852
B0904264201503N00044380EA0073400853
B0904274201508N00044374EA0073500852
B0904284201512N00044366EA0073700853
B0904294201515N00044358EA0073700853
B0904304201517N00044350EA0073900855
B0904314201518N00044341EA0074100856
B0904324201519N00044332EA0074000857
B0904334201519N00044323EA0074200853
B0904344201520N00044313EA0074200852
B0904354201523N00044304EA0074300853
B0904364201526N00044295EA0074500854
B0904374201529N00044287EA0074600855
B0904384201534N00044279EA0074700855
B0904394201538N00044273EA0074800856
B0904404201543N00044267EA0074900857
B0904414201548N00044262EA0075000858
B0904424201552N00044259EA0075100856
B0904434201556N00044257EA0074600855
B0904444201559N00044254EA0075200857
B0904454201562N00044251EA0075200857
B0904464201563N00044246EA0075300857
B0904474201562N00044241EA0075300857
B0904484201560N00044236EA0075400858
B0904494201558N00044231EA0075400857
B0904504201556N00044225EA0075500860
B0904514201556N00044218EA0075400859
B0904524201557N00044212EA0075700859
B0904534201558N00044206EA0075700860
B0904544201559N00044199EA0075700861
B0904554201561N00044193EA0075700862
B0904564201562N00044187EA0075800861
B0904574201564N00044181EA0075900864
B0904584201566N00044174EA0075900866
B0904594201568N00044167EA0076000868
B0905004201571N00044161EA0076100866
B0905014201574N00044155EA0076200866
B0905024201579N00044151EA0076300865
B0905034201584N00044146EA0076400867
B0905044201589N00044141EA0076400868
B0905054201594N00044137EA0076500868
B0905064201600N00044132EA0076400868
B0905074201605N00044128EA0076600868
B0905084201611N00044124EA0076700868
B0905094201616N00044120EA0076700868
B0905104201622N00044118EA0076700871
B0905114201628N00044118EA0076900871
B0905124201632N00044118EA0077100873
B0905134201636N00044118EA0077100873
B0905144201639N00044116EA0077200874
B0905154201641N00044112EA0077200876
B0905164201643N00044106EA0077200878
B0905174201644N00044100EA0077300879
B0905184201645N00044093EA0077300880
B0905194201647N00044087EA0077400881
B0905204201649N00044080EA0077400882
B0905214201652N00044075EA0077600881
B0905224201655N00044070EA0077700881
B0905234201659N00044065EA0077700882
B0905244201663N00044061EA0077800883
B0905254201667N00044057EA0077800884
B0905264201670N00044052EA0077900884
B0905274201673N00044046EA0078100886
B0905284201675N00044039EA0078000886
B0905294201677N00044033EA0078200887
B0905304201679N00044027EA0078200887
B0905314201679N00044021EA0078200890
B0905324201679N00044016EA0078300887
B0905334201676N00044012EA0078400887
B0905344201672N00044009EA0078400887
B0905354201668N00044006EA0078400889
B0905364201664N00044003EA0078700889
B0905374201660N00043999EA0078600892
B0905384201657N00043994EA0078700892
B0905394201655N00043989EA0079000893
B0905404201655N00043983EA0078900896
B0905414201657N00043978EA0078900894
B0905424201659N00043974EA0078900892
B0905434201662N00043970EA0078900893
B0905444201665N00043967EA0079000894
B0905454201668N00043963EA0079100895
B0905464201672N00043960EA0079200896
B0905474201676N00043957EA0079300897
B0905484201682N00043952EA0079200896
B0905494201686N00043949EA0079400894
B0905504201690N00043945EA0079100895
B0905514201696N00043941EA0079700895
B0905524201701N00043937EA0079600894
B0905534201706N00043933EA0079600892
B0905544201710N00043929EA0079600891
B0905554201713N00043925EA0079700892
B0905564201717N00043919EA0079900893
B0905574201719N00043912EA0080000891
B0905584201720N00043905EA0079900892
B0905594201720N00043898EA0080000893
B0906004201720N00043890EA0080300893
B0906014201722N00043882EA0080000900
B0906024201724N00043875EA0080300895
B0906034201727N00043869EA0080300896
B0906044201731N00043863EA0080400894
B0906054201735N00043858EA0080500894
B0906064201740N00043854EA0080600895
B0906074201746N00043851EA0080800896
B0906084201752N00043848EA0080800896
B0906094201758N00043846EA0080800897
B0906104201764N00043844EA0081200899
B0906114201770N00043841EA0080900899
B0906124201776N00043838EA0081200900
B0906134201781N00043835EA0081200901
B0906144201786N00043833EA0081200902
B0906154201792N00043832EA0081400901
B0906164201797N00043831EA0081400901
B0906174201801N00043832EA0081700901
B0906184201805N00043834EA0081600901
B0906194201809N00043836EA0081600903
B0906204201813N00043837EA0081500904
B0906214201816N00043835EA0081600905
B0906224201818N00043831EA0081800906
B0906234201819N00043826EA0081700906
B0906244201819N00043821EA0081700906
B0906254201820N00043814EA0081800906
B0906264201820N00043808EA0082000907
B0906274201820N00043801EA0081900907
B0906284201820N00043794EA0082100909
B0906294201819N00043787EA0082200909
B0906304201818N00043780EA0082000910
B0906314201817N00043772EA0082200911
B0906324201816N00043764EA0082200912
B0906334201815N00043756EA0082300913
B0906344201814N00043748EA0082400914
B0906354201814N00043740EA0082500915
B0906364201814N00043732EA0082600917
B0906374201814N00043725EA0082800917
B0906384201814N00043718EA0082800917
B0906394201813N00043712EA0082500918
B0906404201812N00043706EA0082800919
B0906414201813N00043699EA0082800920
B0906424201815N00043693EA0083000919
B0906434201817N00043688EA0083200918
B0906444201820N00043683EA0083200920
B0906454201823N00043677EA0083100921
B0906464201825N00043671EA0083200921
B0906474201826N00043665EA0083300922
B0906484201828N00043658EA0083300921
B0906494201831N00043652EA0083400920
B0906504201834N00043646EA0083400922
B0906514201836N00043640EA0083600923
B0906524201839N00043633EA0083600923
B0906534201841N00043626EA0083800923
B0906544201843N00043619EA0083800925
B0906554201845N00043611EA0084000926
B0906564201847N00043603EA0084000926
B0906574201849N00043595EA0084100926
B0906584201850N00043587EA0084200926
B0906594201851N00043578EA0084200927
B0907004201851N00043570EA0084300927
B0907014201852N00043562EA0084300928
B0907024201854N00043555EA0084500928
B0907034201855N00043548EA0084500928
B0907044201854N00043541EA0084500926
B0907054201852N00043534EA0084700928
B0907064201849N00043529EA0084500929
B0907074201846N00043523EA0084400930
B0907084201843N00043516EA0084600931
B0907094201842N00043509EA0084800932
B0907104201844N00043502EA0084700934
B0907114201846N00043495EA0084800935
B0907124201850N00043488EA0084900934
B0907134201853N00043481EA0084800934
B0907144201856N00043473EA0085000935
B0907154201859N00043465EA0084900935
B0907164201862N00043457EA0085100936
B0907174201864N00043448EA0085000937
B0907184201865N00043439EA0085000937
B0907194201867N00043431EA0085200938
B0907204201867N00043424EA0085400939
B0907214201866N00043417EA0085500940
B0907224201864N00043410EA0085500941
B0907234201862N00043404EA0085600942
B0907244201859N00043398EA0085500943
B0907254201855N00043394EA0085500945
B0907264201852N00043390EA0085700945
B0907274201848N00043386EA0085700946
B0907284201845N00043381EA0085800946
B0907294201844N00043374EA0085900947
B0907304201844N00043368EA0086000948
B0907314201844N00043361EA0086300948
B0907324201843N00043355EA0086100949
B0907334201842N00043349EA0086000951
B0907344201840N00043342EA0086300952
B0907354201838N00043336EA0086600953
B0907364201837N00043329EA0086500955
B0907374201838N00043322EA0086600956
B0907384201838N00043316EA0086700956
B0907394201840N00043309EA0086800957
B0907404201841N00043302EA0086800957
B0907414201842N00043296EA0086800958
B0907424201844N00043289EA0086900959
B0907434201846N00043282EA0087000960
B0907444201848N00043275EA0087000960
B0907454201850N00043269EA0087300961
B0907464201853N00043263EA0087500962
B0907474201855N00043256EA0087500963
B0907484201857N00043250EA0087400964
B0907494201860N00043243EA0087600965
B0907504201863N00043237EA0087400965
B0907514201866N00043231EA0087800966
B0907524201868N00043224EA0087900967
B0907534201870N00043217EA0087900967
B0907544201870N00043209EA0088000968
B0907554201869N00043202EA0088200969
B0907564201867N00043196EA0088000970
B0907574201866N00043190EA0088100971
B0907584201865N00043184EA0088200971
B0907594201866N00043178EA0088200971
B0908004201868N00043173EA0088300973
B0908014201871N00043167EA0088400973
B0908024201875N00043163EA0088300974
B0908034201878N00043157EA0088200975
B0908044201881N00043152EA0088600975
B0908054201884N00043146EA0088700976
B0908064201887N00043140EA0088700977
B0908074201889N00043134EA0089000978
B0908084201892N00043128EA0088700979
B0908094201896N00043123EA0089100980
B0908104201899N00043117EA0089100980
B0908114201903N00043111EA0089400981
B0908124201906N00043105EA0089300981
B0908134201908N00043100EA0089300982
B0908144201910N00043095EA0089400983
B0908154201912N00043091EA0089500983
B0908164201914N00043088EA0089400984
B0908174201917N00043086EA0089500984
B0908184201919N00043086EA0089400985
B0908194201922N00043088EA0089700985
B0908204201923N00043092EA0089800986
B0908214201923N00043096EA0089800986
B0908224201921N00043101EA0090000987
B0908234201919N00043106EA0089800988
B0908244201916N00043111EA0089900988
B0908254201914N00043117EA0090000989
B0908264201913N00043123EA0089900990
B0908274201911N00043129EA0089900991
B0908284201910N00043135EA0090100992
B0908294201908N00043141EA0090100992
B0908304201908N00043147EA0090300993
B0908314201908N00043153EA0090200994
B0908324201910N00043158EA0090200995
B0908334201913N00043164EA0090400995
B0908344201915N00043169EA0090300995
B0908354201917N00043176EA0090600996
B0908364201917N00043182EA0090500997
B0908374201916N00043188EA0090700998
B0908384201915N00043195EA0090700999
B0908394201915N00043202EA0090600999
B0908404201916N00043209EA0091001000
B0908414201917N00043216EA0090801000
B0908424201918N00043223EA0090801001
B0908434201918N00043229EA0090801002
B0908444201919N00043236EA0091201002
B0908454201920N00043242EA0090901003
B0908464201922N00043248EA0091301004
B0908474201924N00043254EA0091201005
B0908484201926N00043260EA0091301006
B0908494201928N00043266EA0091301007
B0908504201930N00043272EA0091501008
B0908514201932N00043278EA0091601009
B0908524201933N00043283EA0091701010
B0908534201934N00043286EA0091701010
B0908544201935N00043289EA0091701011
B0908554201936N00043291EA0091701011
B0908564201937N00043294EA0091701012
B0908574201938N00043297EA0091901012
B0908584201937N00043301EA0091801013
B0908594201936N00043305EA0091801011
B0909004201934N00043309EA0091801011
B0909014201931N00043313EA0091901013
B0909024201929N00043319EA0092101013
B0909034201928N00043325EA0092001013
B0909044201929N00043331EA0092101014
B0909054201929N00043336EA0092101014
B0909064201930N00043339EA0092301015
B0909074201931N00043342EA0092201015
B0909084201933N00043344EA0092301015
B0909094201935N00043346EA0092401016
B0909104201938N00043346EA0092301016
B0909114201940N00043345EA0092301016
B0909124201943N00043343EA0092401016
B0909134201945N00043341EA0092401016
B0909144201948N00043338EA0092401017
B0909154201951N00043335EA0092501017
B0909164201954N00043331EA0092801018
B0909174201957N00043327EA0092701018
B0909184201960N00043323EA0092801019
B0909194201964N00043318EA0092701020
B0909204201967N00043313EA0092601020
B0909214201971N00043308EA0092701021
B0909224201974N00043303EA0093001022
B0909234201977N00043297EA0093001022
B0909244201978N00043291EA0092801022
B0909254201979N00043284EA0093001023
B0909264201981N00043278EA0093201023
B0909274201983N00043272EA0093001024
B0909284201983N00043266EA0093301025
B0909294201983N00043261EA0093501026
B0909304201981N00043256EA0093301027
B0909314201979N00043251EA0093301027
B0909324201977N00043246EA0093401028
B0909334201976N00043241EA0093501028
B0909344201976N00043236EA0093501029
B0909354201977N00043231EA0093401029
B0909364201978N00043225EA0093701029
B0909374201979N00043220EA0093701029
B0909384201981N00043214EA0093701030
B0909394201984N00043209EA0093701030
B0909404201987N00043204EA0093701031
B0909414201991N00043199EA0093901032
B0909424201995N00043195EA0093901032
B0909434201999N00043191EA0094101033
B0909444202002N00043187EA0094201033
B0909454202006N00043183EA0094101034
B0909464202010N00043178EA0094301035
B0909474202013N00043173EA0094301035
B0909484202016N00043168EA0094401037
B0909494202019N00043163EA0094401037
B0909504202022N00043157EA0094401038
B0909514202024N00043151EA0094701039
B0909524202027N00043145EA0094701039
B0909534202029N00043139EA0094701040
B0909544202032N00043133EA0095001042
B0909554202034N00043127EA0094701042
B0909564202037N00043120EA0095001043
B0909574202039N00043114EA0095001044
B0909584202042N00043108EA0095201044
B0909594202046N00043102EA0095301045
B0910004202049N00043096EA0095301046
B0910014202052N00043090EA0095201046
B0910024202055N00043083EA0095501047
B0910034202057N00043076EA0095401048
B0910044202058N00043069EA0095501049
B0910054202057N00043062EA0095401049
B0910064202056N00043057EA0095801049
B0910074202055N00043052EA0095701050
B0910084202055N00043047EA0095701051
B0910094202056N00043043EA0095801051
B0910104202059N00043041EA0095801051
B0910114202062N00043040EA0095901052
B0910124202065N00043042EA0095901052
B0910134202067N00043044EA0095901053
B0910144202069N00043049EA0096001053
B0910154202071N00043054EA0096001054
B0910164202073N00043059EA0096201054
B0910174202075N00043065EA0096301054
B0910184202077N00043071EA0096001055
B0910194202079N00043076EA0096301056
B0910204202081N00043083EA0096301057
B0910214202083N00043088EA0096301058
B0910224202084N00043094EA0096401058
B0910234202085N00043100EA0096401059
B0910244202087N00043106EA0096701059
B0910254202088N00043112EA0096601060
B0910264202089N00043119EA0096801060
B0910274202090N00043125EA0096901061
B0910284202091N00043132EA0096701062
B0910294202092N00043139EA0097101063
B0910304202095N00043145EA0096701063
B0910314202097N00043151EA0097001064
B0910324202100N00043158EA0097201064
B0910334202103N00043164EA0097101065
B0910344202106N00043171EA0097001065
B0910354202108N00043178EA0097201066
B0910364202110N00043185EA0097301067
B0910374202110N00043193EA0097401068
B0910384202110N00043201EA0097601069
B0910394202109N00043209EA0097501070
B0910404202107N00043217EA0097601071
B0910414202105N00043224EA0097701071
B0910424202102N00043232EA0097601072
B0910434202100N00043239EA0098001072
B0910444202098N00043245EA0097901073
B0910454202096N00043251EA0098101074
B0910464202095N00043257EA0098101074
B0910474202094N00043264EA0098001075
B0910484202094N00043270EA0098501075
B0910494202095N00043276EA0098501076
B0910504202095N00043283EA0098501077
B0910514202096N00043289EA0098401077
B0910524202098N00043295EA0098601078
B0910534202101N00043299EA0098601079
B0910544202104N00043304EA0098601079
B0910554202107N00043310EA0098701080
B0910564202109N00043315EA0098601081
B0910574202109N00043320EA0098901082
B0910584202110N00043326EA0098801082
B0910594202112N00043329EA0098901083
B0911004202115N00043332EA0099001083
B0911014202118N00043331EA0098901084
B0911024202121N00043329EA0099101084
B0911034202124N00043324EA0099001085
B0911044202126N00043319EA0099101085
B0911054202128N00043314EA0099301086
B0911064202131N00043309EA0099301087
B0911074202134N00043304EA0099201087
B0911084202137N00043299EA0099301087
B0911094202141N00043294EA0099401088
B0911104202144N00043289EA0099501088
B0911114202146N00043283EA0099501089
B0911124202148N00043278EA0099601089
B0911134202149N00043272EA0099701090
B0911144202150N00043266EA0099701091
B0911154202149N00043260EA0099801091
B0911164202147N00043255EA0099801092
B0911174202147N00043251EA0099901093
B0911184202146N00043246EA0100001093
B0911194202148N00043241EA0099901094
B0911204202151N00043238EA0100201094
B0911214202154N00043237EA0100201095
B0911224202158N00043240EA0100001095
B0911234202161N00043244EA0100301095
B0911244202163N00043250EA0100101095
B0911254202165N00043256EA0100301096
B0911264202166N00043262EA0100401098
B0911274202166N00043268EA0100501099
B0911284202166N00043274EA0100601099
B0911294202166N00043281EA0100701100
B0911304202167N00043287EA0100701101
B0911314202167N00043293EA0100801102
B0911324202167N00043300EA0100801103
B0911334202166N00043306EA0100701105
B0911344202166N00043312EA0100801106
B0911354202165N00043319EA0101001107
B0911364202165N00043325EA0101101108
B0911374202164N00043332EA0101101109
B0911384202164N00043339EA0101101109
B0911394202164N00043346EA0101301110
B0911404202164N00043353EA0101201111
B0911414202164N00043361EA0101601111
B0911424202164N00043368EA0101601112
B0911434202164N00043375EA0101501113
B0911444202163N00043382EA0101401114
B0911454202161N00043389EA0101601115
B0911464202159N00043395EA0101301116
B0911474202157N00043402EA0101901116
B0911484202154N00043408EA0101801117
B0911494202152N00043415EA0102001117
B0911504202149N00043421EA0102201118
B0911514202147N00043428EA0102201119
B0911524202145N00043434EA0102201120
B0911534202143N00043441EA0102101121
B0911544202141N00043447EA0102401122
B0911554202140N00043454EA0102601122
B0911564202138N00043461EA0102701123
B0911574202137N00043468EA0102601124
B0911584202136N00043475EA0102801124
B0911594202136N00043481EA0102801125
B0912004202136N00043488EA0103001126
B0912014202136N00043495EA0102901127
B0912024202136N00043501EA0102901128
B0912034202135N00043508EA0103201128
B0912044202135N00043515EA0103201129
B0912054202135N00043521EA0103201130
B0912064202135N00043528EA0103301130
B0912074202135N00043535EA0103501131
B0912084202134N00043542EA0103401132
B0912094202134N00043549EA0103701132
B0912104202134N00043555EA0103601133
B0912114202133N00043562EA0103601134
B0912124202133N00043569EA0103701135
B0912134202133N00043576EA0103801136
B0912144202132N00043583EA0103801136
B0912154202131N00043589EA0104001137
B0912164202129N00043596EA0104001138
B0912174202127N00043602EA0104001139
B0912184202124N00043607EA0104201140
B0912194202122N00043613EA0104201140
B0912204202119N00043619EA0104401141
B0912214202115N00043624EA0104401141
B0912224202112N00043629EA0104601143
B0912234202109N00043634EA0104801144
B0912244202106N00043639EA0104801144
B0912254202103N00043644EA0104701145
B0912264202100N00043649EA0104901146
B0912274202098N00043654EA0104901147
B0912284202096N00043660EA0105001148
B0912294202096N00043665EA0105101148
B0912304202097N00043671EA0105201149
B0912314202098N00043676EA0105301150
B0912324202099N00043681EA0105201151
B0912334202101N00043687EA0105401151
B0912344202102N00043692EA0105201152
B0912354202104N00043698EA0105501153
B0912364202106N00043703EA0105401153
B0912374202108N00043708EA0105801154
B0912384202111N00043712EA0105801155
B0912394202114N00043716EA0105901156
B0912404202117N00043720EA0105901156
B0912414202120N00043725EA0105901157
B0912424202123N00043730EA0106001158
B0912434202126N00043735EA0106101158
B0912444202128N00043739EA0106201159
B0912454202130N00043744EA0106201159
B0912464202132N00043748EA0106201160
B0912474202134N00043752EA0106301161
B0912484202136N00043757EA0106401161
B0912494202138N00043761EA0106401162
B0912504202140N00043766EA0106501163
B0912514202142N00043771EA0106501164
B0912524202144N00043776EA0106601164
B0912534202146N00043781EA0106701165
B0912544202148N00043785EA0106701165
B0912554202150N00043790EA0106801166
B0912564202152N00043796EA0107001167
B0912574202153N00043801EA0107001167
B0912584202155N00043806EA0107101168
B0912594202156N00043810EA0107301168
B0913004202158N00043815EA0107201168
B0913014202159N00043820EA0107201169
B0913024202160N00043825EA0107301170
B0913034202161N00043829EA0107301171
B0913044202162N00043834EA0107401171
B0913054202162N00043839EA0107401172
B0913064202163N00043844EA0107601173
B0913074202163N00043849EA0107701173
B0913084202163N00043854EA0107701174
B0913094202162N00043859EA0107801175
B0913104202161N00043863EA0107701176
B0913114202160N00043868EA0107601176
B0913124202159N00043872EA0107901177
B0913134202158N00043876EA0107901177
B0913144202157N00043879EA0108001178
B0913154202155N00043882EA0108001178
B0913164202154N00043885EA0108001179
B0913174202153N00043888EA0107901179
B0913184202152N00043891EA0108101180
B0913194202151N00043895EA0108101181
B0913204202150N00043898EA0108401181
B0913214202148N00043902EA0108401182
B0913224202147N00043906EA0108601182
B0913234202145N00043910EA0108501183
B0913244202144N00043914EA0108501183
B0913254202143N00043918EA0108501184
B0913264202142N00043922EA0108601184
B0913274202141N00043925EA0108501185
B0913284202140N00043929EA0108701186
B0913294202139N00043933EA0108701187
B0913304202138N00043937EA0108901187
B0913314202138N00043941EA0109101187
B0913324202137N00043946EA0108801188
B0913334202136N00043950EA0108901188
B0913344202135N00043954EA0108901189
B0913354202134N00043959EA0109101189
B0913364202133N00043964EA0109001190
B0913374202132N00043968EA0109301190
B0913384202130N00043973EA0109201191
B0913394202129N00043978EA0109201192
B0913404202127N00043983EA0109301192
B0913414202125N00043988EA0109401193
B0913424202124N00043993EA0109401194
B0913434202122N00043997EA0109601194
B0913444202121N00044002EA0109701195
B0913454202120N00044008EA0109701196
B0913464202119N00044013EA0109601197
B0913474202119N00044018EA0109701198
B0913484202119N00044023EA0109901199
B0913494202120N00044029EA0109901199
B0913504202121N00044034EA0110101200
B0913514202122N00044040EA0110001201
B0913524202123N00044046EA0110001201
B0913534202124N00044051EA0110101202
B0913544202124N00044057EA0110401203
B0913554202124N00044063EA0110401203
B0913564202124N00044069EA0110301204
B0913574202123N00044074EA0110301205
B0913584202122N00044079EA0110501205
B0913594202121N00044084EA0110601206
B0914004202121N00044088EA0110601206
B0914014202122N00044092EA0110601207
B0914024202125N00044094EA0110601208
B0914034202128N00044093EA0110601208
B0914044202130N00044090EA0110901209
B0914054202131N00044086EA0110701209
B0914064202132N00044081EA0111001210
B0914074202133N00044075EA0111001211
B0914084202136N00044070EA0111201211
B0914094202138N00044066EA0111001211
B0914104202140N00044061EA0111301212
B0914114202141N00044056EA0111301211
B0914124202142N00044052EA0111301211
B0914134202143N00044047EA0111301212
B0914144202144N00044043EA0111401213
B0914154202145N00044040EA0111301213
B0914164202146N00044036EA0111301213
B0914174202149N00044034EA0111401214
B0914184202152N00044035EA0111601214
B0914194202154N00044038EA0111401214
B0914204202155N00044042EA0111701215
B0914214202154N00044047EA0111601216
B0914224202154N00044051EA0111701216
B0914234202153N00044057EA0111601217
B0914244202153N00044062EA0111601217
B0914254202152N00044068EA0111701217
B0914264202151N00044074EA0111701218
B0914274202151N00044080EA0111901218
B0914284202150N00044086EA0111901219
B0914294202150N00044092EA0111901219
B0914304202149N00044098EA0111901220
B0914314202149N00044104EA0112401221
B0914324202149N00044111EA0111801221
B0914334202149N00044117EA0112301222
B0914344202149N00044123EA0112601223
B0914354202149N00044129EA0112301224
B0914364202150N00044135EA0112401225
B0914374202150N00044141EA0112601225
B0914384202150N00044146EA0112601227
B0914394202150N00044152EA0112601227
B0914404202150N00044158EA0112701228
B0914414202151N00044165EA0112801229
B0914424202151N00044171EA0112601230
B0914434202151N00044177EA0112701231
B0914444202152N00044183EA0113001232
B0914454202152N00044189EA0112601232
B0914464202153N00044195EA0113201233
B0914474202154N00044200EA0113001234
B0914484202155N00044206EA0113201234
B0914494202156N00044211EA0113201235
B0914504202157N00044216EA0113401235
B0914514202159N00044222EA0113301236
B0914524202160N00044227EA0113401236
B0914534202161N00044233EA0113501237
B0914544202162N00044239EA0113501237
B0914554202164N00044245EA0113701238
B0914564202165N00044251EA0113601238
B0914574202166N00044258EA0113601239
B0914584202167N00044264EA0113601240
B0914594202167N00044270EA0113901240
B0915004202167N00044277EA0113801241
B0915014202167N00044283EA0113801241
B0915024202167N00044290EA0113901242
B0915034202167N00044297EA0114201242
B0915044202167N00044303EA0114001243
B0915054202167N00044310EA0114001244
B0915064202167N00044316EA0114101244
B0915074202167N00044323EA0114301244
B0915084202167N00044329EA0114301244
B0915094202168N00044336EA0114201245
B0915104202168N00044343EA0114201245
B0915114202168N00044350EA0114301245
B0915124202168N00044357EA0114401245
B0915134202169N00044364EA0114301245
B0915144202169N00044371EA0114301245
B0915154202169N00044377EA0114201245
B0915164202170N00044384EA0114301245
B0915174202171N00044391EA0114301244
B0915184202174N00044398EA0114301244
B0915194202176N00044406EA0114101244
B0915204202179N00044413EA0114201243
B0915214202181N00044421EA0114201243
B0915224202184N00044429EA0114201243
B0915234202187N00044436EA0114201243
B0915244202189N00044443EA0114101243
B0915254202193N00044448EA0114201243
B0915264202197N00044453EA0114601244
B0915274202201N00044457EA0114201244
B0915284202206N00044460EA0114001245
B0915294202211N00044463EA0114501245
B0915304202216N00044465EA0114701244
B0915314202222N00044466EA0114501244
B0915324202227N00044467EA0114501244
B0915334202233N00044466EA0114301245
B0915344202238N00044465EA0114701245
B0915354202243N00044465EA0114501245
B0915364202248N00044466EA0114301245
B0915374202253N00044469EA0114501244
B0915384202256N00044473EA0114301244
B0915394202260N00044477EA0114401243
B0915404202263N00044481EA0114301243
B0915414202266N00044484EA0114301242
B0915424202270N00044485EA0114401242
B0915434202273N00044485EA0114101242
B0915444202277N00044482EA0114301241
B0915454202279N00044476EA0114201241
B0915464202282N00044470EA0114101241
B0915474202284N00044463EA0113901240
B0915484202286N00044455EA0114101239
B0915494202288N00044447EA0113901238
B0915504202289N00044439EA0113701237
B0915514202290N00044431EA0113701237
B0915524202291N00044423EA0114001237
B0915534202291N00044415EA0113201236
B0915544202290N00044407EA0113701236
B0915554202289N00044399EA0113501236
B0915564202287N00044392EA0113701236
B0915574202286N00044385EA0113601236
B0915584202286N00044378EA0113601235
B0915594202285N00044370EA0113601235
B0916004202285N00044363EA0113301235
B0916014202286N00044356EA0113501235
B0916024202288N00044349EA0113701234
B0916034202290N00044342EA0113501234
B0916044202294N00044336EA0114001235
B0916054202297N00044330EA0113501235
B0916064202301N00044324EA0113801235
B0916074202305N00044318EA0113801236
B0916084202309N00044312EA0113501236
B0916094202313N00044306EA0113601236
B0916104202317N00044301EA0113601237
B0916114202321N00044295EA0113401237
B0916124202325N00044290EA0113601236
B0916134202330N00044285EA0113601236
B0916144202334N00044281EA0113601236
B0916154202337N00044276EA0113501236
B0916164202340N00044270EA0113601236
B0916174202343N00044263EA0113601236
B0916184202344N00044256EA0113701236
B0916194202346N00044248EA0114001236
B0916204202348N00044241EA0113601236
B0916214202351N00044234EA0113601236
B0916224202354N00044226EA0113801237
B0916234202357N00044219EA0113801238
B0916244202360N00044212EA0114001238
B0916254202364N00044205EA0114001239
B0916264202367N00044199EA0113801240
B0916274202371N00044193EA0114001240
B0916284202375N00044188EA0114101240
B0916294202378N00044184EA0114101240
B0916304202383N00044181EA0114301241
B0916314202388N00044179EA0114401241
B0916324202393N00044179EA0114301243
B0916334202398N00044181EA0114301243
B0916344202403N00044183EA0114401244
B0916354202407N00044186EA0114401244
B0916364202410N00044189EA0114501245
B0916374202411N00044194EA0114501246
B0916384202410N00044198EA0114801246
B0916394202408N00044203EA0114701246
B0916404202406N00044206EA0114601247
B0916414202402N00044209EA0115001248
B0916424202399N00044213EA0114701249
B0916434202396N00044217EA0114901249
B0916444202393N00044222EA0115201250
B0916454202391N00044227EA0114901251
B0916464202388N00044232EA0115401251
B0916474202386N00044238EA0115301252
B0916484202383N00044244EA0115301253
B0916494202380N00044250EA0115301254
B0916504202377N00044256EA0115501255
B0916514202374N00044263EA0115501255
B0916524202372N00044269EA0115501256
B0916534202370N00044277EA0115501256
B0916544202367N00044284EA0115801257
B0916554202365N00044292EA0115801258
B0916564202363N00044299EA0115901259
B0916574202361N00044306EA0116101259
B0916584202359N00044313EA0116101260
B0916594202358N00044321EA0116001261
B0917004202357N00044328EA0116301262
B0917014202356N00044336EA0116001263
B0917024202355N00044344EA0116201264
B0917034202354N00044352EA0116301264
B0917044202354N00044360EA0116501265
B0917054202353N00044368EA0116601266
B0917064202352N00044376EA0116501266
B0917074202352N00044384EA0116401267
B0917084202353N00044392EA0116701267
B0917094202354N00044401EA0116701268
B0917104202355N00044410EA0116701268
B0917114202357N00044418EA0116801268
B0917124202359N00044427EA0116901269
B0917134202361N00044435EA0117001270
B0917144202363N00044443EA0116801271
B0917154202364N00044450EA0117101271
B0917164202366N00044457EA0117001272
B0917174202368N00044465EA0117501273
B0917184202368N00044472EA0117601273
B0917194202368N00044480EA0117401274
B0917204202368N00044489EA0117401275
B0917214202366N00044497EA0117301276
B0917224202365N00044505EA0117801277
B0917234202363N00044513EA0117601278
B0917244202361N00044521EA0117901279
B0917254202359N00044529EA0117801280
B0917264202356N00044538EA0118001281
B0917274202354N00044546EA0117901282
B0917284202352N00044554EA0118101283
B0917294202350N00044562EA0118301284
B0917304202349N00044569EA0118001285
B0917314202348N00044575EA0118401285
B0917324202348N00044582EA0118401286
B0917334202349N00044588EA0118401287
B0917344202351N00044594EA0118701287
B0917354202354N00044600EA0118501288
B0917364202357N00044606EA0118501289
B0917374202360N00044612EA0118801290
B0917384202362N00044618EA0118601290
B0917394202365N00044624EA0118801291
B0917404202367N00044631EA0118901292
B0917414202370N00044637EA0118901292
B0917424202373N00044644EA0119001293
B0917434202375N00044652EA0119201293
B0917444202377N00044661EA0119001293
B0917454202378N00044670EA0119201294
B0917464202379N00044680EA0119301294
B0917474202381N00044689EA0119201294
B0917484202382N00044697EA0119401295
B0917494202383N00044706EA0119501295
B0917504202385N00044714EA0119501296
B0917524202392N00044730EA0119501298
B0917534202395N00044738EA0119701298
B0917544202399N00044746EA0119801299
B0917554202402N00044753EA0120001301
B0917574202409N00044768EA0119901303
B0917584202411N00044775EA0120001304
B0917594202414N00044783EA0120301304
B0918004202416N00044791EA0120401306
B0918014202416N00044799EA0120601307
B0918024202416N00044807EA0120701307
B0918034202416N00044814EA0120701308
B0918044202415N00044822EA0120901309
B0918054202414N00044830EA0121001311
B0918064202413N00044839EA0121201311
B0918074202413N00044847EA0121201312
B0918084202412N00044855EA0121301313
B0918094202411N00044863EA0121601314
B0918104202411N00044871EA0121301315
B0918114202410N00044880EA0121501316
B0918124202410N00044888EA0121601316
B0918134202410N00044897EA0121801317
B0918144202409N00044906EA0122001318
B0918154202409N00044915EA0122001318
B0918164202408N00044923EA0121801319
B0918174202407N00044932EA0122001320
B0918184202406N00044941EA0121001321
B0918194202405N00044950EA0122101323
B0918204202403N00044959EA0122601323
B0918214202402N00044968EA0122601325
B0918224202401N00044977EA0122501326
B0918234202400N00044987EA0122301327
B0918244202399N00044996EA0122701329
B0918254202398N00045005EA0122701331
B0918264202397N00045014EA0122801332
B0918274202396N00045022EA0123001333
B0918284202395N00045030EA0123001335
B0918294202394N00045037EA0123201336
B0918304202393N00045045EA0123101336
B0918314202391N00045052EA0123301337
B0918324202389N00045059EA0123301338
B0918334202386N00045066EA0123401338
B0918344202382N00045072EA0123701339
B0918354202378N00045078EA0123401340
B0918364202373N00045084EA0123701340
B0918374202369N00045090EA0123901341
B0918384202364N00045096EA0123801342
B0918394202360N00045103EA0123801343
B0918404202355N00045109EA0124001344
B0918414202351N00045115EA0124101344
B0918424202347N00045121EA0124101345
B0918434202342N00045126EA0124101345
B0918444202338N00045132EA0124101345
B0918454202333N00045138EA0124301346
B0918464202328N00045144EA0124201346
B0918474202323N00045149EA0124101346
B0918484202317N00045154EA0124101346
B0918494202311N00045160EA0124201346
B0918504202305N00045167EA0124101345
B0918514202300N00045173EA0124001345
B0918524202295N00045179EA0124101345
B0918534202289N00045185EA0124201345
B0918544202284N00045191EA0124001345
B0918554202279N00045196EA0124001345
B0918564202274N00045202EA0124001345
B0918574202270N00045208EA0124101345
B0918584202266N00045215EA0124101345
B0918594202262N00045222EA0124001344
B0919004202259N00045229EA0124001344
B0919014202256N00045236EA0124201344
B0919024202254N00045243EA0124101344
B0919034202253N00045252EA0123801344
B0919044202252N00045260EA0124101344
B0919054202251N00045269EA0123901344
B0919064202250N00045278EA0123901344
B0919074202248N00045286EA0124001344
B0919084202247N00045294EA0124301344
B0919094202246N00045301EA0123801344
B0919104202245N00045309EA0124001344
B0919114202246N00045316EA0124201345
B0919124202247N00045324EA0124201346
B0919134202249N00045331EA0124201346
B0919144202251N00045338EA0124501347
B0919154202253N00045344EA0124401348
B0919164202256N00045350EA0124501349
B0919174202259N00045356EA0124501350
B0919184202262N00045361EA0124701351
B0919194202265N00045366EA0125101352
B0919204202268N00045371EA0124701353
B0919214202270N00045376EA0124901354
B0919224202272N00045380EA0125001355
B0919234202274N00045383EA0125001355
B0919244202276N00045383EA0124901355
B0919254202278N00045383EA0125101356
B0919264202279N00045382EA0125201357
B0919274202280N00045380EA0125101357
B0919284202280N00045377EA0125101358
B0919294202279N00045374EA0125201359
B0919304202278N00045370EA0125001359
B0919314202275N00045367EA0125201359
B0919324202273N00045363EA0125301360
B0919334202272N00045358EA0125301359
B0919344202271N00045353EA0125201360
B0919354202270N00045348EA0125501361
B0919364202271N00045343EA0125701361
B0919374202271N00045337EA0125501362
B0919384202271N00045332EA0125701362
B0919394202272N00045326EA0125901363
B0919404202273N00045321EA0125801364
B0919414202274N00045314EA0126001364
B0919424202275N00045308EA0126001365
B0919434202277N00045302EA0125901366
B0919444202279N00045296EA0126101367
B0919454202280N00045291EA0126101368
B0919464202283N00045286EA0126001368
B0919474202285N00045282EA0126601369
B0919484202287N00045277EA0126501370
B0919494202289N00045272EA0126601371
B0919504202291N00045267EA0126701372
B0919514202292N00045262EA0126501372
B0919524202294N00045256EA0126601373
B0919534202296N00045250EA0126101374
B0919544202297N00045245EA0126601375
B0919554202299N00045239EA0126801375
B0919564202301N00045234EA0127101376
B0919574202304N00045229EA0127101377
B0919584202307N00045224EA0127201377
B0919594202311N00045220EA0127401378
B0920004202315N00045216EA0127201379
B0920014202319N00045212EA0127401379
B0920024202323N00045209EA0127201380
B0920034202327N00045206EA0127401381
B0920044202332N00045203EA0127401381
B0920054202337N00045199EA0127601383
B0920064202341N00045195EA0127901384
B0920074202345N00045191EA0127701384
B0920084202349N00045186EA0128001385
B0920094202352N00045182EA0128001386
B0920104202356N00045178EA0128001387
B0920114202360N00045175EA0128101388
B0920124202364N00045172EA0128001389
B0920134202368N00045171EA0128401389
B0920144202373N00045170EA0128601390
B0920154202378N00045169EA0128501391
B0920164202383N00045167EA0128501391
B0920174202387N00045166EA0128801392
B0920184202392N00045163EA0128601394
B0920194202396N00045160EA0128701395
B0920204202401N00045157EA0128701397
B0920214202405N00045153EA0128801399
B0920224202410N00045149EA0129101400
B0920234202414N00045145EA0129101400
B0920244202418N00045141EA0129101401
B0920254202422N00045136EA0129101402
B0920264202426N00045132EA0129301402
B0920274202430N00045128EA0129401403
B0920284202434N00045125EA0129401404
B0920294202438N00045122EA0129601405
B0920304202442N00045120EA0129601406
B0920314202447N00045117EA0129901407
B0920324202450N00045113EA0129801408
B0920334202454N00045109EA0130001408
B0920344202457N00045104EA0129901409
B0920354202461N00045099EA0130001410
B0920364202464N00045094EA0130301411
B0920374202468N00045090EA0130201412
B0920384202472N00045085EA0130201413
B0920394202476N00045082EA0130301414
B0920404202481N00045078EA0130401415
B0920414202485N00045075EA0130401416
B0920424202488N00045072EA0130901416
B0920434202491N00045067EA0130601417
B0920444202493N00045062EA0130801418
B0920454202496N00045057EA0130801419
B0920464202498N00045051EA0130901420
B0920474202501N00045046EA0130901420
B0920484202504N00045041EA0131201421
B0920494202508N00045036EA0131001422
B0920504202511N00045031EA0131101422
B0920514202514N00045025EA0131201423
B0920524202518N00045019EA0131301424
B0920534202521N00045013EA0131501425
B0920544202525N00045008EA0131501425
B0920554202529N00045003EA0131701427
B0920564202533N00044998EA0131601428
B0920574202537N00044992EA0131701429
B0920584202541N00044987EA0132001429
B0920594202544N00044981EA0132001430
B0921004202548N00044976EA0132101431
B0921014202551N00044970EA0132101431
B0921024202554N00044963EA0132401432
B0921034202557N00044957EA0132301433
B0921044202560N00044950EA0132401434
B0921054202563N00044944EA0132501435
B0921064202565N00044937EA0132601435
B0921074202568N00044931EA0132701436
B0921084202571N00044924EA0132601437
B0921094202574N00044917EA0132801438
B0921104202576N00044911EA0133101439
B0921114202579N00044904EA0133001440
B0921124202582N00044898EA0133201441
B0921134202585N00044891EA0133201442
B0921144202588N00044885EA0133301443
B0921154202591N00044879EA0133301444
B0921164202594N00044873EA0133501445
B0921174202597N00044866EA0133601447
B0921184202600N00044860EA0133701447
B0921194202603N00044854EA0133801448
B0921204202606N00044847EA0134001450
B0921214202610N00044841EA0133801451
B0921224202614N00044836EA0134301452
B0921234202617N00044830EA0134101453
B0921244202620N00044824EA0134401454
B0921254202623N00044817EA0134201455
B0921264202626N00044811EA0134501455
B0921274202629N00044804EA0134401456
B0921284202633N00044798EA0134401457
B0921294202637N00044792EA0134501458
B0921304202640N00044785EA0134601458
B0921314202644N00044779EA0134801459
B0921324202647N00044771EA0134801460
B0921334202650N00044764EA0135001461
B0921344202652N00044756EA0134801462
B0921354202655N00044749EA0134901463
B0921364202658N00044741EA0135201463
B0921374202661N00044733EA0135001464
B0921384202663N00044725EA0135101465
B0921394202666N00044718EA0135301465
B0921404202668N00044712EA0135301466
B0921414202671N00044705EA0135401466
B0921424202674N00044700EA0135501467
B0921434202677N00044694EA0135501467
B0921444202681N00044688EA0135501468
B0921454202685N00044683EA0135801469
B0921464202689N00044678EA0135701470
B0921474202693N00044673EA0135801471
B0921484202698N00044669EA0135901472
B0921494202702N00044664EA0136001473
B0921504202707N00044659EA0136201474
B0921514202712N00044655EA0136001475
B0921524202717N00044650EA0136201476
B0921534202723N00044646EA0136301476
B0921544202728N00044641EA0136401477
B0921554202734N00044637EA0136401478
B0921564202740N00044633EA0136501479
B0921574202746N00044629EA0136701480
B0921584202752N00044625EA0136701481
B0921594202757N00044621EA0136901482
B0922004202762N00044618EA0137001483
B0922014202767N00044614EA0137001483
B0922024202772N00044610EA0137001484
B0922034202777N00044605EA0137301485
B0922044202782N00044600EA0137201486
B0922054202786N00044595EA0137301487
B0922064202791N00044589EA0137501488
B0922074202796N00044584EA0137601489
B0922084202800N00044578EA0137501490
B0922094202804N00044572EA0137601491
B0922104202808N00044567EA0137801492
B0922114202812N00044561EA0137801493
B0922124202815N00044556EA0138001493
B0922134202818N00044550EA0138101494
B0922144202820N00044544EA0138201495
B0922154202821N00044539EA0138101496
B0922164202822N00044535EA0138101496
B0922174202823N00044531EA0138201497
B0922184202824N00044528EA0138201497
B0922194202825N00044527EA0138201498
B0922204202826N00044526EA0138401498
B0922214202827N00044526EA0138301498
B0922224202829N00044527EA0138401498
B0922234202830N00044530EA0138501498
B0922244202830N00044533EA0138501499
B0922254202830N00044536EA0138501499
B0922264202829N00044540EA0138601499
B0922274202828N00044544EA0138501500
B0922284202828N00044548EA0138801500
B0922294202827N00044553EA0138601501
B0922304202827N00044559EA0138801501
B0922314202826N00044565EA0138701502
B0922324202825N00044570EA0138801502
B0922334202825N00044575EA0138901503
B0922344202824N00044580EA0138901504
B0922354202824N00044585EA0139001505
B0922364202823N00044590EA0139101506
B0922374202822N00044594EA0139101506
B0922384202821N00044598EA0139201507
B0922394202821N00044602EA0139201507
B0922404202819N00044607EA0139301508
B0922414202818N00044611EA0139301509
B0922424202816N00044615EA0139401509
B0922434202814N00044620EA0139401509
B0922444202812N00044624EA0139501510
B0922454202810N00044629EA0139501510
B0922464202807N00044632EA0139501511
B0922474202804N00044635EA0139501511
B0922484202801N00044637EA0139601512
B0922494202800N00044639EA0139801511
B0922504202798N00044641EA0139801511
B0922514202798N00044644EA0139701512
B0922524202798N00044646EA0139701511
B0922534202799N00044648EA0139501512
B0922544202802N00044650EA0139901512
B0922554202804N00044649EA0140001513
B0922564202807N00044647EA0139901513
B0922574202810N00044644EA0140301513
B0922584202813N00044640EA0140001514
B0922594202817N00044636EA0140001515
B0923004202821N00044632EA0140001515
B0923014202824N00044629EA0140201516
B0923024202828N00044625EA0140201517
B0923034202831N00044622EA0140301517
B0923044202834N00044618EA0140401518
B0923054202837N00044614EA0140201518
B0923064202841N00044610EA0140501519
B0923074202844N00044606EA0140401520
B0923084202847N00044601EA0140601520
B0923094202851N00044597EA0140701521
B0923104202854N00044592EA0140901522
B0923114202857N00044586EA0140801522
B0923124202861N00044580EA0140901522
B0923134202864N00044574EA0141001523
B0923144202866N00044568EA0141101524
B0923154202868N00044562EA0141101524
B0923164202870N00044556EA0141001525
B0923174202871N00044549EA0141101526
B0923184202872N00044543EA0141001526
B0923194202872N00044538EA0141301527
B0923204202873N00044532EA0141201528
B0923214202873N00044527EA0141301528
B0923224202873N00044523EA0141101529
B0923234202874N00044518EA0141301529
B0923244202875N00044515EA0141401530
B0923254202877N00044513EA0141401530
B0923264202879N00044513EA0141501530
B0923274202881N00044514EA0141401531
B0923284202883N00044515EA0141501531
B0923294202884N00044518EA0141201532
B0923304202885N00044522EA0141501532
B0923314202885N00044526EA0141501532
B0923324202885N00044530EA0141501532
B0923334202885N00044535EA0141701533
B0923344202885N00044540EA0141601533
B0923354202885N00044546EA0141501533
B0923364202885N00044551EA0141601534
B0923374202886N00044556EA0141601534
B0923384202886N00044561EA0141601534
B0923394202886N00044566EA0141801535
B0923404202886N00044571EA0141801535
B0923414202886N00044576EA0141701536
B0923424202885N00044581EA0141701536
B0923434202884N00044586EA0142001537
B0923444202883N00044591EA0141701537
B0923454202881N00044597EA0142001538
B0923464202880N00044602EA0141501538
B0923474202879N00044608EA0142401539
B0923484202877N00044614EA0142001539
B0923494202876N00044619EA0142201540
B0923504202875N00044624EA0142401541
B0923514202874N00044630EA0142901542
B0923524202873N00044634EA0142901543
B0923534202872N00044639EA0143101544
B0923544202871N00044643EA0142301545
B0923554202870N00044646EA0142801545
B0923564202869N00044649EA0142401546
B0923574202869N00044651EA0142501546
B0923584202868N00044654EA0143001546
B0923594202867N00044656EA0143001547
B0924004202867N00044659EA0142801547
B0924014202866N00044662EA0143101547
B0924024202865N00044665EA0142701548
B0924034202863N00044669EA0142701548
B0924044202861N00044673EA0143101549
B0924054202860N00044677EA0143001550
B0924064202858N00044681EA0143401550
B0924074202857N00044685EA0143401551
B0924084202855N00044690EA0143501552
B0924094202853N00044693EA0143501552
B0924104202852N00044697EA0143501553
B0924114202850N00044700EA0143101554
B0924124202849N00044704EA0143501555
B0924134202847N00044708EA0143401555
B0924144202845N00044711EA0143701556
B0924154202843N00044715EA0143501556
B0924164202841N00044719EA0143801557
B0924174202839N00044722EA0144001558
B0924184202836N00044726EA0144001558
B0924194202834N00044729EA0143901559
B0924204202831N00044733EA0143701560
B0924214202829N00044736EA0144001560
B0924224202827N00044738EA0144001561
B0924234202825N00044741EA0144101561
B0924244202823N00044744EA0144101561
B0924254202821N00044746EA0143901561
B0924264202819N00044749EA0144101562
B0924274202817N00044751EA0144201562
B0924284202815N00044754EA0144301562
B0924294202814N00044756EA0143901562
B0924304202812N00044757EA0144101563
B0924314202812N00044758EA0144001563
B0924324202811N00044759EA0144301563
B0924334202811N00044759EA0144201563
B0924344202811N00044759EA0144201563
B0924354202811N00044759EA0144201562
B0924364202811N00044760EA0144201562
B0924374202811N00044760EA0144301562
B0924384202811N00044760EA0144201562
B0924394202811N00044760EA0144301562
B0924404202811N00044760EA0144301562
B0924414202811N00044760EA0144201562
B0924424202811N00044760EA0144201562
B0924434202811N00044760EA0144301562
B0924444202811N00044760EA0144301562
B0924454202811N00044760EA0144101562
B0924464202811N00044760EA0144201562
GV3P0M0CSZBVlZ1bLlOaDjDRBE8ISiwL76g8l4MT0vSgl6AEqsf4/Yvx4b0xcRPRNrvuQcDE2f+R
GAe9MTYQLDvSlAU9VBS2Gjl1GNwH+Huw9jiuOUxBhKnd+dyxxemZt5bxn2bfZvkCQXsWE5zMFKSD
GdFkWr/pXZpfZUz1com9pY=
