AXSFwn
HFDTEDATE:070826
HFPLTPILOTINCHARGE:Bus 1
HFCM2CREW2:NIL
HFGTYGLIDERTYPE:bus 16 
HFGIDGLIDERID:NIL
HFDTMGPSDATUM:WGS84
HFRFWFIRMWAREVERSION:EU_2.00V
HFRHWHARDWAREVERSION:4.5
HFFTYFRTYPE:alfapilot,Voolaris Tracker
HFGPSRECEIVER:UBLOX,M10,72,50000,GPS,GLO,GAL
HFPRSPRESSALTSENSOR:ST,LPS22HB,10000
HFALGALTGPS:GEO
HFALPALTPRESSURE:ISA
HFTZNTIMEZONE:0
B0846344201851N00043299EA0087500980
B0846354201850N00043303EA0087500982
B0846364201849N00043307EA0087500979
B0846374201848N00043311EA0087200972
B0846384201847N00043314EA0087300970
B0846394201847N00043315EA0087200975
B0846404201846N00043318EA0087200968
B0846414201845N00043321EA0087200968
B0846424201844N00043324EA0087200967
B0846434201843N00043327EA0087100967
B0846444201842N00043330EA0087000967
B0846454201842N00043334EA0087000966
B0846464201841N00043337EA0087100969
B0846474201841N00043341EA0086900970
B0846484201840N00043345EA0086900970
B0846494201839N00043348EA0086800976
B0846504201838N00043353EA0086800976
B0846514201837N00043356EA0086800976
B0846524201836N00043359EA0086600975
B0846534201836N00043364EA0086600973
B0846544201836N00043368EA0086500974
B0846554201836N00043373EA0086400973
B0846564201837N00043376EA0086500973
B0846574201837N00043380EA0086400972
B0846584201838N00043385EA0086300970
B0846594201840N00043389EA0086200970
B0847004201841N00043393EA0086200970
B0847014201842N00043397EA0086200971
B0847024201842N00043402EA0086000969
B0847034201842N00043407EA0086000970
B0847044201841N00043411EA0086000969
B0847054201841N00043416EA0086000969
B0847064201842N00043421EA0085900969
B0847074201848N00043418EA0085900970
B0847084201850N00043421EA0085900969
B0847094201853N00043421EA0085700967
B0847104201857N00043420EA0085800963
B0847114201862N00043420EA0085800962
B0847124201865N00043421EA0085700960
B0847134201868N00043423EA0085700958
B0847144201871N00043426EA0085700957
B0847154201873N00043429EA0085500955
B0847164201876N00043433EA0085600954
B0847174201877N00043437EA0085400952
B0847184201878N00043441EA0085400952
B0847194201879N00043445EA0085300951
B0847204201878N00043450EA0085300951
B0847214201878N00043454EA0085400951
B0847224201878N00043458EA0085200951
B0847234201877N00043462EA0085200950
B0847244201877N00043467EA0085200950
B0847254201876N00043471EA0085100949
B0847264201875N00043476EA0085000949
B0847274201875N00043479EA0085000948
B0847284201874N00043483EA0084900947
B0847294201873N00043487EA0085000946
B0847304201872N00043490EA0085000945
B0847314201870N00043493EA0084800945
B0847324201869N00043496EA0085000943
B0847334201868N00043499EA0084900942
B0847344201866N00043502EA0084900942
B0847354201864N00043506EA0084900942
B0847364201862N00043509EA0084900942
B0847374201860N00043513EA0084900942
B0847384201859N00043518EA0084800941
B0847394201860N00043522EA0084800941
B0847404201860N00043526EA0084700941
B0847414201862N00043530EA0084700940
B0847424201864N00043533EA0084700939
B0847434201866N00043536EA0084600939
B0847444201868N00043539EA0084700939
B0847454201870N00043542EA0084600939
B0847464201871N00043546EA0084600940
B0847474201872N00043550EA0084600939
B0847484201871N00043555EA0084500938
B0847494201871N00043560EA0084500938
B0847504201870N00043566EA0084500937
B0847514201870N00043571EA0084500937
B0847524201869N00043577EA0084400936
B0847534201869N00043582EA0084200935
B0847544201868N00043587EA0084200935
B0847554201868N00043592EA0084300934
B0847564201867N00043597EA0084200933
B0847574201866N00043603EA0084100932
B0847584201865N00043607EA0084100932
B0847594201864N00043612EA0084100931
B0848004201862N00043617EA0084100931
B0848014201861N00043622EA0084000931
B0848024201860N00043626EA0084000930
B0848034201859N00043631EA0084000929
B0848044201857N00043636EA0083800928
B0848054201855N00043640EA0083800927
B0848064201853N00043645EA0083700927
B0848074201851N00043649EA0083700926
B0848084201850N00043654EA0083700925
B0848094201848N00043658EA0083500925
B0848104201846N00043663EA0083500924
B0848114201844N00043667EA0083500923
B0848124201843N00043671EA0083400923
B0848134201842N00043675EA0083300922
B0848144201840N00043680EA0083300921
B0848154201839N00043684EA0083200920
B0848164201837N00043688EA0083300920
B0848174201834N00043691EA0083200919
B0848184201832N00043695EA0083100919
B0848194201831N00043698EA0083100918
B0848204201829N00043702EA0083100917
B0848214201829N00043706EA0083000916
B0848224201829N00043711EA0082900915
B0848234201829N00043715EA0082800914
B0848244201830N00043719EA0082800914
B0848254201830N00043724EA0082800913
B0848264201829N00043729EA0082800913
B0848274201829N00043733EA0082800912
B0848284201829N00043738EA0082700912
B0848294201830N00043742EA0082600911
B0848304201830N00043747EA0082500910
B0848314201831N00043752EA0082500910
B0848324201831N00043757EA0082500910
B0848334201831N00043761EA0082500909
B0848344201832N00043766EA0082300909
B0848354201832N00043771EA0082400909
B0848364201833N00043775EA0082300909
B0848374201833N00043780EA0082300909
B0848384201834N00043785EA0082400909
B0848394201835N00043789EA0082100909
B0848404201836N00043794EA0082200908
B0848414201836N00043798EA0082000908
B0848424201837N00043803EA0082000907
B0848434201837N00043809EA0082100907
B0848444201837N00043814EA0082000906
B0848454201837N00043820EA0082000906
B0848464201836N00043825EA0081900906
B0848474201836N00043829EA0081900905
B0848484201836N00043833EA0081800905
B0848494201834N00043837EA0081700904
B0848504201831N00043839EA0081700903
B0848514201827N00043839EA0081700905
B0848524201824N00043838EA0081700904
B0848534201821N00043836EA0081700905
B0848544201817N00043834EA0081600904
B0848554201814N00043832EA0081600904
B0848564201810N00043831EA0081600903
B0848574201806N00043831EA0081500903
B0848584201802N00043832EA0081600903
B0848594201798N00043833EA0081600902
B0849004201794N00043835EA0081400902
B0849014201791N00043837EA0081400901
B0849024201787N00043839EA0081200901
B0849034201783N00043841EA0081300900
B0849044201779N00043843EA0081100900
B0849054201775N00043845EA0081100900
B0849064201771N00043846EA0081000900
B0849074201767N00043848EA0080900900
B0849084201763N00043849EA0080900900
B0849094201759N00043850EA0080800899
B0849104201755N00043851EA0080800899
B0849114201751N00043853EA0080700899
B0849124201748N00043856EA0080800898
B0849134201744N00043859EA0080600898
B0849144201741N00043863EA0080600898
B0849154201739N00043866EA0080500898
B0849164201736N00043871EA0080600898
B0849174201734N00043875EA0080400897
B0849184201732N00043879EA0080200896
B0849194201731N00043884EA0080200896
B0849204201731N00043889EA0080200895
B0849214201730N00043894EA0080100895
B0849224201730N00043899EA0080200895
B0849234201730N00043904EA0080100894
B0849244201729N00043909EA0080100893
B0849254201729N00043914EA0079900893
B0849264201727N00043919EA0079900893
B0849274201724N00043923EA0080000893
B0849284201721N00043926EA0079900893
B0849294201717N00043929EA0079800892
B0849304201714N00043932EA0079800891
B0849314201711N00043935EA0079700891
B0849324201707N00043937EA0079800890
B0849334201704N00043940EA0079500889
B0849344201701N00043943EA0079500889
B0849354201697N00043946EA0079500888
B0849364201694N00043949EA0079400887
B0849374201691N00043952EA0079300886
B0849384201687N00043955EA0079400885
B0849394201684N00043958EA0079300884
B0849404201679N00043960EA0079200884
B0849414201675N00043963EA0079200883
B0849424201671N00043966EA0079100883
B0849434201669N00043969EA0079000883
B0849444201666N00043972EA0079000883
B0849454201664N00043975EA0078900883
B0849464201664N00043979EA0079000882
B0849474201664N00043983EA0078800882
B0849484201665N00043987EA0078900882
B0849494201668N00043991EA0078900880
B0849504201672N00043994EA0078800878
B0849514201676N00043997EA0078700878
B0849524201680N00044000EA0078600877
B0849534201684N00044003EA0078600876
B0849544201687N00044005EA0078400876
B0849564201690N00044015EA0078400873
B0849574201689N00044020EA0078400872
B0849584201688N00044026EA0078400871
B0850004201684N00044039EA0078200869
B0850014201681N00044045EA0078200868
B0850024201677N00044050EA0078100867
B0850034201672N00044055EA0078000867
B0850044201668N00044059EA0077800866
B0850054201664N00044063EA0077900866
B0850064201660N00044068EA0077700865
B0850074201657N00044073EA0077700864
B0850084201655N00044079EA0077600863
B0850094201653N00044085EA0077400862
B0850104201652N00044090EA0077300860
B0850114201651N00044095EA0077400859
B0850124201650N00044099EA0077400858
B0850134201649N00044103EA0077200857
B0850144201646N00044106EA0077300856
B0850154201643N00044108EA0077100855
B0850164201640N00044109EA0077300854
B0850174201636N00044109EA0077200854
B0850184201631N00044109EA0077100853
B0850194201627N00044109EA0077000852
B0850204201622N00044111EA0077000852
B0850214201618N00044114EA0077000852
B0850224201613N00044118EA0076900851
B0850234201608N00044122EA0076800850
B0850244201603N00044126EA0076700850
B0850254201598N00044129EA0076800849
B0850264201593N00044132EA0076600849
B0850274201589N00044136EA0076500848
B0850284201586N00044140EA0076500847
B0850294201582N00044143EA0076400847
B0850304201578N00044147EA0076300847
B0850314201575N00044151EA0076400847
B0850324201573N00044156EA0076300846
B0850334201571N00044162EA0076200845
B0850344201570N00044168EA0076100844
B0850354201568N00044175EA0076100843
B0850364201567N00044182EA0076000842
B0850374201565N00044189EA0075900840
B0850384201563N00044195EA0075900839
B0850394201561N00044201EA0075800838
B0850404201560N00044207EA0075700837
B0850414201560N00044213EA0075700837
B0850424201561N00044218EA0075600836
B0850434201563N00044223EA0075500835
B0850444201565N00044227EA0075500834
B0850454201567N00044231EA0075300834
B0850464201567N00044236EA0075300834
B0850474201565N00044239EA0075300833
B0850484201563N00044243EA0075300832
B0850494201559N00044245EA0075300831
B0850504201554N00044248EA0075300831
B0850514201550N00044251EA0075200830
B0850524201546N00044255EA0075200829
B0850534201541N00044260EA0075000827
B0850544201537N00044266EA0075000826
B0850554201533N00044271EA0074900825
B0850564201530N00044277EA0074700824
B0850574201527N00044283EA0074600824
B0850584201524N00044289EA0074500824
B0850594201523N00044295EA0074400823
B0851004201521N00044302EA0074400822
B0851014201520N00044309EA0074300821
B0851024201519N00044315EA0074200821
B0851034201518N00044322EA0074100821
B0851044201518N00044327EA0074100820
B0851054201517N00044333EA0074000819
B0851064201515N00044338EA0074000818
B0851074201513N00044344EA0073800817
B0851084201511N00044350EA0073800816
B0851094201508N00044355EA0073700815
B0851104201504N00044361EA0073700814
B0851114201501N00044367EA0073500813
B0851124201497N00044373EA0073500812
B0851134201493N00044379EA0073500811
B0851144201490N00044385EA0073400811
B0851154201488N00044392EA0073300810
B0851164201487N00044399EA0073100810
B0851174201486N00044406EA0073000809
B0851184201487N00044413EA0073100809
B0851194201488N00044420EA0073000810
B0851204201490N00044427EA0073100810
B0851214201493N00044433EA0072900810
B0851224201495N00044439EA0073000809
B0851234201497N00044445EA0072900809
B0851244201499N00044450EA0072800809
B0851254201501N00044456EA0072800809
B0851264201502N00044462EA0072800809
B0851274201503N00044468EA0072700808
B0851284201502N00044472EA0072600808
B0851294201502N00044477EA0072500807
B0851304201501N00044481EA0072500807
B0851314201500N00044486EA0072500806
B0851324201499N00044491EA0072500806
B0851334201497N00044495EA0072400805
B0851344201494N00044500EA0072300804
B0851354201490N00044503EA0072300803
B0851364201486N00044505EA0072200802
B0851374201480N00044508EA0072200801
B0851384201475N00044510EA0072100800
B0851394201469N00044513EA0072100800
B0851404201463N00044516EA0072000798
B0851414201457N00044519EA0071800797
B0851424201451N00044521EA0071800795
B0851434201444N00044523EA0071500794
B0851444201438N00044523EA0071500793
B0851454201432N00044522EA0071300792
B0851464201426N00044519EA0071300791
B0851474201421N00044517EA0071300790
B0851484201415N00044514EA0071100790
B0851494201410N00044511EA0071000789
B0851504201405N00044508EA0070800788
B0851514201400N00044506EA0070700787
B0851524201395N00044503EA0070700786
B0851534201390N00044501EA0070600785
B0851544201384N00044499EA0070500785
B0851554201379N00044499EA0070400784
B0851564201373N00044500EA0070300783
B0851574201366N00044501EA0070300783
B0851584201361N00044503EA0070400782
B0851594201355N00044507EA0070200782
B0852004201350N00044511EA0070100782
B0852014201345N00044516EA0070200781
B0852024201341N00044521EA0070100780
B0852034201337N00044527EA0070100780
B0852044201333N00044533EA0070000779
B0852054201330N00044539EA0070000779
B0852064201327N00044545EA0070000779
B0852074201323N00044551EA0069900779
B0852084201321N00044558EA0069800779
B0852094201318N00044564EA0069800779
B0852104201315N00044570EA0069800779
B0852114201313N00044577EA0069800778
B0852124201310N00044583EA0069700777
B0852134201309N00044590EA0069500777
B0852144201307N00044596EA0069500776
B0852154201306N00044602EA0069500776
B0852164201305N00044608EA0069400775
B0852174201304N00044614EA0069300775
B0852184201303N00044618EA0069300774
B0852194201301N00044622EA0069200773
B0852204201298N00044624EA0069200773
B0852214201295N00044625EA0069100774
B0852224201292N00044624EA0069200773
B0852234201289N00044622EA0069100774
B0852244201286N00044619EA0069200773
B0852254201283N00044616EA0069000772
B0852264201279N00044614EA0069000773
B0852274201276N00044612EA0069000772
B0852284201272N00044611EA0069000772
B0852294201268N00044610EA0069000771
B0852304201264N00044609EA0068900771
B0852314201259N00044608EA0068900770
B0852324201255N00044606EA0068800769
B0852334201251N00044603EA0068900769
B0852344201247N00044600EA0068800768
B0852354201242N00044596EA0068700768
B0852364201238N00044593EA0068600768
B0852374201233N00044591EA0068500767
B0852384201229N00044589EA0068300767
B0852394201225N00044588EA0068300766
B0852404201221N00044587EA0068200765
B0852414201218N00044587EA0068200764
B0852424201215N00044588EA0068200764
B0852434201211N00044589EA0068100764
B0852444201208N00044592EA0068100763
B0852454201205N00044595EA0068000763
B0852464201202N00044598EA0068000762
B0852474201199N00044602EA0068000762
B0852484201196N00044605EA0067900762
B0852494201192N00044609EA0067900762
B0852504201189N00044612EA0068000762
B0852514201185N00044615EA0067900762
B0852524201181N00044617EA0067800763
B0852534201177N00044618EA0067800762
B0852544201172N00044618EA0067700763
B0852554201168N00044618EA0067600762
B0852564201163N00044617EA0067700762
B0852574201158N00044617EA0067600761
B0852584201153N00044616EA0067500760
B0852594201148N00044615EA0067500760
B0853004201143N00044613EA0067400759
B0853014201139N00044612EA0067300759
B0853024201134N00044611EA0067300758
B0853034201130N00044611EA0067200758
B0853044201125N00044612EA0067300757
B0853054201120N00044615EA0067100756
B0853064201116N00044618EA0067000756
B0853074201111N00044621EA0066900755
B0853084201107N00044624EA0066900755
B0853094201103N00044628EA0066900755
B0853104201099N00044631EA0066800756
B0853114201094N00044633EA0066800756
B0853124201090N00044635EA0066700755
B0853134201085N00044636EA0066600755
B0853144201081N00044636EA0066700754
B0853154201076N00044636EA0066500753
B0853164201072N00044637EA0066400753
B0853174201068N00044637EA0066500752
B0853184201064N00044637EA0066300751
B0853194201059N00044637EA0066200751
B0853204201055N00044637EA0066200750
B0853214201052N00044637EA0066200750
B0853224201048N00044638EA0066100750
B0853234201045N00044638EA0066000749
B0853244201041N00044638EA0065900749
B0853254201039N00044638EA0065900749
B0853264201037N00044638EA0065800749
B0853274201035N00044638EA0065900750
B0853284201034N00044638EA0065800750
B0853294201032N00044638EA0065800750
B0853304201031N00044638EA0065700750
B0853314201029N00044636EA0065800748
B0853324201027N00044636EA0065800748
B0853334201024N00044634EA0065800746
B0853344201022N00044633EA0065700746
B0853354201019N00044632EA0065600745
B0853364201017N00044631EA0065700744
B0853374201015N00044630EA0065700743
B0853384201013N00044629EA0065600742
B0853394201010N00044627EA0065700741
B0853404201007N00044624EA0065600740
B0853414201003N00044622EA0065600739
B0853424200999N00044620EA0065500738
B0853434200994N00044619EA0065500737
B0853444200989N00044619EA0065600736
B0853454200983N00044621EA0065600736
B0853464200977N00044624EA0065600735
B0853474200970N00044627EA0065500734
B0853484200963N00044629EA0065400734
B0853494200955N00044631EA0065400732
B0853504200947N00044632EA0065500731
B0853514200939N00044633EA0065300730
B0853524200930N00044634EA0065300729
B0853534200921N00044636EA0065100727
B0853544200912N00044638EA0065100726
B0853554200904N00044642EA0064900725
B0853564200896N00044646EA0064700724
B0853574200889N00044650EA0064500723
B0853584200881N00044654EA0064500723
B0853594200873N00044656EA0064400721
B0854004200865N00044657EA0064400720
B0854014200857N00044659EA0064200719
B0854024200848N00044662EA0064200718
B0854034200841N00044667EA0064100716
B0854044200833N00044674EA0064100715
B0854054200826N00044682EA0064100715
B0854064200819N00044690EA0064000714
B0854074200813N00044700EA0064000714
B0854084200807N00044711EA0064000712
B0854094200801N00044721EA0063700712
B0854104200796N00044731EA0063600711
B0854114200790N00044741EA0063500711
B0854124200783N00044751EA0063300709
B0854134200775N00044760EA0063400708
B0854144200767N00044768EA0063400707
B0854154200758N00044776EA0063200706
B0854164200750N00044783EA0063000705
B0854174200741N00044790EA0062800705
B0854184200734N00044796EA0062600704
B0854194200727N00044801EA0062500703
B0854204200720N00044807EA0062500703
B0854214200713N00044813EA0062300701
B0854224200707N00044819EA0062300700
B0854234200700N00044824EA0062100699
B0854244200693N00044830EA0062000698
B0854254200685N00044836EA0062000697
B0854264200678N00044842EA0061900696
B0854274200670N00044849EA0061900695
B0854284200663N00044854EA0061800694
B0854294200655N00044860EA0061600693
B0854304200647N00044865EA0061500692
B0854314200639N00044870EA0061400691
B0854324200632N00044874EA0061200691
B0854334200624N00044878EA0061100690
B0854344200617N00044882EA0061000688
B0854354200611N00044886EA0060700686
B0854364200606N00044890EA0060600685
B0854374200601N00044895EA0060600685
B0854384200598N00044902EA0060800684
B0854394200594N00044911EA0060700684
B0854404200590N00044920EA0060700683
B0854414200585N00044929EA0060700682
B0854424200580N00044938EA0060700681
B0854434200574N00044948EA0060600680
B0854444200569N00044958EA0060500679
B0854454200564N00044969EA0060500679
B0854464200559N00044978EA0060400678
B0854474200553N00044988EA0060300677
B0854484200546N00044997EA0060300676
B0854494200540N00045006EA0060100675
B0854504200534N00045015EA0060000675
B0854514200528N00045024EA0060000674
B0854524200523N00045034EA0060000674
B0854534200518N00045044EA0059800673
B0854544200512N00045054EA0059800673
B0854554200507N00045063EA0059700672
B0854564200501N00045072EA0059500671
B0854574200496N00045080EA0059500670
B0854584200489N00045089EA0059500669
B0854594200483N00045097EA0059500668
B0855004200477N00045105EA0059300667
B0855014200471N00045113EA0059300666
B0855024200465N00045121EA0059000664
B0855034200458N00045128EA0058900663
B0855044200452N00045135EA0058800663
B0855054200445N00045142EA0058900662
B0855064200437N00045149EA0058800661
B0855074200429N00045155EA0058700660
B0855084200420N00045162EA0058800659
B0855094200412N00045169EA0058500657
B0855104200404N00045176EA0058400656
B0855114200396N00045182EA0058300655
B0855124200388N00045189EA0058200654
B0855134200380N00045195EA0058000653
B0855144200372N00045201EA0057800652
B0855154200365N00045207EA0057700651
B0855164200359N00045213EA0057600651
B0855174200353N00045220EA0057600650
B0855184200347N00045227EA0057600650
B0855194200343N00045236EA0057500649
B0855204200339N00045246EA0057400648
B0855214200336N00045255EA0057300647
B0855224200333N00045263EA0057000646
B0855234200331N00045271EA0056900646
B0855244200328N00045278EA0056900645
B0855254200326N00045284EA0056800645
B0855264200324N00045291EA0056700645
B0855274200322N00045297EA0056700645
B0855284200321N00045302EA0056600644
B0855294200319N00045309EA0056600644
B0855304200317N00045316EA0056700643
B0855314200315N00045324EA0056700643
B0855324200313N00045333EA0056800642
B0855334200311N00045342EA0056700642
B0855344200309N00045352EA0056600641
B0855354200307N00045361EA0056500641
B0855364200306N00045370EA0056400640
B0855374200305N00045377EA0056300640
B0855384200304N00045383EA0056100639
B0855394200303N00045388EA0056200639
B0855404200302N00045394EA0056000639
B0855414200301N00045399EA0056100639
B0855424200301N00045405EA0056100639
B0855434200301N00045410EA0056200638
B0855444200301N00045416EA0056100638
B0855454200302N00045421EA0056000638
B0855464200303N00045427EA0056000637
B0855474200305N00045433EA0055900637
B0855484200306N00045438EA0055700636
B0855494200307N00045443EA0055800636
B0855504200308N00045449EA0055700635
B0855514200307N00045453EA0055500635
B0855524200305N00045458EA0055600635
B0855534200302N00045462EA0055500634
B0855544200297N00045464EA0055500633
B0855554200292N00045464EA0055500632
B0855564200286N00045465EA0055600632
B0855574200280N00045467EA0055500632
B0855584200274N00045471EA0055500631
B0855594200269N00045477EA0055400631
B0856004200263N00045482EA0055300631
B0856014200258N00045487EA0055100630
B0856024200253N00045489EA0055100630
B0856034200249N00045489EA0055000630
B0856044200244N00045487EA0055100630
B0856054200241N00045483EA0055200630
B0856064200238N00045478EA0055100630
B0856074200234N00045475EA0055200630
B0856084200231N00045473EA0055100629
B0856094200227N00045473EA0055100628
B0856104200224N00045474EA0055000627
B0856114200220N00045476EA0055100628
B0856124200216N00045479EA0055100627
B0856134200212N00045481EA0054900627
B0856144200208N00045483EA0054800626
B0856154200204N00045486EA0054800626
B0856164200200N00045488EA0054800625
B0856174200197N00045490EA0054800625
B0856184200194N00045491EA0054800624
B0856194200192N00045492EA0054700624
B0856204200190N00045493EA0054600625
B0856214200189N00045493EA0054700625
B0856224200188N00045494EA0054600625
B0856234200187N00045495EA0054600625
B0856244200186N00045497EA0054700625
B0856254200186N00045498EA0054600625
B0856264200186N00045500EA0054700625
B0856274200187N00045501EA0054600625
B0856284200188N00045502EA0054600625
B0856294200190N00045502EA0054600624
B0856304200190N00045502EA0054600624
B0856314200191N00045501EA0054600624
B0856324200191N00045501EA0054600624
B0856334200191N00045501EA0054600624
B0856344200191N00045501EA0054600624
B0856354200191N00045501EA0054700624
B0856364200192N00045501EA0054700624
B0856374200192N00045501EA0054600624
B0856384200192N00045501EA0054500623
B0856394200192N00045500EA0054600623
B0856404200192N00045500EA0054700624
B0856414200192N00045500EA0054600624
B0856424200193N00045500EA0054600624
B0856434200193N00045499EA0054600623
B0856444200194N00045498EA0054700623
B0856454200194N00045497EA0054600624
B0856464200193N00045495EA0054600624
B0856474200193N00045493EA0054700624
B0856484200194N00045491EA0054800624
B0856494200195N00045489EA0054800624
B0856504200197N00045487EA0054800624
B0856514200199N00045486EA0054800625
B0856524200202N00045484EA0054900625
B0856534200205N00045482EA0054900625
B0856544200209N00045480EA0055000625
B0856554200214N00045478EA0055100626
B0856564200219N00045475EA0055000625
B0856574200224N00045472EA0055100626
B0856584200229N00045471EA0055100626
B0856594200233N00045472EA0055100627
B0857004200237N00045475EA0054900628
B0857014200240N00045480EA0055300628
B0857024200244N00045484EA0055200628
B0857034200248N00045487EA0055200627
B0857044200253N00045487EA0055300627
B0857054200258N00045485EA0055300627
B0857064200263N00045480EA0055300627
B0857074200268N00045475EA0055500628
B0857084200272N00045470EA0055400628
B0857094200278N00045466EA0055400629
B0857104200283N00045463EA0055400629
B0857114200288N00045463EA0055500629
B0857124200294N00045463EA0055600630
B0857134200300N00045462EA0055700630
B0857144200304N00045458EA0055800631
B0857154200306N00045451EA0055800633
B0857164200306N00045445EA0055900634
B0857174200304N00045438EA0056100635
B0857184200303N00045431EA0056100636
B0857194200301N00045423EA0056100638
B0857204200300N00045415EA0056300638
B0857214200300N00045406EA0056400639
B0857224200301N00045396EA0056400639
B0857234200303N00045386EA0056500639
B0857244200304N00045376EA0056500639
B0857254200306N00045365EA0056600639
B0857264200308N00045354EA0056900640
B0857274200310N00045343EA0056800640
B0857284200313N00045331EA0056900641
B0857294200315N00045320EA0057000642
B0857304200318N00045309EA0057000643
B0857314200321N00045299EA0057000644
B0857324200324N00045288EA0057300645
B0857334200328N00045277EA0057200646
B0857344200331N00045267EA0057200647
B0857354200334N00045258EA0057100647
B0857364200337N00045250EA0057100648
B0857374200340N00045242EA0057200648
B0857384200343N00045235EA0057200649
B0857394200346N00045228EA0057300649
B0857404200350N00045221EA0057300649
B0857414200354N00045216EA0057300650
B0857424200359N00045211EA0057500651
B0857434200363N00045207EA0057400651
B0857444200367N00045203EA0057500652
B0857454200372N00045199EA0057500652
B0857464200376N00045196EA0057600652
B0857474200381N00045192EA0057700652
B0857484200386N00045188EA0057700653
B0857494200392N00045185EA0057600653
B0857504200397N00045180EA0057900653
B0857514200403N00045175EA0058000654
B0857524200409N00045170EA0058100655
B0857534200415N00045165EA0058200656
B0857544200421N00045160EA0058500657
B0857554200428N00045155EA0058400658
B0857564200434N00045150EA0058600659
B0857574200441N00045145EA0058700660
B0857584200447N00045139EA0058600661
B0857594200453N00045133EA0058700662
B0858004200459N00045128EA0058900663
B0858014200464N00045121EA0058900664
B0858024200469N00045115EA0059000664
B0858034200474N00045108EA0059200665
B0858044200480N00045101EA0059100666
B0858054200485N00045093EA0059200667
B0858064200490N00045087EA0059300667
B0858074200495N00045080EA0059200668
B0858084200499N00045074EA0059400669
B0858094200503N00045067EA0059400670
B0858104200508N00045061EA0059500670
B0858114200512N00045053EA0059600671
B0858124200516N00045046EA0059600671
B0858134200520N00045037EA0059700672
B0858144200524N00045029EA0059600672
B0858154200528N00045021EA0059600672
B0858164200533N00045014EA0059700673
B0858174200537N00045008EA0059700673
B0858184200541N00045002EA0059700674
B0858194200545N00044996EA0059800674
B0858204200550N00044991EA0059800675
B0858214200554N00044985EA0060000675
B0858224200558N00044979EA0060000676
B0858234200562N00044972EA0060100677
B0858244200566N00044965EA0060200677
B0858254200569N00044957EA0060100678
B0858264200572N00044950EA0060100678
B0858274200576N00044944EA0060200679
B0858284200579N00044937EA0060300680
B0858294200583N00044931EA0060400681
B0858304200587N00044925EA0060300682
B0858314200590N00044919EA0060400682
B0858324200593N00044912EA0060400682
B0858334200595N00044905EA0060400683
B0858344200598N00044899EA0060400683
B0858354200601N00044893EA0060500683
B0858364200606N00044888EA0060600684
B0858374200610N00044884EA0060600684
B0858384200615N00044882EA0060800686
B0858394200620N00044879EA0060900687
B0858404200626N00044876EA0060900688
B0858414200631N00044873EA0061200688
B0858424200637N00044870EA0061100689
B0858434200643N00044867EA0061200690
B0858444200649N00044863EA0061400690
B0858454200654N00044859EA0061400691
B0858464200660N00044854EA0061400691
B0858474200666N00044850EA0061600692
B0858484200672N00044845EA0061600693
B0858494200677N00044841EA0061700694
B0858504200683N00044836EA0061800695
B0858514200689N00044831EA0061900696
B0858524200694N00044827EA0061900697
B0858534200700N00044822EA0062100698
B0858544200706N00044818EA0062200699
B0858554200712N00044813EA0062300700
B0858564200717N00044808EA0062300701
B0858574200723N00044803EA0062400701
B0858584200728N00044798EA0062500702
B0858594200734N00044794EA0062500703
B0859004200739N00044789EA0062500704
B0859014200745N00044785EA0062600704
B0859024200750N00044780EA0062700705
B0859034200756N00044776EA0062800706
B0859044200761N00044771EA0062900707
B0859054200767N00044767EA0062900708
B0859064200772N00044761EA0063000709
B0859074200778N00044755EA0063200709
B0859084200783N00044748EA0063200710
B0859094200788N00044741EA0063300711
B0859104200792N00044734EA0063300712
B0859114200796N00044726EA0063300713
B0859124200800N00044718EA0063400714
B0859134200804N00044711EA0063500714
B0859144200808N00044703EA0063600715
B0859154200813N00044695EA0063700715
B0859164200818N00044688EA0063700716
B0859174200824N00044680EA0063800717
B0859184200829N00044673EA0063700717
B0859194200835N00044667EA0063800718
B0859204200841N00044663EA0063900719
B0859214200847N00044659EA0063900720
B0859224200854N00044657EA0064200720
B0859234200861N00044655EA0064200721
B0859244200867N00044654EA0064100722
B0859254200873N00044652EA0064200723
B0859264200879N00044650EA0064400724
B0859274200885N00044648EA0064400724
B0859284200890N00044645EA0064500725
B0859294200896N00044641EA0064500726
B0859304200901N00044639EA0064500726
B0859314200906N00044637EA0064600727
B0859324200912N00044635EA0064800728
B0859334200918N00044634EA0064800728
B0859344200924N00044633EA0064900729
B0859354200931N00044631EA0065000730
B0859364200937N00044630EA0065000730
B0859374200944N00044629EA0065100731
B0859384200951N00044628EA0065200732
B0859394200957N00044627EA0065200733
B0859404200963N00044625EA0065400734
B0859414200968N00044623EA0065400735
B0859424200973N00044621EA0065500736
B0859434200978N00044619EA0065400737
B0859444200982N00044617EA0065400737
B0859454200986N00044616EA0065500737
B0859464200990N00044615EA0065500738
B0859474200993N00044615EA0065500738
B0859484200997N00044617EA0065500739
B0859494201001N00044618EA0065600739
B0859504201005N00044620EA0065700739
B0859514201008N00044623EA0065700739
B0859524201012N00044625EA0065800739
B0859534201015N00044627EA0065800739
B0859544201018N00044628EA0065800740
B0859554201021N00044630EA0065800740
B0859564201024N00044631EA0065800740
B0859574201026N00044633EA0065800740
B0859584201028N00044634EA0065800740
B0859594201029N00044635EA0065800740
B0900004201031N00044636EA0065800740
B0900014201032N00044636EA0065800740
B0900024201033N00044636EA0065800740
B0900034201033N00044636EA0065900739
B0900044201034N00044636EA0065800739
B0900054201034N00044636EA0065900739
B0900064201034N00044636EA0065800739
B0900074201034N00044636EA0065900739
B0900084201034N00044636EA0065800739
B0900094201034N00044636EA0065800739
B0900104201034N00044636EA0065900739
B0900114201034N00044636EA0065900739
B0900124201034N00044636EA0065900738
B0900134201034N00044636EA0065900738
B0900144201034N00044636EA0065900738
B0900154201034N00044636EA0065900738
B0900164201034N00044636EA0065800738
GR3HWgY+i5VUPZb0fkzMvC6gLbzBNEly31MxYhL8PEmJXVQkFmcAtpyL082hnus758jcs6PvWeLO
GfML23SYqS9ZgYYYbFmxIfOCy16zV/fxeaqsYxeZiiCARVQuvnyrcc+68nzGluzyT9v97eRwxlV+
G/Dd9e3bpq5h0jpclEDMUI=
