AXSFwn
HFDTEDATE:070826
HFPLTPILOTINCHARGE:Hakan Lindqvist
HFCM2CREW2:NIL
HFGTYGLIDERTYPE: Ozone Lyght
HFGIDGLIDERID:NIL
HFDTMGPSDATUM:WGS84
HFRFWFIRMWAREVERSION:EU_2.00V
HFRHWHARDWAREVERSION:4.5
HFFTYFRTYPE:alfapilot,Voolaris Tracker
HFGPSRECEIVER:UBLOX,M10,72,50000,GPS,GLO,GAL
HFPRSPRESSALTSENSOR:ST,LPS22HB,10000
HFALGALTGPS:GEO
HFALPALTPRESSURE:ISA
HFTZNTIMEZONE:0
B1446264148924N00123701EA0040300446
B1446274148924N00123701EA0040200446
B1446284148924N00123701EA0040300445
B1446294148924N00123700EA0040300446
B1446304148924N00123700EA0040300446
B1446314148924N00123700EA0040200446
B1446324148924N00123700EA0040300446
B1446334148924N00123699EA0040300445
B1446344148925N00123699EA0040300445
B1446354148925N00123700EA0040200445
B1446364148925N00123700EA0040200445
B1446374148925N00123700EA0040200446
B1446384148925N00123701EA0039800446
B1446394148925N00123700EA0040100446
B1446404148925N00123700EA0040100447
B1446414148925N00123700EA0040100446
B1446424148925N00123700EA0040100445
B1446434148924N00123700EA0040100445
B1446444148925N00123700EA0040000445
B1446454148925N00123700EA0040200444
B1446464148925N00123699EA0040200444
B1446474148924N00123699EA0040200445
B1446484148924N00123700EA0040100445
B1446494148924N00123701EA0040100444
B1446504148924N00123702EA0040300445
B1446514148925N00123703EA0040100445
B1446524148927N00123705EA0040200444
B1446534148928N00123706EA0040200443
B1446544148928N00123706EA0040100442
B1446554148929N00123706EA0040100441
B1446564148930N00123706EA0040200440
B1446574148931N00123706EA0040100439
B1446584148933N00123705EA0040200439
B1446594148934N00123703EA0040300438
B1447004148936N00123701EA0040100438
B1447014148938N00123699EA0040200437
B1447024148939N00123696EA0040200437
B1447034148941N00123693EA0040200436
B1447044148943N00123689EA0040200436
B1447054148945N00123686EA0040200435
B1447064148947N00123682EA0040100435
B1447074148948N00123679EA0040100435
B1447084148950N00123675EA0040200435
B1447094148952N00123671EA0040300433
B1447104148954N00123667EA0040200431
B1447114148957N00123661EA0040300430
B1447124148960N00123655EA0040400429
B1447134148963N00123649EA0040400426
B1447144148966N00123643EA0040400426
B1447154148969N00123637EA0040400426
B1447164148972N00123630EA0040400425
B1447174148975N00123624EA0040400423
B1447184148978N00123617EA0040400423
B1447194148981N00123610EA0040400423
B1447204148985N00123603EA0040500422
B1447214148988N00123595EA0040400421
B1447224148992N00123587EA0040500422
B1447234148995N00123579EA0040500423
B1447244148999N00123571EA0040500423
B1447254149003N00123563EA0040400423
B1447264149007N00123555EA0040400423
B1447274149011N00123546EA0040600423
B1447284149015N00123536EA0040700424
B1447294149018N00123526EA0041200423
B1447304149021N00123515EA0041000423
B1447314149024N00123504EA0040500424
B1447324149027N00123492EA0040400424
B1447334149031N00123480EA0040400426
B1447344149035N00123467EA0040400426
B1447354149038N00123454EA0040400426
B1447364149041N00123440EA0040300425
B1447374149045N00123427EA0040400425
B1447384149049N00123414EA0040500425
B1447394149052N00123401EA0040400424
B1447404149056N00123388EA0040300424
B1447414149059N00123374EA0040400425
B1447424149062N00123360EA0040400425
B1447434149065N00123346EA0040300425
B1447444149069N00123332EA0040500426
B1447454149072N00123318EA0040800427
B1447464149076N00123303EA0041500427
B1447474149079N00123289EA0041300428
B1447484149083N00123275EA0041000428
B1447494149087N00123261EA0041100428
B1447504149091N00123247EA0041300428
B1447514149095N00123232EA0041400428
B1447524149099N00123217EA0041300429
B1447534149103N00123202EA0041300429
B1447544149108N00123187EA0041300428
B1447554149111N00123172EA0041200428
B1447564149115N00123157EA0041300427
B1447574149120N00123142EA0041400428
B1447584149123N00123127EA0041500430
B1447594149127N00123113EA0041200430
B1448004149132N00123098EA0041400429
B1448014149136N00123084EA0041500430
B1448024149140N00123070EA0041500429
B1448034149144N00123056EA0041500428
B1448044149148N00123041EA0041400427
B1448054149151N00123027EA0041500427
B1448064149154N00123013EA0041400429
B1448074149157N00123000EA0041300430
B1448084149161N00122986EA0041300430
B1448094149164N00122973EA0041600431
B1448104149168N00122960EA0041500433
B1448114149171N00122947EA0041700434
B1448124149174N00122933EA0041500435
B1448134149178N00122920EA0041700435
B1448144149182N00122907EA0041800435
B1448154149185N00122893EA0041600436
B1448164149190N00122880EA0041700436
B1448174149194N00122867EA0041700436
B1448184149199N00122853EA0041600436
B1448194149204N00122841EA0041700436
B1448204149209N00122828EA0041700436
B1448214149214N00122815EA0041800437
B1448224149219N00122802EA0041800437
B1448234149225N00122788EA0041700437
B1448244149231N00122774EA0041900436
B1448254149237N00122761EA0041800435
B1448264149243N00122748EA0041600436
B1448274149249N00122735EA0041900437
B1448284149256N00122721EA0041600436
B1448294149262N00122707EA0041800435
B1448304149269N00122694EA0041900439
B1448314149275N00122681EA0041800439
B1448324149281N00122667EA0041700439
B1448334149287N00122653EA0041800440
B1448344149293N00122639EA0041800441
B1448354149300N00122625EA0041800442
B1448364149306N00122611EA0042100446
B1448374149313N00122596EA0041800447
B1448384149320N00122582EA0041900447
B1448394149327N00122567EA0041900446
B1448404149333N00122553EA0041800445
B1448414149340N00122538EA0041700448
B1448424149346N00122523EA0041600449
B1448434149353N00122508EA0041600450
B1448444149360N00122493EA0041700450
B1448454149367N00122477EA0041900451
B1448464149374N00122462EA0041900453
B1448474149381N00122447EA0042000453
B1448484149387N00122431EA0042100454
B1448494149394N00122415EA0042200453
B1448504149401N00122399EA0042000454
B1448514149408N00122383EA0042200454
B1448524149416N00122367EA0042100454
B1448534149423N00122351EA0041700457
B1448544149430N00122335EA0042500458
B1448554149437N00122319EA0042200460
B1448564149445N00122303EA0042300460
B1448574149452N00122287EA0042000459
B1448584149459N00122271EA0042200461
B1448594149466N00122255EA0042500458
B1449004149473N00122239EA0042700460
B1449014149480N00122224EA0042700460
B1449024149486N00122209EA0042700461
B1449034149494N00122194EA0042800460
B1449044149501N00122179EA0042800459
B1449054149508N00122164EA0042900458
B1449064149516N00122149EA0042900459
B1449074149523N00122134EA0042900459
B1449084149532N00122119EA0042200458
B1449094149540N00122104EA0041400459
B1449104149550N00122090EA0041300457
B1449114149560N00122075EA0041200457
B1449124149571N00122061EA0041100457
B1449134149581N00122047EA0041200457
B1449144149592N00122033EA0041100459
B1449154149603N00122020EA0040900458
B1449164149614N00122007EA0040800455
B1449174149625N00121994EA0040600455
B1449184149637N00121982EA0040700452
B1449194149648N00121969EA0040600450
B1449204149660N00121957EA0040500447
B1449214149671N00121945EA0040300446
B1449224149683N00121933EA0040200445
B1449234149694N00121920EA0040300445
B1449244149705N00121908EA0040300445
B1449254149716N00121896EA0040300445
B1449264149728N00121884EA0040300445
B1449274149738N00121872EA0040100445
B1449284149749N00121860EA0040000445
B1449294149759N00121849EA0040000446
B1449304149769N00121838EA0040100448
B1449314149778N00121828EA0039900448
B1449324149788N00121818EA0040100448
B1449334149797N00121808EA0040000447
B1449344149806N00121798EA0039900447
B1449354149816N00121788EA0040000446
B1449364149825N00121779EA0040000446
B1449374149834N00121769EA0040000446
B1449384149843N00121759EA0040100447
B1449394149852N00121750EA0040000447
B1449404149861N00121740EA0040100447
B1449414149870N00121729EA0039900448
B1449424149880N00121719EA0040100447
B1449434149890N00121709EA0040000446
B1449444149899N00121698EA0040000447
B1449454149909N00121688EA0040000447
B1449464149919N00121677EA0040000446
B1449474149928N00121666EA0039900448
B1449484149938N00121655EA0040000447
B1449494149949N00121645EA0040000447
B1449504149959N00121634EA0039800447
B1449514149969N00121623EA0039900447
B1449524149980N00121613EA0040000446
B1449534149990N00121603EA0040000446
B1449544150001N00121593EA0039900446
B1449554150012N00121584EA0039900445
B1449564150023N00121575EA0039900445
B1449574150034N00121567EA0039900445
B1449584150045N00121559EA0040000445
B1449594150056N00121552EA0040000446
B1450004150066N00121545EA0039800446
B1450014150077N00121539EA0039900446
B1450024150088N00121533EA0040000447
B1450034150098N00121529EA0040000446
B1450044150108N00121525EA0039900445
B1450054150118N00121520EA0039900445
B1450064150128N00121517EA0039900444
B1450074150138N00121513EA0039900444
B1450084150149N00121510EA0039900443
B1450094150160N00121507EA0040000443
B1450104150171N00121504EA0040000443
B1450114150182N00121503EA0039900442
B1450124150194N00121501EA0040000441
B1450134150205N00121498EA0040000440
B1450144150216N00121496EA0039900439
B1450154150227N00121493EA0040000437
B1450164150239N00121490EA0040000437
B1450174150251N00121488EA0039900437
B1450184150262N00121486EA0039800436
B1450194150273N00121484EA0040000435
B1450204150282N00121482EA0039800434
B1450214150292N00121480EA0039800433
B1450224150301N00121477EA0039800433
B1450234150310N00121473EA0039800431
B1450244150317N00121468EA0039800430
B1450254150325N00121462EA0039800429
B1450264150331N00121455EA0039800429
B1450274150338N00121448EA0039700427
B1450284150344N00121441EA0039600426
B1450294150349N00121432EA0039600426
B1450304150353N00121424EA0039600426
B1450314150357N00121416EA0039700426
B1450324150360N00121409EA0039700425
B1450334150363N00121402EA0039600425
B1450344150366N00121395EA0039600426
B1450354150368N00121388EA0039500428
B1450364150370N00121382EA0039600428
B1450374150372N00121377EA0039700428
B1450384150375N00121372EA0039500428
B1450394150378N00121369EA0039600428
B1450404150381N00121366EA0039700428
B1450414150383N00121362EA0039600428
B1450424150386N00121357EA0039700428
B1450434150386N00121352EA0039700429
B1450444150386N00121346EA0039700430
B1450454150386N00121341EA0039800430
B1450464150387N00121335EA0039700431
B1450474150389N00121329EA0039800432
B1450484150391N00121322EA0039800432
B1450494150394N00121316EA0039900430
B1450504150397N00121308EA0040000429
B1450514150399N00121301EA0040000429
B1450524150402N00121293EA0040100430
B1450534150405N00121285EA0040100429
B1450544150408N00121276EA0040200428
B1450554150411N00121267EA0040200429
B1450564150415N00121257EA0040200428
B1450574150418N00121247EA0040300429
B1450584150421N00121237EA0040200429
B1450594150425N00121228EA0040400430
B1451004150428N00121218EA0040400429
B1451014150432N00121207EA0040600429
B1451024150436N00121197EA0040500429
B1451034150440N00121186EA0040700429
B1451044150444N00121175EA0040600429
B1451054150448N00121164EA0040600428
B1451064150451N00121153EA0040700429
B1451074150455N00121141EA0040800429
B1451084150459N00121129EA0040800431
B1451094150463N00121117EA0040900432
B1451104150468N00121104EA0040900434
B1451114150472N00121092EA0041000435
B1451124150476N00121079EA0041100435
B1451134150480N00121067EA0041000435
B1451144150484N00121054EA0041200436
B1451154150488N00121041EA0041100436
B1451164150493N00121028EA0041200437
B1451174150497N00121014EA0041300439
B1451184150502N00121001EA0041400440
B1451194150507N00120988EA0041300440
B1451204150512N00120975EA0041600441
B1451214150517N00120962EA0041500441
B1451224150521N00120948EA0041600442
B1451234150526N00120935EA0041600442
B1451244150530N00120921EA0041700443
B1451254150535N00120907EA0041800444
B1451264150540N00120894EA0041800445
B1451274150545N00120880EA0041900447
B1451284150550N00120867EA0041800448
B1451294150555N00120853EA0042000450
B1451304150561N00120840EA0042000452
B1451314150566N00120826EA0042100453
B1451324150573N00120813EA0042000454
B1451334150580N00120800EA0042200455
B1451344150587N00120788EA0042200456
B1451354150595N00120775EA0042200457
B1451364150602N00120762EA0042300456
B1451374150610N00120749EA0042000455
B1451384150617N00120736EA0042300455
B1451394150625N00120724EA0042500454
B1451404150633N00120711EA0042400454
B1451414150642N00120698EA0042500454
B1451424150651N00120685EA0042500453
B1451434150660N00120672EA0042300453
B1451444150669N00120659EA0042600455
B1451454150678N00120645EA0042700457
B1451464150687N00120632EA0042700458
B1451474150696N00120618EA0042700459
B1451484150705N00120605EA0042700459
B1451494150714N00120591EA0042900459
B1451504150724N00120577EA0042800460
B1451514150733N00120562EA0042800460
B1451524150742N00120548EA0042800461
B1451534150751N00120534EA0042800461
B1451544150761N00120520EA0042800461
B1451554150769N00120507EA0042700461
B1451564150778N00120493EA0042700461
B1451574150787N00120479EA0042900460
B1451584150795N00120466EA0042800460
B1451594150804N00120453EA0043000460
B1452004150812N00120439EA0043000460
B1452014150821N00120426EA0042900460
B1452024150829N00120413EA0043000460
B1452034150838N00120400EA0042900461
B1452044150846N00120387EA0043100461
B1452054150854N00120374EA0043000462
B1452064150862N00120361EA0043100462
B1452074150871N00120348EA0043000463
B1452084150879N00120336EA0042900463
B1452094150887N00120323EA0043000464
B1452104150895N00120311EA0043200465
B1452114150903N00120298EA0043100466
B1452124150912N00120286EA0043100466
B1452134150920N00120273EA0043100466
B1452144150928N00120261EA0043200466
B1452154150936N00120249EA0043100466
B1452164150944N00120236EA0043200466
B1452174150952N00120224EA0043300466
B1452184150960N00120212EA0043400468
B1452194150968N00120199EA0043300467
B1452204150976N00120187EA0043100468
B1452214150983N00120175EA0043100468
B1452224150991N00120162EA0043100467
B1452234150998N00120150EA0043000467
B1452244151005N00120137EA0042900466
B1452254151012N00120124EA0042900466
B1452264151019N00120110EA0042800466
B1452274151025N00120096EA0042800465
B1452284151031N00120080EA0042800464
B1452294151037N00120065EA0042600463
B1452304151043N00120049EA0042600462
B1452314151050N00120033EA0042500462
B1452324151056N00120017EA0042300461
B1452334151062N00120001EA0042500460
B1452344151068N00119984EA0042400459
B1452354151074N00119968EA0042200459
B1452364151081N00119951EA0042100459
B1452374151087N00119935EA0041900458
B1452384151094N00119918EA0041800458
B1452394151100N00119902EA0041800457
B1452404151107N00119885EA0041900456
B1452414151113N00119869EA0041700455
B1452424151119N00119853EA0041700455
B1452434151125N00119836EA0041600454
B1452444151131N00119820EA0041500452
B1452454151138N00119804EA0041500451
B1452464151144N00119788EA0041400450
B1452474151151N00119772EA0041300449
B1452484151157N00119756EA0041300446
B1452494151164N00119740EA0041100445
B1452504151170N00119723EA0041200446
B1452514151176N00119707EA0041000445
B1452524151183N00119690EA0041000444
B1452534151189N00119674EA0040900443
B1452544151196N00119658EA0040700442
B1452554151202N00119642EA0040800441
B1452564151208N00119627EA0040600441
B1452574151214N00119612EA0040500440
B1452584151220N00119597EA0040200440
B1452594151227N00119582EA0040100439
B1453004151234N00119567EA0040200438
B1453014151241N00119553EA0040200437
B1453024151248N00119539EA0040100436
B1453034151256N00119526EA0040100434
B1453044151265N00119513EA0040000434
B1453054151274N00119501EA0039800433
B1453064151283N00119490EA0039900432
B1453074151293N00119479EA0039900431
B1453084151304N00119468EA0039900431
B1453094151315N00119458EA0039700430
B1453104151326N00119447EA0039600430
B1453114151337N00119436EA0039600431
B1453124151348N00119426EA0039500429
B1453134151359N00119416EA0039500429
B1453144151370N00119405EA0039400428
B1453154151382N00119394EA0039400427
B1453164151393N00119384EA0039200427
B1453174151405N00119373EA0039300427
B1453184151416N00119362EA0039400426
B1453194151428N00119351EA0039200426
B1453204151439N00119340EA0039100426
B1453214151451N00119329EA0039300426
B1453224151463N00119318EA0039300426
B1453234151474N00119307EA0039200426
B1453244151486N00119296EA0039100425
B1453254151498N00119285EA0038900425
B1453264151509N00119274EA0039100425
B1453274151521N00119263EA0039000424
B1453284151533N00119252EA0039000424
B1453294151545N00119241EA0038900423
B1453304151557N00119230EA0038900423
B1453314151569N00119219EA0039000423
B1453324151580N00119208EA0038800423
B1453334151592N00119197EA0038900422
B1453344151604N00119185EA0038900421
B1453354151616N00119174EA0038900420
B1453364151627N00119163EA0038800419
B1453374151639N00119151EA0038700418
B1453384151651N00119140EA0038700418
B1453394151663N00119129EA0038700418
B1453404151674N00119117EA0038700419
B1453414151686N00119105EA0038700418
B1453424151698N00119094EA0038700417
B1453434151710N00119083EA0038500417
B1453444151721N00119072EA0038600417
B1453454151733N00119061EA0038700417
B1453464151745N00119050EA0038600417
B1453474151757N00119039EA0038700417
B1453484151769N00119028EA0039000417
B1453494151781N00119017EA0038600417
B1453504151792N00119006EA0038700416
B1453514151804N00118995EA0038800416
B1453524151816N00118983EA0038800416
B1453534151828N00118972EA0038800415
B1453544151839N00118961EA0038600415
B1453554151851N00118950EA0038800415
B1453564151863N00118939EA0038800415
B1453574151875N00118928EA0038800415
B1453584151887N00118917EA0039000415
B1453594151899N00118906EA0038900415
B1454004151910N00118895EA0038900415
B1454014151922N00118884EA0038900416
B1454024151934N00118872EA0039000415
B1454034151946N00118861EA0039100415
B1454044151958N00118850EA0039000415
B1454054151969N00118839EA0039000415
B1454064151981N00118828EA0039000415
B1454074151993N00118817EA0039000414
B1454084152005N00118806EA0038900414
B1454094152016N00118795EA0038900413
B1454104152028N00118783EA0038900413
B1454114152040N00118772EA0038800412
B1454124152052N00118760EA0038500412
B1454134152064N00118749EA0038700412
B1454144152076N00118737EA0038700411
B1454154152089N00118726EA0038600410
B1454164152101N00118714EA0038400409
B1454174152113N00118702EA0038400408
B1454184152126N00118691EA0038500407
B1454194152138N00118680EA0038200406
B1454204152150N00118669EA0038200405
B1454214152162N00118657EA0038200404
B1454224152174N00118645EA0038000402
B1454234152186N00118634EA0038000401
B1454244152198N00118623EA0038000399
B1454254152209N00118612EA0038000397
B1454264152220N00118600EA0037900396
B1454274152229N00118588EA0037800399
B1454284152238N00118575EA0037800398
B1454294152246N00118562EA0037700397
B1454304152253N00118548EA0037600396
B1454314152259N00118533EA0037600395
B1454324152264N00118518EA0037700396
B1454334152269N00118501EA0037600396
B1454344152272N00118484EA0037500397
B1454354152275N00118467EA0037500395
B1454364152276N00118448EA0037500394
B1454374152278N00118430EA0037300394
B1454384152280N00118411EA0037400396
B1454394152281N00118394EA0037400395
B1454404152282N00118375EA0037400394
B1454414152283N00118357EA0037500394
B1454424152285N00118339EA0037300392
B1454434152285N00118320EA0037200392
B1454444152287N00118301EA0037400392
B1454454152288N00118282EA0037000394
B1454464152290N00118262EA0037200396
B1454474152292N00118243EA0037300398
B1454484152294N00118224EA0037300398
B1454494152296N00118204EA0037300400
B1454504152298N00118185EA0037300399
B1454514152301N00118166EA0037400399
B1454524152303N00118147EA0037300401
B1454534152305N00118127EA0037200404
B1454544152307N00118108EA0037300404
B1454554152309N00118089EA0037200406
B1454564152311N00118069EA0037400407
B1454574152314N00118050EA0037200407
B1454584152316N00118031EA0037300407
B1454594152318N00118012EA0037200407
B1455004152321N00117993EA0037100408
B1455014152323N00117974EA0037300409
B1455024152325N00117955EA0037200408
B1455034152327N00117936EA0037300409
B1455044152328N00117917EA0037300410
B1455054152330N00117898EA0037300410
B1455064152331N00117879EA0037500410
B1455074152333N00117860EA0037500411
B1455084152335N00117841EA0037700412
B1455094152337N00117822EA0037700413
B1455104152340N00117804EA0037800413
B1455114152342N00117785EA0037700415
B1455124152344N00117766EA0037800416
B1455134152346N00117747EA0037800418
B1455144152348N00117728EA0037800418
B1455154152350N00117709EA0037900419
B1455164152353N00117690EA0037900419
B1455174152355N00117672EA0037900419
B1455184152357N00117653EA0038000419
B1455194152359N00117634EA0037800422
B1455204152362N00117615EA0037900423
B1455214152364N00117596EA0038000426
B1455224152366N00117577EA0037800427
B1455234152368N00117557EA0037800426
B1455244152370N00117538EA0037800428
B1455254152372N00117519EA0037900428
B1455264152374N00117500EA0037900427
B1455274152376N00117480EA0037600426
B1455284152378N00117462EA0037600425
B1455294152380N00117443EA0037500425
B1455304152383N00117423EA0037500425
B1455314152384N00117404EA0037500424
B1455324152386N00117385EA0037600424
B1455334152388N00117365EA0037500423
B1455344152390N00117346EA0037400422
B1455354152392N00117327EA0037300423
B1455364152394N00117307EA0037400422
B1455374152396N00117288EA0037400421
B1455384152398N00117269EA0037300421
B1455394152400N00117250EA0037300419
B1455404152402N00117231EA0037400418
B1455414152404N00117212EA0037400417
B1455424152406N00117192EA0037200416
B1455434152408N00117173EA0037300416
B1455444152410N00117154EA0037100416
B1455454152412N00117135EA0037200416
B1455464152415N00117116EA0037200415
B1455474152417N00117096EA0037200416
B1455484152418N00117077EA0037100415
B1455494152420N00117058EA0037100415
B1455504152422N00117038EA0037000416
B1455514152424N00117019EA0037200416
B1455524152426N00117000EA0037100416
B1455534152427N00116981EA0037100414
B1455544152429N00116961EA0037100414
B1455554152431N00116942EA0036900413
B1455564152433N00116923EA0036800413
B1455574152435N00116904EA0036800412
B1455584152437N00116884EA0036700411
B1455594152439N00116865EA0036700410
B1456004152441N00116845EA0036700409
B1456014152443N00116826EA0036700407
B1456024152445N00116807EA0036700407
B1456034152447N00116788EA0036600407
B1456044152450N00116769EA0036600406
B1456054152453N00116750EA0036500405
B1456064152456N00116731EA0036500406
B1456074152461N00116713EA0036500405
B1456084152466N00116694EA0036500405
B1456094152471N00116676EA0036400405
B1456104152477N00116658EA0036300406
B1456114152482N00116641EA0036400406
B1456124152488N00116623EA0036400406
B1456134152494N00116606EA0036300406
B1456144152500N00116588EA0036400404
B1456154152506N00116571EA0036400403
B1456164152513N00116554EA0036300403
B1456174152519N00116536EA0036400402
B1456184152524N00116519EA0036400401
B1456194152530N00116501EA0036300401
B1456204152536N00116483EA0036400401
B1456214152542N00116466EA0036300400
B1456224152548N00116449EA0036400399
B1456234152554N00116432EA0036400398
B1456244152561N00116414EA0036400398
B1456254152567N00116397EA0036300397
B1456264152573N00116380EA0036300396
B1456274152580N00116363EA0036300394
B1456284152586N00116345EA0036300393
B1456294152592N00116328EA0036200393
B1456304152599N00116312EA0036200393
B1456314152606N00116295EA0036400394
B1456324152614N00116280EA0036200390
B1456334152622N00116264EA0036200390
B1456344152632N00116249EA0036100391
B1456354152642N00116236EA0035900391
B1456364152652N00116223EA0035900393
B1456374152662N00116211EA0036000395
B1456384152672N00116199EA0035900395
B1456394152682N00116187EA0036100395
B1456404152692N00116175EA0035800394
B1456414152703N00116162EA0035900394
B1456424152713N00116150EA0036000394
B1456434152723N00116137EA0036000397
B1456444152733N00116124EA0036000397
B1456454152743N00116111EA0036000398
B1456464152752N00116097EA0036000398
B1456474152761N00116082EA0036000398
B1456484152769N00116067EA0036000398
B1456494152776N00116051EA0036000399
B1456504152783N00116033EA0036100399
B1456514152791N00116017EA0036000398
B1456524152799N00115999EA0036000400
B1456534152806N00115982EA0035900399
B1456544152812N00115965EA0036100401
B1456554152818N00115948EA0036000399
B1456564152825N00115931EA0036000401
B1456574152832N00115915EA0036100404
B1456584152839N00115899EA0036300406
B1456594152845N00115884EA0036300409
B1457004152852N00115869EA0036400411
B1457014152860N00115854EA0036200413
B1457024152868N00115840EA0036400415
B1457034152877N00115825EA0036300414
B1457044152886N00115811EA0036400415
B1457054152895N00115797EA0036400415
B1457064152904N00115782EA0036300415
B1457074152914N00115767EA0036400416
B1457084152923N00115751EA0036300418
B1457094152932N00115736EA0036400418
B1457104152941N00115721EA0036400417
B1457114152950N00115706EA0036300418
B1457124152960N00115690EA0036300418
B1457134152969N00115675EA0036400418
B1457144152979N00115660EA0036300416
B1457154152988N00115644EA0036200417
B1457164152998N00115629EA0036300415
B1457174153007N00115614EA0036200414
B1457184153016N00115599EA0036200411
B1457194153025N00115584EA0036100411
B1457204153034N00115569EA0036000411
B1457214153043N00115554EA0036000410
B1457224153052N00115539EA0035900409
B1457234153062N00115524EA0035800408
B1457244153071N00115509EA0035900407
B1457254153080N00115494EA0035800405
B1457264153090N00115479EA0035800404
B1457274153099N00115465EA0035700403
B1457284153108N00115450EA0035700401
B1457294153117N00115435EA0035700400
B1457304153126N00115420EA0035700400
B1457314153135N00115405EA0035600398
B1457324153144N00115390EA0035500399
B1457334153153N00115375EA0035600399
B1457344153162N00115361EA0035800397
B1457354153172N00115347EA0035700395
B1457364153181N00115332EA0035600395
B1457374153191N00115317EA0035700394
B1457384153200N00115302EA0035600393
B1457394153208N00115287EA0035700393
B1457404153217N00115273EA0035600391
B1457414153226N00115258EA0035600391
B1457424153236N00115243EA0035500391
B1457434153245N00115228EA0035400390
B1457444153255N00115214EA0035600388
B1457454153264N00115198EA0035500388
B1457464153273N00115184EA0035300388
B1457474153282N00115170EA0035400385
B1457484153291N00115155EA0035300386
B1457494153300N00115141EA0035200387
B1457504153309N00115127EA0035200385
B1457514153318N00115113EA0035300385
B1457524153326N00115099EA0035100384
B1457534153335N00115085EA0035100384
B1457544153344N00115072EA0035100380
B1457554153352N00115058EA0035100380
B1457564153360N00115044EA0035300380
B1457574153367N00115028EA0035200380
B1457584153374N00115011EA0035100381
B1457594153380N00114995EA0035300381
B1458004153386N00114978EA0035000382
B1458014153392N00114960EA0035200382
B1458024153396N00114942EA0035200381
B1458034153399N00114923EA0035200380
B1458044153401N00114903EA0035200380
B1458054153403N00114884EA0035200377
B1458064153404N00114864EA0035300377
B1458074153404N00114845EA0035400376
B1458084153404N00114826EA0035300375
B1458094153403N00114806EA0035200375
B1458104153402N00114787EA0035300375
B1458114153401N00114768EA0035300375
B1458124153400N00114749EA0035300374
B1458134153399N00114730EA0035200374
B1458144153398N00114711EA0035200374
B1458154153397N00114692EA0035300374
B1458164153395N00114673EA0035300375
B1458174153395N00114653EA0035400376
B1458184153394N00114634EA0035300377
B1458194153392N00114614EA0035400378
B1458204153391N00114595EA0035300378
B1458214153390N00114576EA0035300378
B1458224153388N00114557EA0035500379
B1458234153387N00114537EA0035300380
B1458244153385N00114518EA0035300381
B1458254153383N00114499EA0035400381
B1458264153381N00114481EA0035400382
B1458274153380N00114461EA0035300382
B1458284153378N00114442EA0035400383
B1458294153377N00114423EA0035300383
B1458304153375N00114404EA0035400383
B1458314153374N00114385EA0035400384
B1458324153372N00114366EA0035300383
B1458334153370N00114347EA0035300382
B1458344153369N00114328EA0035300382
B1458354153368N00114308EA0035400382
B1458364153366N00114289EA0035300381
B1458374153365N00114270EA0035400382
B1458384153364N00114251EA0035300385
B1458394153363N00114232EA0035100385
B1458404153363N00114212EA0035200385
B1458414153363N00114193EA0035100384
B1458424153364N00114174EA0035000384
B1458434153367N00114155EA0035100385
B1458444153369N00114136EA0035000385
B1458454153372N00114117EA0035000383
B1458464153376N00114098EA0034900384
B1458474153379N00114079EA0034900382
B1458484153382N00114060EA0034900382
B1458494153385N00114041EA0034900382
B1458504153389N00114022EA0034900382
B1458514153392N00114004EA0034700382
B1458524153395N00113985EA0034900382
B1458534153398N00113965EA0034800381
B1458544153401N00113946EA0034800381
B1458554153404N00113927EA0034900382
B1458564153407N00113908EA0034800382
B1458574153408N00113889EA0034800382
B1458584153408N00113869EA0034700383
B1458594153408N00113850EA0034800382
B1459004153407N00113830EA0034800382
B1459014153406N00113811EA0034900382
B1459024153405N00113792EA0035000383
B1459034153404N00113773EA0034900383
B1459044153404N00113754EA0035000383
B1459054153402N00113736EA0035000383
B1459064153402N00113717EA0034900383
B1459074153401N00113699EA0035100383
B1459084153399N00113681EA0035000382
B1459094153398N00113663EA0035000381
B1459104153394N00113644EA0035000382
B1459114153390N00113626EA0035000382
B1459124153386N00113608EA0035100382
B1459134153381N00113590EA0035100381
B1459144153376N00113572EA0035200381
B1459154153371N00113554EA0035000379
B1459164153366N00113536EA0035200378
B1459174153361N00113519EA0035000378
B1459184153356N00113500EA0035000376
B1459194153351N00113482EA0034900375
B1459204153345N00113464EA0034900376
B1459214153340N00113446EA0034900375
B1459224153335N00113428EA0034900375
B1459234153329N00113410EA0034900373
B1459244153324N00113392EA0034900373
B1459254153319N00113374EA0034800372
B1459264153314N00113355EA0034900372
B1459274153308N00113337EA0034800372
B1459284153303N00113319EA0034800370
B1459294153298N00113301EA0034700369
B1459304153292N00113283EA0034700368
B1459314153288N00113265EA0034600368
B1459324153283N00113248EA0034500366
B1459334153278N00113231EA0034500364
B1459344153273N00113213EA0034500363
B1459354153268N00113196EA0034500362
B1459364153263N00113179EA0034600361
B1459374153257N00113161EA0034500361
B1459384153252N00113144EA0034300360
B1459394153247N00113127EA0034500359
B1459404153243N00113110EA0034500357
B1459414153237N00113092EA0034500358
B1459424153232N00113074EA0034400361
B1459434153227N00113057EA0034400362
B1459444153222N00113041EA0034300361
B1459454153217N00113025EA0034400361
B1459464153213N00113009EA0034400359
B1459474153208N00112993EA0034300359
B1459484153205N00112978EA0034300358
B1459494153200N00112963EA0034200357
B1459504153196N00112947EA0034400355
B1459514153192N00112931EA0034300354
B1459524153187N00112914EA0034300355
B1459534153183N00112898EA0034500355
B1459544153181N00112881EA0034300356
B1459554153178N00112863EA0034400355
B1459564153176N00112846EA0034300357
B1459574153175N00112829EA0034400357
B1459584153174N00112813EA0034400360
B1459594153175N00112797EA0034500363
B1500004153176N00112782EA0034400364
B1500014153177N00112766EA0034400367
B1500024153180N00112751EA0034300369
B1500034153183N00112736EA0034400367
B1500044153187N00112721EA0034300367
B1500054153191N00112705EA0034400369
B1500064153196N00112691EA0034300368
B1500074153201N00112677EA0034400368
B1500084153207N00112665EA0034400369
B1500094153213N00112652EA0034400371
B1500104153220N00112640EA0034400371
B1500114153227N00112628EA0034300373
B1500124153234N00112617EA0034300374
B1500134153241N00112607EA0034400376
B1500144153250N00112596EA0034400375
B1500154153259N00112586EA0034400375
B1500164153268N00112577EA0034500374
B1500174153278N00112569EA0034400376
B1500184153289N00112560EA0034400374
B1500194153300N00112552EA0034500373
B1500204153311N00112545EA0034500371
B1500214153323N00112538EA0034400369
B1500224153334N00112532EA0034400370
B1500234153347N00112526EA0034500369
B1500244153359N00112520EA0034500368
B1500254153371N00112513EA0034400370
B1500264153383N00112507EA0034400370
B1500274153395N00112499EA0034400368
B1500284153407N00112493EA0034400366
B1500294153419N00112486EA0034400365
B1500304153432N00112479EA0034500365
B1500314153444N00112472EA0034500364
B1500324153456N00112465EA0034500364
B1500334153468N00112459EA0034500365
B1500344153480N00112452EA0034400368
B1500354153492N00112445EA0034500367
B1500364153504N00112438EA0034400369
B1500374153516N00112432EA0034500370
B1500384153528N00112425EA0034400371
B1500394153540N00112417EA0034500368
B1500404153553N00112410EA0034400365
B1500414153565N00112404EA0034300363
B1500424153577N00112397EA0034300363
B1500434153589N00112390EA0034300362
B1500444153601N00112383EA0034300364
B1500454153611N00112376EA0034400367
B1500464153622N00112370EA0034200366
B1500474153633N00112365EA0034300366
B1500484153643N00112359EA0034200363
B1500494153654N00112352EA0034300364
B1500504153665N00112346EA0034200364
B1500514153674N00112340EA0034300363
B1500524153684N00112333EA0034200363
B1500534153694N00112326EA0034200361
B1500544153704N00112317EA0034200360
B1500554153713N00112308EA0034200358
B1500564153721N00112299EA0034300358
B1500574153730N00112289EA0034300360
B1500584153739N00112278EA0034200361
B1500594153748N00112268EA0034300365
B1501004153758N00112259EA0034400366
B1501014153766N00112250EA0034500370
B1501024153776N00112242EA0034400373
B1501034153786N00112233EA0034700375
B1501044153796N00112227EA0034600375
B1501054153807N00112223EA0034800376
B1501064153818N00112219EA0034800379
B1501074153830N00112217EA0034900379
B1501084153842N00112217EA0035000381
B1501094153854N00112218EA0035000382
B1501104153866N00112220EA0035100386
B1501114153879N00112222EA0035300384
B1501124153891N00112224EA0035300384
B1501134153904N00112227EA0035300383
B1501144153916N00112230EA0035400382
B1501154153929N00112232EA0035500382
B1501164153941N00112233EA0035500381
B1501174153953N00112234EA0035600380
B1501184153965N00112233EA0035700382
B1501194153977N00112230EA0035900381
B1501204153988N00112226EA0035700383
B1501214153999N00112220EA0035900382
B1501224154008N00112213EA0036000381
B1501234154018N00112204EA0036100380
B1501244154026N00112194EA0036200383
B1501254154034N00112183EA0036200383
B1501264154041N00112172EA0036200383
B1501274154048N00112160EA0036300384
B1501284154056N00112149EA0036400385
B1501294154062N00112137EA0036500386
B1501304154069N00112124EA0036600387
B1501314154076N00112112EA0036600388
B1501324154083N00112099EA0036700389
B1501334154090N00112087EA0036900390
B1501344154097N00112074EA0037000391
B1501354154104N00112062EA0036900392
B1501364154112N00112050EA0036900393
B1501374154119N00112039EA0037000392
B1501384154127N00112028EA0037000392
B1501394154135N00112016EA0037100393
B1501404154143N00112005EA0037100393
B1501414154151N00111994EA0037100392
B1501424154160N00111982EA0037000391
B1501434154168N00111971EA0037200391
B1501444154177N00111959EA0036900392
B1501454154186N00111947EA0037000393
B1501464154195N00111935EA0036900393
B1501474154204N00111923EA0036800392
B1501484154212N00111911EA0036800392
B1501494154221N00111899EA0036800392
B1501504154229N00111888EA0036800391
B1501514154237N00111878EA0036700391
B1501524154245N00111867EA0036600392
B1501534154253N00111857EA0036500391
B1501544154262N00111846EA0036500392
B1501554154270N00111837EA0036700392
B1501564154279N00111828EA0036500392
B1501574154287N00111819EA0036400392
B1501584154296N00111810EA0036400392
B1501594154305N00111802EA0036200392
B1502004154313N00111793EA0036200391
B1502014154322N00111785EA0036300392
B1502024154331N00111777EA0036300390
B1502034154338N00111768EA0036200390
B1502044154346N00111759EA0036100391
B1502054154354N00111751EA0036100390
B1502064154363N00111743EA0036000390
B1502074154371N00111735EA0035900390
B1502084154379N00111727EA0036000390
B1502094154387N00111719EA0035800390
B1502104154395N00111711EA0036000390
B1502114154403N00111703EA0035900390
B1502124154412N00111694EA0035800391
B1502134154420N00111686EA0035700391
B1502144154427N00111678EA0035600390
B1502154154435N00111670EA0035700390
B1502164154443N00111662EA0035600388
B1502174154451N00111653EA0035500388
B1502184154459N00111645EA0035500387
B1502194154467N00111637EA0035400387
B1502204154475N00111629EA0035500387
B1502214154483N00111621EA0035400386
B1502224154491N00111613EA0035300387
B1502234154499N00111605EA0035400386
B1502244154506N00111597EA0035300386
B1502254154514N00111589EA0035300385
B1502264154522N00111581EA0035200384
B1502274154530N00111572EA0035200383
B1502284154537N00111563EA0035100382
B1502294154544N00111555EA0035200381
B1502304154551N00111546EA0035100380
B1502314154558N00111536EA0035000379
B1502324154564N00111526EA0035000377
B1502334154570N00111517EA0035000377
B1502344154576N00111507EA0034900376
B1502354154582N00111497EA0034900375
B1502364154588N00111487EA0034800376
B1502374154594N00111478EA0034800375
B1502384154600N00111469EA0034700375
B1502394154607N00111459EA0034700374
B1502404154613N00111449EA0034600372
B1502414154618N00111440EA0034500373
B1502424154624N00111431EA0034600374
B1502434154629N00111422EA0034400373
B1502444154635N00111413EA0034400371
B1502454154640N00111405EA0034400370
B1502464154645N00111396EA0034400370
B1502474154651N00111389EA0034300368
B1502484154658N00111381EA0034200367
B1502494154665N00111375EA0034200366
B1502504154672N00111369EA0034200365
B1502514154679N00111364EA0034100364
B1502524154687N00111360EA0034100364
B1502534154695N00111356EA0034100363
B1502544154703N00111353EA0034000363
B1502554154710N00111350EA0034000363
B1502564154717N00111347EA0034100364
B1502574154723N00111343EA0034100366
B1502584154730N00111339EA0034100364
B1502594154737N00111335EA0034000369
B1503004154744N00111329EA0033900370
B1503014154750N00111324EA0033900370
B1503024154756N00111319EA0033900370
B1503034154762N00111314EA0033800369
B1503044154767N00111309EA0033800369
B1503054154774N00111304EA0033800370
B1503064154778N00111298EA0033800370
B1503074154783N00111293EA0033700371
B1503084154788N00111287EA0033800371
B1503094154793N00111282EA0033700371
B1503104154797N00111277EA0033700371
B1503114154802N00111271EA0033700374
B1503124154806N00111266EA0033700375
B1503134154809N00111261EA0033700375
B1503144154813N00111256EA0033700377
B1503154154817N00111251EA0033700379
B1503164154821N00111246EA0033600380
B1503174154826N00111240EA0033700378
B1503184154830N00111235EA0033600378
B1503194154833N00111230EA0033600377
B1503204154835N00111223EA0033500378
B1503214154838N00111217EA0033500380
B1503224154841N00111212EA0033400381
B1503234154846N00111207EA0033600381
B1503244154850N00111202EA0033500380
B1503254154855N00111197EA0033500380
B1503264154859N00111193EA0033500380
B1503274154863N00111187EA0033500381
B1503284154867N00111182EA0033400379
B1503294154871N00111176EA0033400379
B1503304154873N00111171EA0033400378
B1503314154876N00111167EA0033400377
B1503324154880N00111162EA0033400379
B1503334154882N00111157EA0033500379
B1503344154885N00111153EA0033300377
B1503354154888N00111147EA0033300378
B1503364154891N00111143EA0033400382
B1503374154895N00111138EA0033300385
B1503384154899N00111134EA0033300387
B1503394154901N00111129EA0033300386
B1503404154903N00111126EA0033300383
B1503414154906N00111122EA0033200380
B1503424154908N00111118EA0033200377
B1503434154910N00111116EA0033200377
B1503444154912N00111113EA0033200374
B1503454154913N00111111EA0033200373
B1503464154915N00111109EA0033100372
B1503474154915N00111109EA0033300370
B1503484154917N00111107EA0033200369
B1503494154918N00111106EA0033200367
B1503504154919N00111105EA0033200365
B1503514154922N00111103EA0033200362
B1503524154924N00111101EA0033100360
B1503534154928N00111101EA0033200361
B1503544154933N00111100EA0033200358
B1503554154936N00111100EA0033100356
B1503564154940N00111102EA0033100356
B1503574154941N00111103EA0033100348
B1503584154943N00111106EA0033100341
B1503594154944N00111109EA0033200339
B1504004154946N00111114EA0033100338
B1504014154949N00111118EA0033200339
B1504024154951N00111122EA0033100339
B1504034154953N00111126EA0033000340
B1504044154956N00111128EA0033000339
B1504054154959N00111132EA0033100340
B1504064154963N00111134EA0033200342
B1504074154967N00111136EA0033100341
B1504084154970N00111138EA0033100339
B1504094154974N00111140EA0033100339
B1504104154978N00111142EA0033200339
B1504114154982N00111143EA0033100340
B1504124154987N00111146EA0033000340
B1504134154991N00111148EA0033000340
B1504144154996N00111150EA0033100340
B1504154155000N00111151EA0033200340
B1504164155003N00111152EA0033100341
B1504174155009N00111156EA0033100339
B1504184155013N00111158EA0033100340
B1504194155018N00111162EA0033100342
B1504204155022N00111166EA0033100346
B1504214155027N00111169EA0033100347
B1504224155033N00111173EA0033100347
B1504234155037N00111178EA0033100346
B1504244155041N00111182EA0033100346
B1504254155046N00111187EA0033100347
B1504264155051N00111194EA0032900348
B1504274155055N00111201EA0033200349
B1504284155060N00111208EA0032900351
B1504294155065N00111216EA0033100351
B1504304155069N00111223EA0033100354
B1504314155074N00111231EA0033000355
B1504324155078N00111239EA0033100353
B1504334155082N00111246EA0033100352
B1504344155086N00111255EA0033100351
B1504354155090N00111263EA0033000354
B1504364155094N00111271EA0033000353
B1504374155098N00111281EA0033000352
B1504384155101N00111290EA0033000353
B1504394155104N00111299EA0033000352
B1504404155107N00111307EA0032900352
B1504414155110N00111316EA0033000350
B1504424155114N00111324EA0032900348
B1504434155118N00111333EA0033000348
B1504444155122N00111340EA0032900347
B1504454155126N00111348EA0032900346
B1504464155132N00111356EA0033000346
B1504474155138N00111363EA0033000347
B1504484155143N00111371EA0033000347
B1504494155149N00111378EA0032900348
B1504504155155N00111386EA0032800349
B1504514155160N00111393EA0032800350
B1504524155166N00111399EA0032800350
B1504534155171N00111406EA0032700351
B1504544155177N00111412EA0032700353
B1504554155183N00111419EA0032700354
B1504564155188N00111426EA0032800355
B1504574155193N00111432EA0032800356
B1504584155198N00111438EA0032800358
B1504594155204N00111445EA0032800359
B1505004155209N00111451EA0032900359
B1505014155213N00111457EA0032800360
B1505024155218N00111462EA0032700360
B1505034155222N00111467EA0032800361
B1505044155225N00111471EA0032800362
B1505054155228N00111475EA0032800362
B1505064155230N00111478EA0032800363
B1505074155231N00111480EA0032700364
B1505084155233N00111483EA0032700364
B1505094155235N00111485EA0032800365
B1505104155236N00111486EA0032800365
B1505114155238N00111488EA0032800365
B1505124155239N00111489EA0032700366
B1505134155239N00111490EA0032800366
B1505144155239N00111490EA0032900367
B1505154155239N00111490EA0032800366
B1505164155239N00111490EA0032800367
B1505174155239N00111490EA0032800367
B1505184155239N00111490EA0032700368
B1505194155239N00111490EA0032800368
B1505204155239N00111490EA0032800368
B1505214155239N00111490EA0032800368
B1505224155239N00111490EA0032800367
B1505234155239N00111489EA0032800367
B1505244155240N00111490EA0032800366
B1505254155240N00111490EA0032800366
B1505264155241N00111491EA0032800366
B1505274155241N00111492EA0032800365
B1505284155242N00111492EA0032800365
B1505294155242N00111492EA0032800365
B1505304155242N00111492EA0032800364
B1505314155242N00111493EA0032800363
B1505324155242N00111493EA0032800362
B1505334155242N00111493EA0032800362
B1505344155242N00111493EA0032800361
B1505354155243N00111494EA0032800360
B1505364155244N00111495EA0032800360
B1505374155245N00111496EA0032800359
B1505384155247N00111496EA0032800359
B1505394155249N00111495EA0032900359
B1505404155250N00111494EA0032700358
B1505414155251N00111492EA0032800358
B1505424155251N00111489EA0032800358
B1505434155251N00111487EA0032700358
B1505444155251N00111485EA0032800358
B1505454155250N00111483EA0032800358
B1505464155249N00111481EA0032800358
B1505474155248N00111480EA0032700358
B1505484155247N00111478EA0032800358
B1505494155246N00111477EA0032700359
B1505504155245N00111476EA0032800359
B1505514155245N00111475EA0032800360
B1505524155245N00111475EA0032900360
B1505534155246N00111474EA0032800361
B1505544155245N00111474EA0032700360
B1505554155246N00111473EA0033000360
B1505564155246N00111474EA0033000360
B1505574155247N00111474EA0032900360
B1505584155247N00111474EA0032900360
B1505594155247N00111475EA0033000360
B1506004155247N00111475EA0033000360
B1506014155247N00111476EA0032900360
B1506024155247N00111476EA0032900360
B1506034155248N00111475EA0033000360
B1506044155248N00111475EA0033000360
B1506054155248N00111476EA0032900359
B1506064155248N00111476EA0032900358
B1506074155249N00111477EA0032900358
B1506084155249N00111478EA0032900357
B1506094155250N00111478EA0032900357
GrFccOT6BZaa2a7b3716AFVa+jGkIdwHOh5oAz/S6xBlc1hpPZDzp8/pESV0Qrcho3m9W+5e188i
GCoOGT9E+gLBIsp1uZDD8oj06BafIXuv5BAH6nrA8vZPf0ZaaLyaROwy6cWNpoaxgcv7BOQJcofx
G1PR1OwNhGq4AK7MbEoK9s=
