AXSFwn
HFDTEDATE:070826
HFPLTPILOTINCHARGE:Ignacio Luzuriaga
HFCM2CREW2:NIL
HFGTYGLIDERTYPE: Niviuk Artik R2
HFGIDGLIDERID:NIL
HFDTMGPSDATUM:WGS84
HFRFWFIRMWAREVERSION:EU_2.00V
HFRHWHARDWAREVERSION:4.5
HFFTYFRTYPE:alfapilot,Voolaris Tracker
HFGPSRECEIVER:UBLOX,M10,72,50000,GPS,GLO,GAL
HFPRSPRESSALTSENSOR:ST,LPS22HB,10000
HFALGALTGPS:GEO
HFALPALTPRESSURE:ISA
HFTZNTIMEZONE:0
B0904564153405N00114938EA0032600399
B0904574153401N00114955EA0032600399
B0904584153398N00114972EA0032600399
B0904594153393N00114988EA0032600399
B0905004153388N00115005EA0032500399
B0905014153383N00115020EA0032600399
B0905024153376N00115035EA0032600399
B0905034153369N00115050EA0032600400
B0905044153361N00115065EA0032600402
B0905054153353N00115079EA0032600403
B0905064153345N00115093EA0032600404
B0905074153337N00115107EA0032600406
B0905084153328N00115121EA0032700408
B0905094153322N00115135EA0032600411
B0905104153314N00115148EA0032600410
B0905114153307N00115159EA0032800411
B0905124153299N00115172EA0032700412
B0905134153291N00115184EA0032700412
B0905144153283N00115196EA0032600413
B0905154153275N00115209EA0032700413
B0905164153267N00115221EA0032900413
B0905174153258N00115234EA0032900414
B0905184153250N00115248EA0032800414
B0905194153242N00115261EA0033000414
B0905204153234N00115273EA0033000414
B0905214153226N00115286EA0032900414
B0905224153217N00115299EA0033000414
B0905234153209N00115312EA0033000414
B0905244153201N00115326EA0032900415
B0905254153193N00115339EA0033000415
B0905264153185N00115352EA0033000415
B0905274153177N00115366EA0033000416
B0905284153169N00115379EA0032900416
B0905294153161N00115393EA0032900417
B0905304153152N00115406EA0032900417
B0905314153143N00115418EA0033000419
B0905324153133N00115431EA0033100422
B0905334153124N00115442EA0033100420
B0905344153115N00115454EA0033100420
B0905354153106N00115467EA0033100420
B0905364153098N00115479EA0033100419
B0905374153089N00115492EA0033100419
B0905384153081N00115505EA0033100418
B0905394153073N00115518EA0033300414
B0905404153065N00115532EA0033300411
B0905414153056N00115545EA0033300409
B0905424153048N00115558EA0033300407
B0905434153039N00115570EA0033400405
B0905444153030N00115583EA0033400404
B0905454153022N00115596EA0033500403
B0905464153014N00115609EA0033500403
B0905474153005N00115622EA0033500402
B0905484152997N00115635EA0033500401
B0905494152989N00115649EA0033700401
B0905504152981N00115662EA0033500400
B0905514152973N00115675EA0033700400
B0905524152964N00115688EA0033700400
B0905534152956N00115701EA0033700399
B0905544152948N00115714EA0033800399
B0905554152940N00115727EA0033800398
B0905564152931N00115740EA0033800398
B0905574152923N00115754EA0033900397
B0905584152915N00115767EA0033700396
B0905594152907N00115780EA0033800396
B0906004152898N00115793EA0033700395
B0906014152890N00115806EA0033800395
B0906024152882N00115820EA0033800395
B0906034152874N00115833EA0033800395
B0906044152866N00115846EA0033800394
B0906054152858N00115860EA0033700394
B0906064152850N00115874EA0033700393
B0906074152843N00115888EA0033700393
B0906084152836N00115903EA0033500392
B0906094152830N00115918EA0033600392
B0906104152824N00115933EA0033600392
B0906114152818N00115948EA0033600392
B0906124152812N00115964EA0033500391
B0906134152806N00115979EA0033400391
B0906144152800N00115994EA0033400391
B0906154152794N00116009EA0033400391
B0906164152788N00116024EA0033400391
B0906174152782N00116040EA0033400391
B0906184152775N00116055EA0033400391
B0906194152769N00116069EA0033400390
B0906204152762N00116083EA0033400390
B0906214152754N00116097EA0033300390
B0906224152745N00116110EA0033300390
B0906234152737N00116122EA0033400390
B0906244152727N00116134EA0033400390
B0906254152718N00116146EA0033400390
B0906264152709N00116158EA0033400390
B0906274152700N00116170EA0033400390
B0906284152690N00116182EA0033300391
B0906294152681N00116193EA0033400391
B0906304152671N00116205EA0033500391
B0906314152662N00116217EA0033400391
B0906324152652N00116229EA0033300391
B0906334152643N00116241EA0033400392
B0906344152634N00116253EA0033500392
B0906354152626N00116266EA0033500393
B0906364152618N00116279EA0033600393
B0906374152610N00116293EA0033600393
B0906384152604N00116307EA0033600393
B0906394152597N00116322EA0033600393
B0906404152591N00116337EA0033700393
B0906414152586N00116353EA0033700393
B0906424152580N00116368EA0033800392
B0906434152575N00116383EA0033600390
B0906444152569N00116398EA0033800388
B0906454152564N00116413EA0033800388
B0906464152558N00116429EA0033900388
B0906474152553N00116444EA0033900387
B0906484152548N00116460EA0033900387
B0906494152542N00116476EA0033900387
B0906504152537N00116491EA0033700387
B0906514152531N00116507EA0033800387
B0906524152526N00116522EA0033900388
B0906534152520N00116538EA0033800388
B0906544152514N00116553EA0033800388
B0906554152509N00116569EA0033900387
B0906564152503N00116584EA0033900387
B0906574152498N00116600EA0033800387
B0906584152492N00116615EA0033800387
B0906594152487N00116631EA0033800386
B0907004152482N00116646EA0033700386
B0907014152476N00116662EA0033800386
B0907024152471N00116677EA0033800386
B0907034152466N00116693EA0033900386
B0907044152461N00116709EA0033900387
B0907054152457N00116725EA0034000387
B0907064152453N00116741EA0034000388
B0907074152450N00116758EA0033900389
B0907084152447N00116774EA0034100390
B0907094152445N00116791EA0034700390
B0907104152443N00116808EA0034500390
B0907114152441N00116825EA0034500391
B0907124152439N00116842EA0035000391
B0907134152437N00116859EA0035200392
B0907144152435N00116876EA0034600392
B0907154152434N00116893EA0034800393
B0907164152432N00116910EA0034600393
B0907174152430N00116927EA0034200393
B0907184152429N00116944EA0034200393
B0907194152427N00116961EA0034100394
B0907204152425N00116978EA0034200394
B0907214152423N00116994EA0034200394
B0907224152421N00117011EA0034300395
B0907234152419N00117028EA0034300395
B0907244152417N00117045EA0034200396
B0907254152416N00117062EA0034200396
B0907264152414N00117079EA0034300396
B0907274152412N00117096EA0034300396
B0907284152410N00117113EA0034400397
B0907294152409N00117130EA0034500397
B0907304152407N00117147EA0034400397
B0907314152405N00117164EA0034500397
B0907324152403N00117181EA0034400397
B0907334152401N00117198EA0034400398
B0907344152399N00117215EA0034600398
B0907354152398N00117231EA0034500398
B0907364152396N00117248EA0034500399
B0907374152394N00117265EA0034400399
B0907384152392N00117282EA0034500399
B0907394152390N00117299EA0034500400
B0907404152388N00117316EA0034700400
B0907414152386N00117333EA0034600400
B0907424152384N00117350EA0034700401
B0907434152383N00117367EA0034600401
B0907444152381N00117384EA0034800401
B0907454152379N00117401EA0034700401
B0907464152377N00117417EA0034700402
B0907474152376N00117434EA0034700402
B0907484152374N00117451EA0034800402
B0907494152372N00117467EA0034600403
B0907504152371N00117482EA0034700403
B0907514152369N00117497EA0034800404
B0907524152367N00117511EA0034800404
B0907534152366N00117525EA0034700404
B0907544152364N00117539EA0034800404
B0907554152363N00117553EA0034800404
B0907564152361N00117567EA0034800404
B0907574152360N00117581EA0034800405
B0907584152358N00117595EA0034700405
B0907594152357N00117609EA0034800405
B0908004152356N00117623EA0034800405
B0908014152354N00117637EA0034900405
B0908024152353N00117651EA0034900405
B0908034152351N00117665EA0034900405
B0908044152350N00117678EA0034900405
B0908054152348N00117692EA0034900405
B0908064152347N00117705EA0034900405
B0908074152345N00117718EA0035000405
B0908084152344N00117731EA0034900405
B0908094152342N00117744EA0034900404
B0908104152341N00117758EA0034900404
B0908114152339N00117771EA0034700403
B0908124152338N00117784EA0034700403
B0908134152336N00117798EA0034700403
B0908144152335N00117811EA0034700402
B0908154152333N00117825EA0034700402
B0908164152332N00117838EA0034500401
B0908174152331N00117852EA0034500401
B0908184152329N00117865EA0034500400
B0908194152328N00117879EA0034500400
B0908204152327N00117892EA0034400400
B0908214152325N00117905EA0034400399
B0908224152324N00117918EA0034400399
B0908234152322N00117932EA0034300399
B0908244152321N00117945EA0034300398
B0908254152320N00117958EA0034200398
B0908264152318N00117971EA0034200398
B0908274152317N00117984EA0034300398
B0908284152315N00117997EA0034300398
B0908294152314N00118009EA0034300398
B0908304152312N00118021EA0034200398
B0908314152311N00118034EA0034200398
B0908324152309N00118046EA0034300398
B0908334152308N00118058EA0034200398
B0908344152307N00118069EA0034100398
B0908354152306N00118081EA0034200398
B0908364152304N00118092EA0034100398
B0908374152303N00118104EA0034100398
B0908384152302N00118115EA0034200398
B0908394152301N00118127EA0034100398
B0908404152300N00118138EA0034100398
B0908414152299N00118148EA0034200398
B0908424152298N00118159EA0034200398
B0908434152296N00118170EA0034100398
B0908444152295N00118181EA0034100398
B0908454152294N00118191EA0034100398
B0908464152293N00118202EA0034100398
B0908474152292N00118212EA0034100398
B0908484152291N00118222EA0034100398
B0908494152290N00118232EA0034200398
B0908504152289N00118241EA0034100399
B0908514152288N00118251EA0034100399
B0908524152287N00118260EA0034000399
B0908534152286N00118270EA0034100399
B0908544152285N00118279EA0034100398
B0908554152284N00118289EA0034000398
B0908564152283N00118299EA0034100398
B0908574152282N00118309EA0034200398
B0908584152281N00118319EA0034100398
B0908594152279N00118329EA0034200398
B0909004152278N00118340EA0034100398
B0909014152277N00118351EA0034100398
B0909024152276N00118362EA0034200398
B0909034152275N00118374EA0034200398
B0909044152274N00118385EA0034200398
B0909054152272N00118397EA0034200398
B0909064152271N00118409EA0034300399
B0909074152270N00118420EA0034300399
B0909084152269N00118432EA0034400400
B0909094152268N00118443EA0034400400
B0909104152266N00118455EA0034500401
B0909114152265N00118466EA0034400401
B0909124152263N00118477EA0034400401
B0909134152261N00118489EA0034500402
B0909144152259N00118500EA0034500403
B0909154152256N00118511EA0034600403
B0909164152253N00118522EA0034700404
B0909174152250N00118533EA0034700404
B0909184152246N00118543EA0034600405
B0909194152242N00118553EA0034800406
B0909204152237N00118563EA0034800406
B0909214152232N00118573EA0034800406
B0909224152226N00118582EA0034800407
B0909234152220N00118591EA0034900407
B0909244152214N00118599EA0034800408
B0909254152207N00118607EA0034900408
B0909264152200N00118615EA0034900408
B0909274152193N00118622EA0034900408
B0909284152186N00118630EA0035100409
B0909294152179N00118637EA0035000409
B0909304152172N00118644EA0035100409
B0909314152165N00118651EA0035000410
B0909324152157N00118658EA0035200410
B0909334152150N00118665EA0035300410
B0909344152143N00118672EA0035300411
B0909354152135N00118678EA0035300411
B0909364152128N00118685EA0035200411
B0909374152121N00118692EA0035200412
B0909384152113N00118699EA0035200412
B0909394152106N00118706EA0035400412
B0909404152098N00118713EA0035500413
B0909414152091N00118720EA0035500413
B0909424152083N00118727EA0035600413
B0909434152076N00118734EA0035600414
B0909444152069N00118740EA0035600414
B0909454152061N00118747EA0035700414
B0909464152054N00118754EA0035600415
B0909474152047N00118761EA0035700415
B0909484152039N00118768EA0035800416
B0909494152032N00118775EA0035800416
B0909504152025N00118783EA0035900416
B0909514152017N00118790EA0035800417
B0909524152009N00118798EA0036000417
B0909534152000N00118807EA0036000417
B0909544151991N00118817EA0036200417
B0909554151981N00118826EA0036200417
B0909564151971N00118836EA0036300417
B0909574151960N00118847EA0036200417
B0909584151949N00118857EA0036200418
B0909594151938N00118867EA0036200418
B0910004151926N00118878EA0036300418
B0910014151914N00118888EA0036300418
B0910024151903N00118898EA0036200418
B0910034151892N00118908EA0036200418
B0910044151882N00118918EA0036300418
B0910054151871N00118928EA0036300418
B0910064151860N00118939EA0036100418
B0910074151850N00118949EA0036200418
B0910084151839N00118959EA0036100418
B0910094151828N00118969EA0036300418
B0910104151817N00118979EA0036200418
B0910114151806N00118989EA0036200418
B0910124151795N00119000EA0036300418
B0910134151785N00119010EA0036400419
B0910144151774N00119020EA0036300419
B0910154151763N00119030EA0036300419
B0910164151752N00119040EA0036300419
B0910174151741N00119050EA0036300419
B0910184151730N00119060EA0036200419
B0910194151719N00119071EA0036200419
B0910204151709N00119081EA0036200419
B0910214151698N00119091EA0036200419
B0910224151687N00119101EA0036200420
B0910234151676N00119111EA0036200420
B0910244151666N00119122EA0036300421
B0910254151655N00119132EA0036200421
B0910264151644N00119142EA0036300421
B0910274151633N00119152EA0036300422
B0910284151623N00119163EA0036400422
B0910294151612N00119173EA0036500423
B0910304151601N00119183EA0036300423
B0910314151590N00119193EA0036400424
B0910324151579N00119203EA0036500424
B0910334151569N00119214EA0036600425
B0910344151558N00119224EA0036400425
B0910354151547N00119234EA0036500425
B0910364151536N00119245EA0036500426
B0910374151526N00119255EA0036600426
B0910384151515N00119265EA0036600426
B0910394151504N00119276EA0036700427
B0910404151493N00119286EA0036700427
B0910414151483N00119296EA0036700428
B0910424151472N00119306EA0036700428
B0910434151461N00119316EA0036800428
B0910444151450N00119327EA0036700429
B0910454151439N00119337EA0036800429
B0910464151429N00119347EA0036800429
B0910474151418N00119357EA0036800430
B0910484151407N00119367EA0036900430
B0910494151396N00119378EA0036800430
B0910504151385N00119388EA0036900431
B0910514151374N00119398EA0036900431
B0910524151364N00119408EA0037000432
B0910534151353N00119418EA0037100433
B0910544151342N00119428EA0037300434
B0910554151331N00119438EA0037300434
B0910564151321N00119449EA0037500435
B0910574151310N00119459EA0037500435
B0910584151299N00119469EA0037400436
B0910594151289N00119480EA0037600436
B0911004151279N00119491EA0037700437
B0911014151269N00119503EA0037800438
B0911024151260N00119516EA0037800439
B0911034151251N00119529EA0037900440
B0911044151242N00119543EA0037900440
B0911054151235N00119557EA0037900441
B0911064151227N00119572EA0038100442
B0911074151220N00119587EA0038200442
B0911084151214N00119602EA0038100443
B0911094151208N00119618EA0038200443
B0911104151202N00119633EA0038400444
B0911114151196N00119649EA0038400444
B0911124151190N00119665EA0038500445
B0911134151184N00119681EA0038500445
B0911144151177N00119696EA0038700446
B0911154151171N00119712EA0038700447
B0911164151165N00119728EA0038800447
B0911174151159N00119743EA0038900448
B0911184151153N00119759EA0038900448
B0911194151147N00119775EA0038900448
B0911204151141N00119791EA0039000449
B0911214151135N00119806EA0039100449
B0911224151128N00119822EA0039200450
B0911234151122N00119838EA0039300451
B0911244151116N00119853EA0039400451
B0911254151110N00119869EA0039500452
B0911264151103N00119885EA0039500452
B0911274151097N00119900EA0039500453
B0911284151091N00119916EA0039700454
B0911294151085N00119932EA0039700454
B0911304151079N00119947EA0039700455
B0911314151073N00119963EA0039800456
B0911324151067N00119979EA0039900456
B0911334151061N00119994EA0039800457
B0911344151055N00120010EA0040000458
B0911354151048N00120026EA0040000459
B0911364151042N00120041EA0040200459
B0911374151036N00120057EA0040300460
B0911384151030N00120072EA0040300461
B0911394151023N00120088EA0040400462
B0911404151017N00120103EA0040500462
B0911414151010N00120118EA0040700463
B0911424151003N00120133EA0040700464
B0911434150995N00120148EA0040800465
B0911444150987N00120162EA0040900466
B0911454150979N00120176EA0040900466
B0911464150970N00120189EA0041000466
B0911474150962N00120203EA0041000467
B0911484150953N00120217EA0041000467
B0911494150944N00120230EA0041100466
B0911504150935N00120244EA0041000466
B0911514150927N00120258EA0041000465
B0911524150918N00120271EA0040900465
B0911534150909N00120284EA0040800465
B0911544150900N00120298EA0040900464
B0911554150891N00120311EA0040800464
B0911564150883N00120325EA0040800464
B0911574150874N00120338EA0040800463
B0911584150865N00120352EA0040800463
B0911594150857N00120365EA0040700463
B0912004150848N00120379EA0040700462
B0912014150839N00120392EA0040600462
B0912024150831N00120406EA0040700461
B0912034150822N00120419EA0040600461
B0912044150813N00120432EA0040800461
B0912054150805N00120446EA0040800460
B0912064150796N00120459EA0040700460
B0912074150787N00120472EA0040800460
B0912084150779N00120486EA0040600459
B0912094150770N00120499EA0040500459
B0912104150761N00120512EA0040500458
B0912114150753N00120526EA0040400458
B0912124150744N00120539EA0040400458
B0912134150735N00120553EA0040500457
B0912144150727N00120566EA0040400457
B0912154150718N00120579EA0040500457
B0912164150709N00120593EA0040500457
B0912174150701N00120606EA0040500456
B0912184150692N00120619EA0040500456
B0912194150683N00120633EA0040400456
B0912204150674N00120646EA0040300455
B0912214150666N00120659EA0040400455
B0912224150657N00120673EA0040300454
B0912234150648N00120686EA0040300454
B0912244150640N00120699EA0040300454
B0912254150631N00120713EA0040200453
B0912264150622N00120726EA0040100453
B0912274150614N00120740EA0040100453
B0912284150605N00120753EA0040100452
B0912294150596N00120767EA0040100452
B0912304150588N00120780EA0040100451
B0912314150579N00120794EA0040000451
B0912324150571N00120808EA0039900451
B0912334150564N00120823EA0039800450
B0912344150556N00120838EA0039800450
B0912354150550N00120853EA0039800449
B0912364150543N00120869EA0039700448
B0912374150537N00120885EA0039600448
B0912384150531N00120901EA0039700447
B0912394150526N00120917EA0039500447
B0912404150520N00120933EA0039500446
B0912414150515N00120949EA0039500446
B0912424150509N00120965EA0039300445
B0912434150504N00120981EA0039100444
B0912444150498N00120997EA0039100443
B0912454150493N00121014EA0039000443
B0912464150487N00121030EA0039000442
B0912474150482N00121046EA0038900441
B0912484150476N00121062EA0038800441
B0912494150470N00121078EA0038700440
B0912504150465N00121094EA0038600440
B0912514150459N00121111EA0038700439
B0912524150454N00121127EA0038500439
B0912534150448N00121143EA0038600438
B0912544150442N00121159EA0038600438
B0912554150437N00121175EA0038500437
B0912564150431N00121191EA0038400437
B0912574150426N00121207EA0038300436
B0912584150421N00121223EA0038100436
B0912594150416N00121238EA0038000435
B0913004150410N00121253EA0038000435
B0913014150406N00121267EA0037900434
B0913024150401N00121280EA0037700434
B0913034150397N00121292EA0037700434
B0913044150393N00121304EA0037600434
B0913054150389N00121315EA0037400433
B0913064150385N00121323EA0037300433
B0913074150383N00121330EA0037300433
B0913084150380N00121335EA0037200433
B0913094150377N00121339EA0037200433
B0913104150374N00121341EA0037300433
B0913114150370N00121343EA0037200433
B0913124150367N00121345EA0037000432
B0913134150364N00121349EA0037100432
B0913144150363N00121354EA0037000431
B0913154150363N00121359EA0037100432
B0913164150365N00121364EA0037000432
B0913174150369N00121368EA0037200432
B0913184150373N00121370EA0037200433
B0913194150378N00121372EA0037200433
B0913204150384N00121375EA0037300433
B0913214150389N00121379EA0037200433
B0913224150394N00121385EA0037100433
B0913234150400N00121390EA0037200433
B0913244150406N00121396EA0037200433
B0913254150412N00121402EA0037200433
B0913264150419N00121409EA0037100433
B0913274150425N00121416EA0037300434
B0913284150432N00121423EA0037200434
B0913294150438N00121431EA0037300435
B0913304150444N00121440EA0037400435
B0913314150450N00121449EA0037300435
B0913324150455N00121457EA0037400435
B0913334150460N00121467EA0037400435
B0913344150465N00121476EA0037400435
B0913354150470N00121485EA0037400435
B0913364150473N00121495EA0037400436
B0913374150476N00121504EA0037400436
B0913384150479N00121513EA0037500436
B0913394150481N00121522EA0037400436
B0913404150483N00121531EA0037500437
B0913414150484N00121541EA0037600437
B0913424150485N00121550EA0037600438
B0913434150486N00121560EA0037600438
B0913444150487N00121570EA0037700438
B0913454150488N00121580EA0037600439
B0913464150489N00121590EA0037700439
B0913474150490N00121600EA0037700440
B0913484150492N00121610EA0037700440
B0913494150493N00121620EA0037700441
B0913504150496N00121631EA0037700440
B0913514150498N00121641EA0037800441
B0913524150502N00121651EA0037900441
B0913534150506N00121661EA0037800442
B0913544150510N00121671EA0038000443
B0913554150516N00121679EA0038000443
B0913564150521N00121688EA0038100443
B0913574150527N00121695EA0038100444
B0913584150534N00121702EA0038100444
B0913594150541N00121708EA0038200445
B0914004150548N00121713EA0038300446
B0914014150556N00121718EA0038500447
B0914024150563N00121723EA0038500447
B0914034150571N00121727EA0038600448
B0914044150579N00121732EA0038600449
B0914054150587N00121736EA0038700450
B0914064150595N00121740EA0038900451
B0914074150603N00121746EA0038900452
B0914084150610N00121752EA0039000454
B0914094150617N00121758EA0039100455
B0914104150624N00121765EA0039100456
B0914114150630N00121773EA0039300457
B0914124150637N00121781EA0039400457
B0914134150643N00121789EA0039500458
B0914144150649N00121798EA0039600459
B0914154150655N00121806EA0039600460
B0914164150662N00121814EA0039800461
B0914174150668N00121822EA0039900462
B0914184150675N00121829EA0040000463
B0914194150683N00121835EA0040000464
B0914204150690N00121841EA0040000465
B0914214150698N00121846EA0040300467
B0914224150707N00121850EA0040400469
B0914234150716N00121854EA0040600470
B0914244150725N00121857EA0040600471
B0914254150734N00121859EA0040700472
B0914264150743N00121861EA0040800473
B0914274150753N00121862EA0040900474
B0914284150762N00121864EA0041000475
B0914294150772N00121866EA0041000476
B0914304150781N00121868EA0041300477
B0914314150791N00121870EA0041300479
B0914324150801N00121874EA0041400480
B0914334150811N00121878EA0041500481
B0914344150821N00121883EA0041700482
B0914354150831N00121888EA0041900484
B0914364150841N00121893EA0042000485
B0914374150850N00121899EA0042000486
B0914384150860N00121905EA0042100487
B0914394150869N00121910EA0042200488
B0914404150879N00121915EA0042300489
B0914414150889N00121920EA0042400491
B0914424150898N00121925EA0042500492
B0914434150908N00121929EA0042600493
B0914444150919N00121933EA0042700495
B0914454150929N00121936EA0042800496
B0914464150940N00121939EA0042900497
B0914474150951N00121941EA0043100499
B0914484150962N00121942EA0043300500
B0914494150973N00121944EA0043300502
B0914504150984N00121945EA0043500503
B0914514150995N00121945EA0043600504
B0914524151007N00121946EA0043700506
B0914534151018N00121946EA0043900507
B0914544151030N00121946EA0044000508
B0914554151042N00121946EA0044100509
B0914564151054N00121946EA0044200510
B0914574151066N00121946EA0044500512
B0914584151078N00121945EA0044500513
B0914594151090N00121943EA0044500514
B0915004151102N00121941EA0044800515
B0915014151115N00121937EA0044900517
B0915024151127N00121933EA0045000518
B0915034151138N00121927EA0045100520
B0915044151150N00121921EA0045400521
B0915054151161N00121915EA0045400522
B0915064151172N00121910EA0045500524
B0915074151183N00121905EA0045700525
B0915084151194N00121900EA0045800526
B0915094151206N00121897EA0045900527
B0915104151218N00121896EA0046100528
B0915114151230N00121895EA0046200528
B0915124151242N00121895EA0046400530
B0915134151254N00121897EA0046500531
B0915144151266N00121899EA0046600532
B0915154151278N00121903EA0046800534
B0915164151289N00121908EA0046800535
B0915174151300N00121912EA0047000537
B0915184151311N00121917EA0047200538
B0915194151322N00121921EA0047300540
B0915204151334N00121925EA0047400541
B0915214151345N00121929EA0047500543
B0915224151356N00121933EA0047600544
B0915234151367N00121937EA0047700545
B0915244151378N00121941EA0047800547
B0915254151389N00121944EA0048000548
B0915264151400N00121948EA0048200549
B0915274151411N00121952EA0048300550
B0915284151422N00121956EA0048400551
B0915294151433N00121960EA0048600553
B0915304151443N00121965EA0048600554
B0915314151454N00121970EA0048800555
B0915324151465N00121975EA0048800556
B0915334151475N00121980EA0048900557
B0915344151485N00121985EA0049000558
B0915354151496N00121990EA0049100560
B0915364151505N00121996EA0049200561
B0915374151515N00122002EA0049200562
B0915384151525N00122008EA0049300563
B0915394151534N00122014EA0049500564
B0915404151543N00122019EA0049600565
B0915414151552N00122025EA0049800566
B0915424151561N00122031EA0049700567
B0915434151570N00122037EA0049900568
B0915444151578N00122042EA0050000569
B0915454151587N00122048EA0050100570
B0915464151596N00122053EA0050300571
B0915474151606N00122059EA0050300573
B0915484151615N00122064EA0050400574
B0915494151626N00122069EA0050600575
B0915504151636N00122075EA0050800577
B0915514151647N00122080EA0050900578
B0915524151658N00122085EA0051000579
B0915534151670N00122089EA0051200580
B0915544151681N00122094EA0051100582
B0915554151692N00122098EA0051300583
B0915564151704N00122101EA0051500584
B0915574151716N00122105EA0051500586
B0915584151727N00122108EA0051700587
B0915594151739N00122111EA0051900588
B0916004151751N00122114EA0052100590
B0916014151763N00122117EA0052100591
B0916024151775N00122119EA0052300593
B0916034151787N00122121EA0052500594
B0916044151799N00122123EA0052400595
B0916054151811N00122125EA0052700597
B0916064151823N00122127EA0052600598
B0916074151835N00122128EA0053000599
B0916084151847N00122130EA0053100600
B0916094151859N00122133EA0053200601
B0916104151870N00122136EA0053300603
B0916114151882N00122140EA0053500605
B0916124151893N00122145EA0053400606
B0916134151904N00122150EA0053600607
B0916144151915N00122156EA0053800609
B0916154151926N00122162EA0053800610
B0916164151936N00122169EA0054000611
B0916174151946N00122177EA0054100613
B0916184151956N00122184EA0054200614
B0916194151966N00122193EA0054400615
B0916204151976N00122201EA0054400616
B0916214151986N00122209EA0054600617
B0916224151996N00122218EA0054700618
B0916234152006N00122226EA0054900620
B0916244152016N00122233EA0054900621
B0916254152026N00122240EA0055200622
B0916264152037N00122247EA0055200623
B0916274152048N00122253EA0055300624
B0916284152059N00122258EA0055400625
B0916294152070N00122263EA0055600626
B0916304152081N00122267EA0055700628
B0916314152093N00122270EA0055900629
B0916324152105N00122273EA0056000630
B0916334152117N00122275EA0056000631
B0916344152129N00122277EA0056300632
B0916354152141N00122278EA0056300633
B0916364152153N00122279EA0056500634
B0916374152164N00122280EA0056700635
B0916384152176N00122281EA0056800637
B0916394152188N00122283EA0057000638
B0916404152200N00122285EA0057100639
B0916414152211N00122287EA0057100640
B0916424152223N00122290EA0057300641
B0916434152235N00122294EA0057400643
B0916444152246N00122299EA0057600645
B0916454152258N00122304EA0057600646
B0916464152269N00122310EA0057900648
B0916474152280N00122317EA0058000649
B0916484152291N00122324EA0058200650
B0916494152302N00122333EA0058300652
B0916504152312N00122341EA0058400653
B0916514152322N00122350EA0058300654
B0916524152331N00122359EA0058600655
B0916534152340N00122369EA0058700656
B0916544152349N00122379EA0058900658
B0916554152358N00122389EA0058900659
B0916564152366N00122399EA0059000661
B0916574152375N00122409EA0059100663
B0916584152383N00122419EA0059200664
B0916594152392N00122428EA0059300666
B0917004152400N00122436EA0059300667
B0917014152410N00122444EA0059600668
B0917024152420N00122451EA0059500669
B0917034152430N00122457EA0059600669
B0917044152441N00122462EA0059700670
B0917054152452N00122466EA0059800671
B0917064152464N00122470EA0059900672
B0917074152476N00122472EA0060000673
B0917084152488N00122474EA0060000673
B0917094152501N00122476EA0060100674
B0917104152513N00122478EA0060200675
B0917114152525N00122480EA0060200676
B0917124152537N00122483EA0060200677
B0917134152549N00122487EA0060300677
B0917144152561N00122492EA0060500678
B0917154152573N00122498EA0060500679
B0917164152584N00122505EA0060500680
B0917174152594N00122513EA0060700680
B0917184152605N00122522EA0060700681
B0917194152615N00122531EA0060800681
B0917204152624N00122542EA0060800682
B0917214152633N00122554EA0060800683
B0917224152641N00122566EA0061000683
B0917234152649N00122578EA0061200684
B0917244152656N00122592EA0061000684
B0917254152662N00122605EA0061200685
B0917264152667N00122619EA0061200686
B0917274152672N00122633EA0061200686
B0917284152676N00122648EA0061200687
B0917294152679N00122662EA0061400687
B0917304152682N00122677EA0061500688
B0917314152684N00122692EA0061600688
B0917324152685N00122708EA0061700689
B0917334152686N00122723EA0061700689
B0917344152686N00122739EA0061800690
B0917354152685N00122755EA0061900690
B0917364152683N00122770EA0061900691
B0917374152681N00122786EA0062000691
B0917384152678N00122801EA0062100692
B0917394152674N00122816EA0062200693
B0917404152669N00122832EA0062300693
B0917414152664N00122846EA0062300694
B0917424152659N00122860EA0062400695
B0917434152653N00122874EA0062400696
B0917444152647N00122888EA0062600696
B0917454152641N00122902EA0062600697
B0917464152636N00122916EA0062600697
B0917474152631N00122930EA0062700698
B0917484152627N00122945EA0062700699
B0917494152624N00122960EA0062800699
B0917504152621N00122976EA0062900700
B0917514152620N00122992EA0062900700
B0917524152619N00123008EA0062900700
B0917534152619N00123024EA0063000701
B0917544152620N00123041EA0063000701
B0917554152622N00123057EA0062900701
B0917564152625N00123073EA0062900701
B0917574152629N00123090EA0063100702
B0917584152633N00123105EA0063000702
B0917594152638N00123121EA0063000702
B0918004152642N00123137EA0063000703
B0918014152647N00123152EA0063100703
B0918024152650N00123168EA0063300704
B0918034152653N00123185EA0063400705
B0918044152654N00123201EA0063300706
B0918054152654N00123218EA0063400707
B0918064152653N00123234EA0063500707
B0918074152652N00123250EA0063700708
B0918084152650N00123266EA0063700709
B0918094152649N00123282EA0063800710
B0918104152648N00123298EA0063800711
B0918114152649N00123313EA0064000712
B0918124152650N00123329EA0064100713
B0918134152652N00123344EA0064200713
B0918144152655N00123359EA0064300715
B0918154152659N00123374EA0064300715
B0918164152664N00123388EA0064500716
B0918174152670N00123402EA0064600717
B0918184152676N00123416EA0064600718
B0918194152684N00123428EA0064600720
B0918204152693N00123440EA0064800720
B0918214152703N00123450EA0064800722
B0918224152713N00123460EA0065000723
B0918234152723N00123470EA0065000724
B0918244152732N00123480EA0065100725
B0918254152742N00123490EA0065100726
B0918264152752N00123500EA0065300727
B0918274152761N00123511EA0065200727
B0918284152770N00123522EA0065300728
B0918294152780N00123534EA0065400728
B0918304152789N00123545EA0065400729
B0918314152798N00123557EA0065500729
B0918324152807N00123570EA0065600729
B0918334152815N00123582EA0065600730
B0918344152824N00123594EA0065600730
B0918354152832N00123607EA0065700730
B0918364152840N00123620EA0065700731
B0918374152848N00123633EA0065800732
B0918384152855N00123646EA0065800732
B0918394152862N00123660EA0065900733
B0918404152868N00123674EA0065900734
B0918414152873N00123690EA0066100734
B0918424152877N00123705EA0066100734
B0918434152880N00123722EA0066100735
B0918444152882N00123738EA0066200736
B0918454152883N00123754EA0066300737
B0918464152882N00123769EA0066400737
B0918474152881N00123785EA0066400738
B0918484152878N00123801EA0066500738
B0918494152875N00123816EA0066500739
B0918504152871N00123831EA0066700739
B0918514152866N00123846EA0066700741
B0918524152861N00123861EA0066700743
B0918534152856N00123877EA0067000744
B0918544152852N00123892EA0067000746
B0918554152849N00123908EA0067200747
B0918564152846N00123924EA0067400748
B0918574152844N00123941EA0067500749
B0918584152843N00123958EA0067500750
B0918594152843N00123974EA0067600751
B0919004152844N00123991EA0067600751
B0919014152846N00124008EA0067700752
B0919024152849N00124025EA0067600752
B0919034152853N00124041EA0067800753
B0919044152858N00124057EA0067700753
B0919054152863N00124073EA0067700753
B0919064152868N00124089EA0067800754
B0919074152873N00124105EA0067900754
B0919084152878N00124122EA0067900755
B0919094152881N00124139EA0067900755
B0919104152884N00124157EA0067900755
B0919114152886N00124174EA0068100756
B0919124152888N00124192EA0068100756
B0919134152890N00124209EA0068200757
B0919144152892N00124227EA0068500758
B0919154152894N00124245EA0068400759
B0919164152897N00124262EA0068500759
B0919174152900N00124280EA0068600760
B0919184152904N00124297EA0068600761
B0919194152908N00124314EA0068800762
B0919204152913N00124331EA0069000763
B0919214152919N00124348EA0069000764
B0919224152925N00124365EA0069100765
B0919234152932N00124381EA0069300766
B0919244152939N00124397EA0069200767
B0919254152947N00124412EA0069400768
B0919264152955N00124427EA0069500769
B0919274152964N00124440EA0069500770
B0919284152975N00124452EA0069800771
B0919294152985N00124464EA0069800772
B0919304152996N00124475EA0069800773
B0919314153007N00124485EA0070000774
B0919324153018N00124496EA0069900774
B0919334153028N00124506EA0070100775
B0919344153039N00124517EA0070200776
B0919354153049N00124529EA0070200777
B0919364153059N00124540EA0070500778
B0919374153068N00124552EA0070600779
B0919384153078N00124565EA0070500780
B0919394153087N00124578EA0070700781
B0919404153096N00124590EA0070900783
B0919414153105N00124603EA0070800784
B0919424153114N00124616EA0071000786
B0919434153122N00124628EA0071100787
B0919444153131N00124641EA0071100788
B0919454153140N00124653EA0071300790
B0919464153149N00124666EA0071300791
B0919474153158N00124678EA0071400792
B0919484153166N00124691EA0071600793
B0919494153175N00124704EA0071700794
B0919504153184N00124717EA0071600795
B0919514153192N00124730EA0071800796
B0919524153200N00124744EA0072000796
B0919534153208N00124758EA0071900797
B0919544153216N00124772EA0072000797
B0919554153224N00124786EA0072100797
B0919564153232N00124801EA0072000798
B0919574153239N00124815EA0072100798
B0919584153246N00124830EA0071900798
B0919594153253N00124845EA0072300798
B0920004153260N00124860EA0072200799
B0920014153266N00124875EA0072200799
B0920024153273N00124890EA0072200799
B0920034153280N00124905EA0072300800
B0920044153286N00124920EA0072200800
B0920054153293N00124936EA0072300800
B0920064153300N00124951EA0072300801
B0920074153307N00124966EA0072400801
B0920084153314N00124981EA0072400801
B0920094153321N00124996EA0072300802
B0920104153328N00125011EA0072400802
B0920114153335N00125026EA0072400802
B0920124153342N00125041EA0072500803
B0920134153349N00125056EA0072400803
B0920144153356N00125071EA0072300803
B0920154153363N00125086EA0072500803
B0920164153370N00125101EA0072400804
B0920174153377N00125116EA0072500804
B0920184153384N00125131EA0072400805
B0920194153391N00125146EA0072500805
B0920204153398N00125162EA0072500805
B0920214153405N00125176EA0072600806
B0920224153412N00125191EA0072600806
B0920234153420N00125206EA0072700806
B0920244153427N00125221EA0072600807
B0920254153435N00125235EA0072800807
B0920264153443N00125249EA0072800807
B0920274153451N00125263EA0072800807
B0920284153460N00125277EA0072800807
B0920294153469N00125290EA0072800808
B0920304153478N00125303EA0072900808
B0920314153487N00125315EA0072900808
B0920324153497N00125328EA0073000809
B0920334153507N00125340EA0073000809
B0920344153517N00125352EA0073000809
B0920354153527N00125363EA0073000810
B0920364153537N00125374EA0073100810
B0920374153548N00125384EA0073000811
B0920384153558N00125395EA0073200811
B0920394153569N00125405EA0073300812
B0920404153580N00125414EA0073500813
B0920414153591N00125423EA0073400814
B0920424153602N00125433EA0073600815
B0920434153613N00125442EA0073800816
B0920444153624N00125451EA0073800817
B0920454153635N00125461EA0074000819
B0920464153646N00125471EA0074100820
B0920474153657N00125481EA0074000821
B0920484153667N00125492EA0074200822
B0920494153677N00125504EA0074300822
B0920504153687N00125516EA0074300822
B0920514153697N00125528EA0074200822
B0920524153707N00125541EA0074200822
B0920534153716N00125555EA0074300821
B0920544153724N00125568EA0074200821
B0920554153733N00125582EA0074100819
B0920564153741N00125597EA0074000818
B0920574153748N00125612EA0073900817
B0920584153755N00125627EA0073800815
B0920594153763N00125643EA0073600814
B0921004153770N00125659EA0073500812
B0921014153777N00125674EA0073300811
B0921024153784N00125690EA0073200809
B0921034153791N00125706EA0073000808
B0921044153799N00125722EA0073000806
B0921054153807N00125738EA0072800804
B0921064153815N00125754EA0072700803
B0921074153823N00125769EA0072400801
B0921084153832N00125784EA0072400800
B0921094153841N00125800EA0072400798
B0921104153850N00125815EA0072200797
B0921114153859N00125830EA0072000795
B0921124153868N00125844EA0072000794
B0921134153878N00125859EA0071700792
B0921144153888N00125873EA0071700791
B0921154153897N00125887EA0071500789
B0921164153908N00125901EA0071400788
B0921174153918N00125914EA0071200786
B0921184153928N00125927EA0071200785
B0921194153939N00125940EA0071000783
B0921204153950N00125953EA0071000782
B0921214153961N00125965EA0071100781
B0921224153972N00125977EA0070800780
B0921234153984N00125989EA0070500779
B0921244153995N00126001EA0070300778
B0921254154007N00126012EA0070400777
B0921264154018N00126023EA0070300776
B0921274154030N00126034EA0070100775
B0921284154042N00126045EA0070000773
B0921294154054N00126055EA0069900772
B0921304154067N00126065EA0069800771
B0921314154079N00126075EA0069800770
B0921324154091N00126084EA0069600768
B0921334154104N00126094EA0069500767
B0921344154116N00126103EA0069300766
B0921354154129N00126112EA0069200764
B0921364154141N00126122EA0069100763
B0921374154153N00126132EA0069100762
B0921384154165N00126142EA0068800760
B0921394154177N00126153EA0068700759
B0921404154189N00126165EA0068600757
B0921414154200N00126176EA0068500757
B0921424154211N00126188EA0068500755
B0921434154222N00126201EA0068400755
B0921444154233N00126213EA0068200753
B0921454154243N00126226EA0068100753
B0921464154254N00126239EA0067900752
B0921474154264N00126252EA0067800750
B0921484154275N00126265EA0067800749
B0921494154285N00126278EA0067600748
B0921504154296N00126291EA0067400747
B0921514154307N00126304EA0067500746
B0921524154318N00126316EA0067300745
B0921534154328N00126328EA0067300745
B0921544154339N00126339EA0067300745
B0921554154350N00126351EA0067300745
B0921564154361N00126362EA0067200746
B0921574154372N00126372EA0067300746
B0921584154382N00126382EA0067500747
B0921594154392N00126393EA0067500748
B0922004154403N00126403EA0067600749
B0922014154413N00126413EA0067700751
B0922024154423N00126424EA0067900752
B0922034154433N00126435EA0068000754
B0922044154442N00126446EA0068300755
B0922054154452N00126458EA0068400757
B0922064154462N00126470EA0068500758
B0922074154471N00126482EA0068600760
B0922084154480N00126495EA0068800761
B0922094154489N00126508EA0068900763
B0922104154498N00126521EA0069000764
B0922114154507N00126534EA0069100766
B0922124154515N00126547EA0069300767
B0922134154524N00126561EA0069500769
B0922144154533N00126574EA0069600770
B0922154154542N00126587EA0069800772
B0922164154551N00126600EA0069900773
B0922174154560N00126612EA0070000775
B0922184154570N00126625EA0070200777
B0922194154579N00126637EA0070400778
B0922204154589N00126649EA0070600780
B0922214154599N00126661EA0070600782
B0922224154609N00126673EA0070700783
B0922234154619N00126684EA0070900785
B0922244154629N00126695EA0071100786
B0922254154639N00126706EA0071300788
B0922264154650N00126717EA0071400789
B0922274154661N00126728EA0071400790
B0922284154671N00126739EA0071400791
B0922294154682N00126749EA0071500791
B0922304154693N00126760EA0071400792
B0922314154704N00126771EA0071300792
B0922324154715N00126782EA0071300792
B0922334154725N00126793EA0071400792
B0922344154736N00126805EA0071300791
B0922354154746N00126816EA0071300791
B0922364154757N00126828EA0071300790
B0922374154766N00126840EA0071100789
B0922384154776N00126853EA0071000788
B0922394154786N00126865EA0070900787
B0922404154796N00126878EA0070700786
B0922414154805N00126891EA0070600784
B0922424154815N00126904EA0070600783
B0922434154824N00126918EA0070500783
B0922444154833N00126931EA0070400782
B0922454154842N00126945EA0070400782
B0922464154850N00126958EA0070300781
B0922474154859N00126972EA0070500781
B0922484154866N00126986EA0070500781
B0922494154874N00127000EA0070600782
B0922504154882N00127014EA0070600783
B0922514154889N00127028EA0070700783
B0922524154896N00127042EA0070900785
B0922534154903N00127056EA0071000786
B0922544154911N00127071EA0071100787
B0922554154918N00127085EA0071200788
B0922564154925N00127100EA0071500790
B0922574154933N00127114EA0071600792
B0922584154942N00127127EA0071800794
B0922594154952N00127139EA0071900795
B0923004154962N00127151EA0071900797
B0923014154973N00127161EA0072000798
B0923024154984N00127170EA0072100799
B0923034154996N00127178EA0072300801
B0923044155008N00127185EA0072500802
B0923054155020N00127192EA0072600803
B0923064155032N00127199EA0072700804
B0923074155045N00127206EA0072800805
B0923084155057N00127213EA0072800806
B0923094155069N00127221EA0072900807
B0923104155080N00127229EA0073000808
B0923114155092N00127238EA0073000809
B0923124155104N00127246EA0072900809
B0923134155115N00127255EA0073100810
B0923144155127N00127264EA0073000810
B0923154155138N00127274EA0073200810
B0923164155150N00127284EA0073100810
B0923174155161N00127294EA0073100810
B0923184155171N00127304EA0073200810
B0923194155182N00127315EA0073300810
B0923204155191N00127328EA0073300810
B0923214155200N00127341EA0073400811
B0923224155208N00127355EA0073400810
B0923234155215N00127370EA0073400811
B0923244155222N00127385EA0073500812
B0923254155227N00127401EA0073500813
B0923264155231N00127418EA0073700813
B0923274155234N00127434EA0073800815
B0923284155237N00127452EA0073900816
B0923294155239N00127469EA0074000818
B0923304155240N00127486EA0074000819
B0923314155241N00127504EA0074300821
B0923324155243N00127521EA0074400822
B0923334155246N00127538EA0074600824
B0923344155249N00127555EA0074700825
B0923354155253N00127572EA0074800827
B0923364155259N00127588EA0074900828
B0923374155265N00127604EA0075000830
B0923384155273N00127619EA0075200831
B0923394155281N00127633EA0075200832
B0923404155290N00127647EA0075300833
B0923414155299N00127660EA0075300833
B0923424155309N00127673EA0075300833
B0923434155318N00127686EA0075300833
B0923444155327N00127699EA0075400833
B0923454155337N00127712EA0075200833
B0923464155346N00127725EA0075200832
B0923474155355N00127738EA0075200831
B0923484155365N00127751EA0075100831
B0923494155374N00127764EA0075000829
B0923504155384N00127776EA0074900828
B0923514155393N00127789EA0074800827
B0923524155403N00127802EA0074800827
B0923534155412N00127815EA0074700826
B0923544155421N00127828EA0074500826
B0923554155430N00127840EA0074500826
B0923564155440N00127853EA0074500826
B0923574155449N00127865EA0074600827
B0923584155459N00127877EA0074600827
B0923594155468N00127889EA0074800828
B0924004155478N00127900EA0074700828
B0924014155488N00127911EA0074900829
B0924024155499N00127922EA0074900829
B0924034155510N00127932EA0074900829
B0924044155521N00127942EA0075000829
B0924054155532N00127952EA0074800828
B0924064155544N00127962EA0074800827
B0924074155555N00127971EA0074700827
B0924084155567N00127981EA0074700826
B0924094155578N00127990EA0074600825
B0924104155590N00128000EA0074500824
B0924114155601N00128010EA0074400823
B0924124155612N00128019EA0074400823
B0924134155623N00128029EA0074400823
B0924144155634N00128038EA0074400822
B0924154155646N00128048EA0074300823
B0924164155657N00128058EA0074400822
B0924174155668N00128067EA0074200822
B0924184155679N00128077EA0074300822
B0924194155691N00128086EA0074300821
B0924204155702N00128094EA0074200820
B0924214155714N00128103EA0074100820
B0924224155726N00128111EA0074000819
B0924234155738N00128119EA0073900818
B0924244155750N00128127EA0073800817
B0924254155762N00128135EA0073800816
B0924264155773N00128143EA0073600815
B0924274155785N00128152EA0073500815
B0924284155796N00128160EA0073500814
B0924294155808N00128169EA0073600814
B0924304155819N00128178EA0073500813
B0924314155830N00128187EA0073500813
B0924324155841N00128197EA0073600813
B0924334155852N00128207EA0073700812
B0924344155863N00128217EA0073600813
B0924354155873N00128227EA0073700813
B0924364155884N00128237EA0073700813
B0924374155894N00128247EA0073800813
B0924384155905N00128258EA0073600814
B0924394155916N00128268EA0073800814
B0924404155927N00128279EA0073900813
B0924414155937N00128290EA0073800813
B0924424155948N00128301EA0073800812
B0924434155958N00128313EA0073600811
B0924444155968N00128325EA0073600811
B0924454155978N00128337EA0073500811
B0924464155987N00128349EA0073600810
B0924474155996N00128362EA0073500810
B0924484156004N00128376EA0073600811
B0924494156011N00128391EA0073700812
B0924504156017N00128406EA0073600813
B0924514156023N00128421EA0073800813
B0924524156029N00128437EA0073900814
B0924534156035N00128453EA0073800815
B0924544156041N00128468EA0073900816
B0924554156047N00128484EA0074000817
B0924564156055N00128498EA0074000817
B0924574156063N00128513EA0074100818
B0924584156072N00128526EA0074100818
B0924594156081N00128539EA0074100818
B0925004156092N00128550EA0074000818
B0925014156102N00128562EA0074000818
B0925024156113N00128572EA0073900817
B0925034156124N00128582EA0073900817
B0925044156135N00128592EA0073800816
B0925054156146N00128602EA0073800816
B0925064156157N00128613EA0073800815
B0925074156168N00128624EA0073800815
B0925084156178N00128635EA0073900815
B0925094156187N00128648EA0073800815
B0925104156195N00128661EA0073800815
B0925114156203N00128675EA0073900815
B0925124156211N00128690EA0073800815
B0925134156218N00128704EA0073900816
B0925144156225N00128718EA0073900816
B0925154156233N00128733EA0073900817
B0925164156240N00128747EA0074100818
B0925174156248N00128762EA0074200819
B0925184156255N00128776EA0074200820
B0925194156263N00128790EA0074300821
B0925204156272N00128804EA0074400821
B0925214156281N00128816EA0074400822
B0925224156291N00128828EA0074300822
B0925234156302N00128839EA0074300822
B0925244156313N00128849EA0074300822
B0925254156324N00128860EA0074200821
B0925264156335N00128870EA0074200821
B0925274156346N00128880EA0074200821
B0925284156357N00128890EA0074300820
B0925294156369N00128899EA0074100820
B0925304156380N00128909EA0073900820
B0925314156391N00128919EA0074100820
B0925324156401N00128929EA0074000820
B0925334156412N00128939EA0074200820
B0925344156423N00128949EA0074100819
B0925354156434N00128959EA0074100819
B0925364156444N00128971EA0074000819
B0925374156454N00128983EA0074100819
B0925384156463N00128995EA0074000819
B0925394156471N00129009EA0074000819
B0925404156480N00129022EA0074200819
B0925414156488N00129036EA0074300819
B0925424156496N00129050EA0074300819
B0925434156504N00129064EA0074200819
B0925444156513N00129078EA0074200819
B0925454156521N00129092EA0074200819
B0925464156529N00129105EA0074300819
B0925474156537N00129119EA0074200819
B0925484156546N00129133EA0074200819
B0925494156554N00129147EA0074200819
B0925504156562N00129160EA0074200820
B0925514156570N00129174EA0074300820
B0925524156578N00129187EA0074200820
B0925534156586N00129200EA0074300820
B0925544156593N00129213EA0074200820
B0925554156601N00129225EA0074200820
B0925564156608N00129237EA0074300821
B0925574156615N00129249EA0074200821
B0925584156622N00129260EA0074300821
B0925594156628N00129271EA0074200822
B0926004156635N00129283EA0074400822
B0926014156642N00129294EA0074400823
B0926024156649N00129305EA0074400823
B0926034156656N00129316EA0074500823
B0926044156664N00129327EA0074500824
B0926054156672N00129337EA0074500824
B0926064156680N00129346EA0074500824
B0926074156688N00129355EA0074600824
B0926084156696N00129362EA0074600824
B0926094156704N00129369EA0074500824
B0926104156712N00129376EA0074600824
B0926114156720N00129382EA0074500824
B0926124156729N00129389EA0074600824
B0926134156739N00129396EA0074600824
B0926144156748N00129404EA0074600823
B0926154156757N00129411EA0074600823
B0926164156767N00129419EA0074600823
B0926174156776N00129427EA0074500823
B0926184156785N00129434EA0074400822
B0926194156793N00129442EA0074300822
B0926204156801N00129449EA0074400822
B0926214156809N00129456EA0074300821
B0926224156816N00129464EA0074300821
B0926234156823N00129473EA0074400821
B0926244156831N00129482EA0074300820
B0926254156838N00129493EA0074300820
B0926264156845N00129505EA0074300820
B0926274156852N00129516EA0074300821
B0926284156859N00129528EA0074400821
B0926294156867N00129539EA0074400821
B0926304156876N00129550EA0074400821
B0926314156884N00129560EA0074400821
B0926324156893N00129571EA0074300821
B0926334156903N00129581EA0074300821
B0926344156912N00129590EA0074300821
B0926354156922N00129599EA0074200820
B0926364156933N00129608EA0074200820
B0926374156943N00129617EA0074200820
B0926384156954N00129624EA0074200819
B0926394156966N00129631EA0074200819
B0926404156977N00129638EA0074100819
B0926414156989N00129644EA0074200818
B0926424157000N00129650EA0074100818
B0926434157012N00129655EA0074000818
B0926444157024N00129661EA0074000817
B0926454157035N00129666EA0074000817
B0926464157047N00129672EA0073800817
B0926474157058N00129677EA0073800816
B0926484157069N00129682EA0073700815
B0926494157081N00129687EA0073600815
B0926504157093N00129691EA0073400813
B0926514157104N00129695EA0073400812
B0926524157116N00129697EA0073400811
B0926534157128N00129697EA0073100809
B0926544157141N00129697EA0073100808
B0926554157153N00129696EA0073000806
B0926564157165N00129694EA0072800805
B0926574157177N00129691EA0072700803
B0926584157189N00129687EA0072600802
B0926594157201N00129682EA0072400801
B0927004157213N00129676EA0072200799
B0927014157225N00129671EA0072100798
B0927024157237N00129666EA0072000797
B0927034157249N00129661EA0071900795
B0927044157261N00129656EA0071900794
B0927054157274N00129652EA0071600793
B0927064157286N00129648EA0071400791
B0927074157299N00129645EA0071500790
B0927084157312N00129644EA0071300788
B0927094157325N00129644EA0071100786
B0927104157339N00129645EA0070900785
B0927114157352N00129647EA0070700783
B0927124157365N00129651EA0070700781
B0927134157378N00129657EA0070400780
B0927144157390N00129663EA0070400778
B0927154157402N00129671EA0070200776
B0927164157414N00129680EA0070200775
B0927174157426N00129690EA0070000774
B0927184157437N00129700EA0070000772
B0927194157447N00129712EA0069800770
B0927204157458N00129724EA0069600769
B0927214157468N00129737EA0069500768
B0927224157477N00129750EA0069300766
B0927234157486N00129764EA0069300765
B0927244157495N00129778EA0069000763
B0927254157504N00129792EA0069000761
B0927264157512N00129807EA0068600760
B0927274157521N00129822EA0068600758
B0927284157529N00129838EA0068300757
B0927294157537N00129853EA0068400755
B0927304157545N00129868EA0068100754
B0927314157554N00129883EA0068000752
B0927324157563N00129898EA0067900751
B0927334157573N00129912EA0067700749
B0927344157583N00129926EA0067600748
B0927354157593N00129939EA0067500746
B0927364157604N00129952EA0067300745
B0927374157615N00129964EA0067200744
B0927384157626N00129975EA0067100742
B0927394157638N00129986EA0067100741
B0927404157650N00129996EA0067000740
B0927414157662N00130007EA0066800739
B0927424157674N00130017EA0066700738
B0927434157686N00130027EA0066700737
B0927444157698N00130037EA0066500737
B0927454157709N00130047EA0066300736
B0927464157720N00130058EA0066300735
B0927474157731N00130069EA0066200734
B0927484157741N00130081EA0066200733
B0927494157751N00130093EA0066100733
B0927504157760N00130105EA0066000732
B0927514157770N00130118EA0065800731
B0927524157778N00130131EA0065800730
B0927534157787N00130144EA0065700730
B0927544157795N00130157EA0065700729
B0927554157804N00130170EA0065500728
B0927564157812N00130183EA0065400728
B0927574157820N00130196EA0065400727
B0927584157828N00130210EA0065300726
B0927594157835N00130223EA0065300726
B0928004157843N00130236EA0065100725
B0928014157851N00130249EA0065000725
B0928024157858N00130261EA0065000724
B0928034157866N00130274EA0065000723
B0928044157874N00130287EA0064800723
B0928054157881N00130300EA0064600722
B0928064157889N00130312EA0064600721
B0928074157896N00130325EA0064500720
B0928084157904N00130338EA0064500719
B0928094157911N00130350EA0064400719
B0928104157918N00130363EA0064400718
B0928114157925N00130376EA0064400717
B0928124157931N00130389EA0064200716
B0928134157938N00130402EA0064200715
B0928144157944N00130415EA0064100714
B0928154157950N00130428EA0064100714
B0928164157956N00130442EA0064100713
B0928174157961N00130455EA0063900712
B0928184157967N00130469EA0063900712
B0928194157972N00130482EA0063800711
B0928204157977N00130496EA0063800711
B0928214157982N00130509EA0063700711
B0928224157987N00130522EA0063700711
B0928234157992N00130535EA0063700711
B0928244157997N00130549EA0063800711
B0928254158002N00130562EA0063800710
B0928264158007N00130576EA0063800710
B0928274158012N00130590EA0063800711
B0928284158018N00130604EA0063800711
B0928294158025N00130617EA0063900712
B0928304158031N00130630EA0064000712
B0928314158038N00130643EA0063900713
B0928324158045N00130655EA0064000713
B0928334158052N00130667EA0064200714
B0928344158060N00130679EA0064100714
B0928354158068N00130691EA0064200715
B0928364158076N00130703EA0064100715
B0928374158086N00130715EA0064300715
B0928384158095N00130726EA0064300715
B0928394158105N00130737EA0064400715
B0928404158116N00130748EA0064300715
B0928414158126N00130758EA0064100715
B0928424158137N00130767EA0064300715
B0928434158148N00130776EA0064100714
B0928444158159N00130785EA0064000714
B0928454158170N00130793EA0064100712
B0928464158182N00130801EA0063900711
B0928474158193N00130808EA0063800710
B0928484158205N00130815EA0063700709
B0928494158218N00130821EA0063500707
B0928504158230N00130826EA0063300706
B0928514158242N00130832EA0063100705
B0928524158255N00130836EA0063100704
B0928534158268N00130840EA0063000702
B0928544158280N00130843EA0062800701
B0928554158293N00130846EA0062800699
B0928564158306N00130850EA0062700698
B0928574158319N00130852EA0062600697
B0928584158332N00130855EA0062500696
B0928594158345N00130859EA0062300694
B0929004158358N00130863EA0062200693
B0929014158371N00130868EA0062200692
B0929024158384N00130873EA0062100691
B0929034158396N00130878EA0061900690
B0929044158408N00130884EA0061900689
B0929054158420N00130891EA0061800688
B0929064158432N00130898EA0061800687
B0929074158443N00130906EA0061700687
B0929084158455N00130914EA0061800686
B0929094158466N00130922EA0061600685
B0929104158476N00130931EA0061600684
B0929114158487N00130939EA0061600684
B0929124158498N00130948EA0061500683
B0929134158510N00130955EA0061500682
B0929144158521N00130962EA0061400682
B0929154158533N00130969EA0061300682
B0929164158545N00130974EA0061300682
B0929174158557N00130978EA0061300682
B0929184158569N00130982EA0061400682
B0929194158581N00130984EA0061200682
B0929204158593N00130986EA0061300683
B0929214158605N00130986EA0061400683
B0929224158617N00130986EA0061400684
B0929234158630N00130984EA0061600684
B0929244158642N00130982EA0061600685
B0929254158653N00130979EA0061700686
B0929264158665N00130975EA0061700687
B0929274158677N00130971EA0062000688
B0929284158689N00130966EA0062100689
B0929294158700N00130961EA0062100690
B0929304158711N00130956EA0062200690
B0929314158723N00130951EA0062100691
B0929324158734N00130947EA0062100691
B0929334158745N00130942EA0062200692
B0929344158756N00130937EA0062300692
B0929354158768N00130933EA0062400692
B0929364158779N00130928EA0062200692
B0929374158790N00130923EA0062100692
B0929384158801N00130918EA0062100691
B0929394158812N00130914EA0061900691
B0929404158822N00130909EA0061900690
B0929414158833N00130905EA0061800689
B0929424158844N00130900EA0061700688
B0929434158855N00130896EA0061600687
B0929444158866N00130891EA0061500687
B0929454158877N00130887EA0061400686
B0929464158887N00130882EA0061300685
B0929474158898N00130878EA0061100684
B0929484158909N00130873EA0060900683
B0929494158920N00130869EA0061000682
B0929504158930N00130865EA0060900681
B0929514158941N00130860EA0060700680
B0929524158951N00130856EA0060600679
B0929534158962N00130851EA0060400678
B0929544158973N00130846EA0060400677
B0929554158983N00130841EA0060300676
B0929564158994N00130836EA0060300675
B0929574159005N00130831EA0060200675
B0929584159015N00130825EA0060100674
B0929594159025N00130818EA0060100674
B0930004159035N00130811EA0060100673
B0930014159045N00130803EA0060000673
B0930024159054N00130795EA0060000673
B0930034159063N00130786EA0060100673
B0930044159072N00130776EA0060100673
B0930054159080N00130767EA0060100674
B0930064159089N00130758EA0060200675
B0930074159097N00130749EA0060200675
B0930084159106N00130740EA0060300676
B0930094159115N00130732EA0060400677
B0930104159124N00130723EA0060600678
B0930114159133N00130715EA0060700679
B0930124159142N00130708EA0060800680
B0930134159151N00130701EA0060600680
B0930144159160N00130695EA0060700681
B0930154159169N00130690EA0060900681
B0930164159178N00130686EA0060900682
B0930174159188N00130683EA0061100683
B0930184159197N00130680EA0061100684
B0930194159206N00130677EA0061300685
B0930204159215N00130675EA0061300686
B0930214159225N00130673EA0061400687
B0930224159234N00130672EA0061500688
B0930234159244N00130672EA0061500688
B0930244159253N00130672EA0061700689
B0930254159262N00130673EA0061600690
B0930264159270N00130673EA0061800690
B0930274159279N00130674EA0061900691
B0930284159288N00130675EA0062000692
B0930294159297N00130676EA0061900692
B0930304159305N00130677EA0062100693
B0930314159313N00130678EA0062000694
B0930324159321N00130679EA0062100695
B0930334159328N00130679EA0062200696
B0930344159335N00130680EA0062300696
B0930354159342N00130681EA0062200697
B0930364159348N00130682EA0062200697
B0930374159353N00130683EA0062200697
B0930384159357N00130684EA0062200698
B0930394159360N00130687EA0062300698
B0930404159362N00130690EA0062200698
B0930414159364N00130695EA0062300699
B0930424159366N00130700EA0062300699
B0930434159368N00130704EA0062200698
B0930444159371N00130708EA0062300698
B0930454159375N00130712EA0062300698
B0930464159379N00130714EA0062300698
B0930474159383N00130715EA0062300698
B0930484159388N00130714EA0062300698
B0930494159392N00130713EA0062400699
B0930504159396N00130710EA0062300699
B0930514159399N00130707EA0062300700
B0930524159402N00130702EA0062200699
B0930534159405N00130697EA0062100700
B0930544159408N00130693EA0062100699
B0930554159410N00130691EA0062100698
B0930564159414N00130689EA0062100698
B0930574159418N00130689EA0062100696
B0930584159422N00130690EA0062100695
B0930594159426N00130690EA0062000695
B0931004159431N00130691EA0061900694
B0931014159436N00130691EA0061900693
B0931024159440N00130692EA0061800693
B0931034159444N00130692EA0061800693
B0931044159448N00130693EA0061800693
B0931054159452N00130694EA0061800693
B0931064159456N00130695EA0061700693
B0931074159459N00130698EA0061600692
B0931084159462N00130700EA0061700692
B0931094159465N00130703EA0061600692
B0931104159467N00130706EA0061500692
B0931114159469N00130708EA0061600693
B0931124159471N00130710EA0061500693
B0931134159472N00130713EA0061400694
B0931144159473N00130716EA0061500694
B0931154159475N00130718EA0061500694
B0931164159477N00130720EA0061500693
B0931174159479N00130721EA0061400696
B0931184159481N00130721EA0061400696
B0931194159483N00130722EA0061300697
B0931204159485N00130724EA0061300697
B0931214159488N00130727EA0061300696
B0931224159490N00130729EA0061300695
B0931234159493N00130732EA0061300695
B0931244159495N00130735EA0061200694
B0931254159498N00130738EA0061200693
B0931264159500N00130741EA0061200692
B0931274159503N00130744EA0061100691
B0931284159505N00130747EA0061000691
B0931294159507N00130750EA0061100690
B0931304159510N00130753EA0061000690
B0931314159512N00130755EA0061000690
B0931324159513N00130757EA0061000689
B0931334159515N00130758EA0061000690
B0931344159517N00130760EA0061000690
B0931354159518N00130762EA0061000690
B0931364159519N00130764EA0061000689
B0931374159521N00130766EA0060900690
B0931384159523N00130768EA0060900690
B0931394159525N00130770EA0060900690
B0931404159527N00130772EA0060900690
B0931414159530N00130775EA0060900690
B0931424159532N00130778EA0060900690
B0931434159535N00130781EA0060800690
B0931444159538N00130784EA0060800690
B0931454159541N00130787EA0060700690
B0931464159543N00130790EA0060800690
B0931474159545N00130793EA0060700690
B0931484159548N00130796EA0060800691
B0931494159550N00130799EA0060800691
B0931504159553N00130801EA0060700692
B0931514159556N00130804EA0060700693
B0931524159558N00130807EA0060800694
B0931534159561N00130810EA0060800694
B0931544159563N00130814EA0060700695
B0931554159566N00130817EA0060800695
B0931564159570N00130820EA0060700697
B0931574159572N00130824EA0060700695
B0931584159575N00130827EA0060700695
B0931594159578N00130830EA0060800695
B0932004159581N00130834EA0060700695
B0932014159584N00130837EA0060700695
B0932024159587N00130840EA0060800695
B0932034159589N00130843EA0060800695
B0932044159591N00130845EA0060900694
B0932054159593N00130848EA0060700694
B0932064159594N00130852EA0060800694
B0932074159596N00130856EA0060900694
B0932084159597N00130859EA0060900693
B0932094159597N00130863EA0060800696
B0932104159597N00130867EA0060900695
B0932114159596N00130871EA0060900696
B0932124159596N00130876EA0060900694
B0932134159596N00130881EA0060800694
B0932144159596N00130886EA0060900694
B0932154159596N00130891EA0060800694
B0932164159596N00130895EA0060700693
B0932174159596N00130900EA0060800694
B0932184159597N00130904EA0060700693
B0932194159597N00130908EA0060700694
B0932204159597N00130912EA0060600694
B0932214159596N00130915EA0060700693
B0932224159596N00130917EA0060700692
B0932234159596N00130919EA0060700692
B0932244159596N00130920EA0060700692
B0932254159595N00130921EA0060700692
B0932264159595N00130923EA0060800692
B0932274159593N00130925EA0060600692
B0932284159592N00130927EA0060600692
B0932294159592N00130929EA0060600691
B0932304159592N00130932EA0060700692
B0932314159593N00130935EA0060500691
B0932324159595N00130937EA0060500692
B0932334159596N00130939EA0060500691
B0932344159597N00130941EA0060500690
B0932354159598N00130944EA0060500690
B0932364159599N00130946EA0060500690
B0932374159599N00130949EA0060500689
B0932384159599N00130952EA0060500690
B0932394159599N00130954EA0060500690
B0932404159599N00130956EA0060500689
B0932414159599N00130957EA0060400689
B0932424159599N00130957EA0060500689
B0932434159599N00130958EA0060500689
B0932444159599N00130958EA0060500689
B0932454159599N00130958EA0060500689
B0932464159599N00130958EA0060400689
B0932474159599N00130958EA0060500689
B0932484159599N00130958EA0060400689
B0932494159599N00130958EA0060400689
B0932504159599N00130958EA0060400689
B0932514159599N00130959EA0060500689
B0932524159599N00130959EA0060400689
B0932534159599N00130960EA0060400689
B0932544159599N00130962EA0060400689
B0932554159600N00130963EA0060400689
B0932564159600N00130965EA0060400689
B0932574159601N00130967EA0060300689
B0932584159602N00130970EA0060400690
B0932594159602N00130972EA0060300690
B0933004159603N00130974EA0060400691
B0933014159604N00130976EA0060300691
B0933024159605N00130977EA0060400691
B0933034159606N00130979EA0060300692
B0933044159606N00130980EA0060300692
B0933054159606N00130981EA0060300692
B0933064159607N00130982EA0060300691
B0933074159607N00130983EA0060300691
B0933084159607N00130984EA0060300693
B0933094159608N00130985EA0060300693
B0933104159608N00130987EA0060300694
B0933114159609N00130989EA0060300694
B0933124159609N00130991EA0060300695
B0933134159610N00130994EA0060200694
B0933144159610N00130997EA0060200694
B0933154159611N00131000EA0060300691
B0933164159611N00131004EA0060300690
B0933174159613N00131007EA0060300688
B0933184159613N00131010EA0060200688
B0933194159614N00131013EA0060100688
B0933204159614N00131016EA0060200687
B0933214159615N00131019EA0060100686
B0933224159615N00131023EA0060200686
B0933234159616N00131026EA0060100684
B0933244159616N00131031EA0060100684
B0933254159616N00131035EA0060000685
B0933264159616N00131040EA0060100686
B0933274159616N00131045EA0060000687
B0933284159617N00131051EA0060100688
B0933294159617N00131056EA0060100689
B0933304159617N00131061EA0059900690
B0933314159617N00131065EA0060000691
B0933324159617N00131069EA0059900690
B0933334159617N00131072EA0059900690
B0933344159617N00131075EA0059900690
B0933354159617N00131077EA0059900689
B0933364159617N00131078EA0059900689
B0933374159617N00131080EA0059800689
B0933384159617N00131081EA0059800689
B0933394159617N00131082EA0059700689
B0933404159617N00131082EA0059800689
B0933414159618N00131083EA0059900689
B0933424159618N00131083EA0059900690
B0933434159618N00131084EA0059900690
B0933444159618N00131084EA0059900691
B0933454159618N00131084EA0059800692
B0933464159618N00131085EA0060000692
B0933474159617N00131086EA0059900691
B0933484159617N00131087EA0059900692
B0933494159617N00131088EA0059900692
B0933504159617N00131090EA0059900692
B0933514159616N00131093EA0059800693
B0933524159617N00131096EA0059800694
B0933534159616N00131098EA0059800695
B0933544159616N00131102EA0059900695
B0933554159616N00131106EA0059800694
B0933564159615N00131109EA0059700695
B0933574159614N00131112EA0059900697
B0933584159614N00131115EA0059800698
B0933594159615N00131119EA0059800697
B0934004159615N00131122EA0059600697
B0934014159616N00131126EA0059600696
B0934024159616N00131130EA0059600695
B0934034159617N00131134EA0059600691
B0934044159618N00131139EA0059600690
B0934054159619N00131144EA0059700688
B0934064159620N00131150EA0059600685
B0934074159621N00131156EA0059600685
B0934084159623N00131162EA0059500684
B0934094159625N00131168EA0059500683
B0934104159627N00131175EA0059400682
B0934114159628N00131181EA0059400681
B0934124159630N00131187EA0059400678
B0934134159633N00131191EA0059500677
B0934144159636N00131194EA0059400676
B0934154159639N00131196EA0059400675
B0934164159643N00131197EA0059400675
B0934174159646N00131197EA0059400674
B0934184159649N00131196EA0059400674
B0934194159652N00131196EA0059400673
B0934204159654N00131196EA0059500672
B0934214159655N00131197EA0059300671
B0934224159656N00131198EA0059300671
B0934234159656N00131200EA0059300671
B0934244159657N00131203EA0059400670
B0934254159657N00131205EA0059200669
B0934264159657N00131207EA0059200668
B0934274159658N00131209EA0059300669
B0934284159658N00131211EA0059200669
B0934294159659N00131213EA0059300669
B0934304159659N00131216EA0059200669
B0934314159660N00131217EA0059300669
B0934324159661N00131218EA0059200669
B0934334159662N00131219EA0059200669
B0934344159663N00131220EA0059300669
B0934354159664N00131219EA0059300669
B0934364159666N00131219EA0059300669
B0934374159667N00131218EA0059300669
B0934384159669N00131218EA0059300669
B0934394159671N00131217EA0059200668
B0934404159672N00131216EA0059400668
B0934414159674N00131215EA0059300668
B0934424159675N00131214EA0059300668
B0934434159675N00131213EA0059400668
B0934444159675N00131211EA0059400668
B0934454159675N00131210EA0059300668
B0934464159674N00131209EA0059300668
B0934474159673N00131208EA0059200669
B0934484159672N00131208EA0059400669
B0934494159670N00131209EA0059300669
B0934504159669N00131209EA0059300669
B0934514159668N00131209EA0059300669
B0934524159666N00131209EA0059300669
B0934534159665N00131210EA0059400668
B0934544159663N00131210EA0059300668
B0934554159661N00131210EA0059200668
B0934564159660N00131210EA0059300668
B0934574159659N00131210EA0059300667
B0934584159657N00131209EA0059300667
B0934594159656N00131208EA0059400667
B0935004159656N00131207EA0059400668
B0935014159656N00131205EA0059300667
B0935024159656N00131204EA0059400667
B0935034159657N00131203EA0059400668
B0935044159659N00131201EA0059400667
B0935054159661N00131200EA0059300667
B0935064159664N00131200EA0059400667
B0935074159667N00131199EA0059300667
B0935084159669N00131199EA0059300668
B0935094159671N00131199EA0059300668
B0935104159672N00131198EA0059300668
B0935114159673N00131198EA0059300668
B0935124159675N00131198EA0059500668
B0935134159677N00131198EA0059300668
B0935144159680N00131198EA0059400668
B0935154159681N00131198EA0059300668
B0935164159682N00131198EA0059300668
B0935174159683N00131198EA0059300668
B0935184159684N00131198EA0059300668
B0935194159685N00131199EA0059300669
B0935204159688N00131201EA0059300669
B0935214159690N00131202EA0059300669
B0935224159692N00131203EA0059200669
B0935234159695N00131203EA0059300669
B0935244159697N00131202EA0059300669
B0935254159700N00131200EA0059200669
B0935264159702N00131198EA0059300669
B0935274159704N00131196EA0059300669
B0935284159706N00131194EA0059200669
B0935294159709N00131192EA0059200668
B0935304159712N00131190EA0059200668
B0935314159715N00131189EA0059200668
B0935324159718N00131187EA0059300668
B0935334159722N00131185EA0059300668
B0935344159726N00131183EA0059300668
B0935354159729N00131182EA0059200667
B0935364159733N00131180EA0059100667
B0935374159736N00131178EA0059300667
B0935384159739N00131177EA0059300666
B0935394159742N00131176EA0059200666
B0935404159744N00131175EA0059200666
B0935414159746N00131174EA0059100666
B0935424159748N00131173EA0059200666
B0935434159749N00131172EA0059200665
B0935444159749N00131172EA0059200664
B0935454159750N00131172EA0059100664
B0935464159750N00131172EA0059100664
B0935474159750N00131172EA0059000663
B0935484159750N00131172EA0059100663
B0935494159750N00131172EA0059100662
B0935504159750N00131172EA0059000662
B0935514159750N00131172EA0059100661
B0935524159750N00131172EA0059000661
B0935534159750N00131172EA0059100660
B0935544159750N00131171EA0059200660
B0935554159750N00131171EA0059100660
B0935564159751N00131171EA0059100660
B0935574159752N00131171EA0059100660
B0935584159753N00131170EA0059200659
B0935594159754N00131170EA0059000659
B0936004159756N00131169EA0059200659
B0936014159758N00131168EA0059200659
B0936024159760N00131166EA0059200658
B0936034159762N00131164EA0059200658
B0936044159763N00131162EA0059100659
B0936054159766N00131159EA0059200658
B0936064159768N00131156EA0059200659
B0936074159770N00131153EA0059200659
B0936084159771N00131149EA0059200659
B0936094159773N00131146EA0059100660
B0936104159774N00131142EA0059100660
B0936114159775N00131140EA0059100660
B0936124159776N00131138EA0059100661
B0936134159777N00131135EA0059200661
B0936144159778N00131131EA0059200662
B0936154159780N00131127EA0059200662
B0936164159780N00131122EA0059200663
B0936174159781N00131117EA0059200664
B0936184159782N00131113EA0059200664
B0936194159782N00131110EA0059300664
B0936204159782N00131107EA0059200665
B0936214159783N00131104EA0059200665
B0936224159783N00131103EA0059200666
B0936234159783N00131103EA0059300666
B0936244159783N00131103EA0059200667
B0936254159784N00131103EA0059300668
B0936264159784N00131103EA0059200669
B0936274159784N00131103EA0059200670
B0936284159784N00131103EA0059200671
B0936294159784N00131103EA0059200672
B0936304159784N00131104EA0059200673
B0936314159784N00131104EA0059200674
B0936324159785N00131104EA0059300675
B0936334159785N00131104EA0059300675
B0936344159785N00131104EA0059300676
B0936354159785N00131104EA0059200676
B0936364159785N00131104EA0059300677
B0936374159785N00131104EA0059300677
B0936384159785N00131104EA0059200678
B0936394159785N00131104EA0059300678
B0936404159785N00131104EA0059200678
B0936414159785N00131104EA0059300679
B0936424159785N00131104EA0059300679
B0936434159785N00131104EA0059200679
B0936444159785N00131103EA0059200679
B0936454159786N00131102EA0059300679
B0936464159786N00131102EA0059200679
B0936474159787N00131101EA0059300678
B0936484159787N00131100EA0059200677
B0936494159787N00131098EA0059300677
B0936504159787N00131097EA0059300676
B0936514159788N00131095EA0059300677
B0936524159788N00131093EA0059400676
B0936534159788N00131091EA0059300677
B0936544159788N00131090EA0059300676
B0936554159788N00131089EA0059300676
B0936564159787N00131089EA0059300676
B0936574159787N00131090EA0059300675
B0936584159787N00131090EA0059300675
B0936594159787N00131090EA0059300675
B0937004159787N00131090EA0059400675
B0937014159786N00131090EA0059300675
B0937024159786N00131090EA0059200676
B0937034159786N00131090EA0059200676
B0937044159785N00131090EA0059200676
B0937054159785N00131090EA0059300677
B0937064159785N00131090EA0059300677
B0937074159785N00131090EA0059300677
B0937084159785N00131090EA0059300677
B0937094159785N00131090EA0059300677
B0937104159785N00131090EA0059400677
Gh0G9zn3dOg5kWS5jcsmsjLOHmns2LBTa4MHsRFff8HVJfrv1QlRWBTPtelyMalfvjMj6AzHnX9r
G9sLGHNN6QVy/6unFYo3W06eP71TgfQypA+LDQkjzIzsrYv7G+5oiDjxCAx35MfKVyAM/qB3nT1D
G4ID+T7pIKVGFbzEDbxWRA=
