AXSFwn
HFDTEDATE:070826
HFPLTPILOTINCHARGE:Ignacio Luzuriaga
HFCM2CREW2:NIL
HFGTYGLIDERTYPE: Niviuk Artik R2
HFGIDGLIDERID:NIL
HFDTMGPSDATUM:WGS84
HFRFWFIRMWAREVERSION:EU_2.00V
HFRHWHARDWAREVERSION:4.5
HFFTYFRTYPE:alfapilot,Voolaris Tracker
HFGPSRECEIVER:UBLOX,M10,72,50000,GPS,GLO,GAL
HFPRSPRESSALTSENSOR:ST,LPS22HB,10000
HFALGALTGPS:GEO
HFALPALTPRESSURE:ISA
HFTZNTIMEZONE:0
B1654560000000N00000000EV0008900000
B1654570000000N00000000EV0008800000
B1654580000000N00000000EV0008900000
B1654590000000N00000000EV0008900000
B1655000000000N00000000EV0008800000
B1655010000000N00000000EV0008800000
B1655020000000N00000000EV0008900000
B1655030000000N00000000EV0008800000
B1655040000000N00000000EV0008900000
B1655050000000N00000000EV0008800000
B1655060000000N00000000EV0008800000
B1655070000000N00000000EV0008700000
B1655080000000N00000000EV0008700000
B1655090000000N00000000EV0008700000
B1655104123202N00206307EA0008700294
B1655114123173N00206292EA0008700176
B1655124123167N00206281EA0008800176
B1655134123156N00206275EA0008800186
B1655144123148N00206265EA0008700194
B1655154123152N00206242EA0008900159
B1655164123146N00206230EA0008900155
B1655174123139N00206222EA0008900155
B1655180000000N00000000EV0009000000
B1655190000000N00000000EV0008900000
B1655200000000N00000000EV0008900000
B1655214123110N00206185EA0009000150
B1655224123096N00206194EA0008800132
B1655234123084N00206203EA0008900115
B1655244123072N00206205EA0009000113
B1655254123062N00206201EA0008900115
B1655264123053N00206196EA0008900115
B1655274123043N00206193EA0009000118
B1655284123035N00206188EA0009100119
B1655294123027N00206181EA0009100119
B1655304123021N00206173EA0009100120
B1655314123014N00206164EA0009200121
B1655324123009N00206154EA0009300122
B1655334123005N00206143EA0009300122
B1655344123003N00206131EA0009300122
B1655354123000N00206120EA0009300123
B1655364122998N00206108EA0009400122
B1655374122995N00206097EA0009400122
B1655384122992N00206086EA0009400121
B1655394122987N00206076EA0009300121
B1655404122982N00206067EA0009300120
B1655414122975N00206060EA0009400119
B1655424122967N00206054EA0009200120
B1655434122958N00206050EA0009300120
B1655444122949N00206048EA0009300120
B1655454122939N00206045EA0009300119
B1655464122930N00206042EA0009300119
B1655474122922N00206036EA0009200119
B1655484122914N00206029EA0009300119
B1655494122908N00206020EA0009200118
B1655504122902N00206009EA0009200118
B1655514122897N00205998EA0009200117
B1655524122893N00205985EA0009200117
B1655534122889N00205972EA0009300117
B1655544122885N00205959EA0009300117
B1655554122882N00205945EA0009300117
B1655564122878N00205931EA0009300117
B1655574122874N00205916EA0009500117
B1655584122871N00205902EA0009400117
B1655594122868N00205888EA0009300117
B1656004122865N00205874EA0009300116
B1656014122862N00205859EA0009300116
B1656024122860N00205845EA0009300117
B1656034122857N00205831EA0009400117
B1656044122856N00205816EA0009400118
B1656054122854N00205802EA0009400118
B1656064122853N00205787EA0009400118
B1656074122853N00205772EA0009300119
B1656084122852N00205758EA0009400119
B1656094122852N00205743EA0009400120
B1656104122852N00205728EA0009600120
B1656114122852N00205713EA0009600121
B1656124122853N00205698EA0009600121
B1656134122854N00205683EA0009500121
B1656144122855N00205668EA0009600121
B1656154122856N00205652EA0009700121
B1656164122858N00205636EA0009700122
B1656174122860N00205619EA0009700122
B1656184122863N00205602EA0009800122
B1656194122866N00205585EA0009700122
B1656204122868N00205568EA0009900122
B1656214122871N00205550EA0009800122
B1656224122874N00205533EA0009700122
B1656234122877N00205515EA0009800122
B1656244122879N00205498EA0009800122
B1656254122882N00205480EA0009800122
B1656264122884N00205463EA0009900122
B1656274122887N00205446EA0009900122
B1656284122888N00205428EA0009900122
B1656294122890N00205411EA0010000122
B1656304122890N00205394EA0009900122
B1656314122890N00205377EA0009900122
B1656324122890N00205360EA0010000122
B1656334122889N00205343EA0010000122
B1656344122887N00205327EA0009900122
B1656354122885N00205311EA0009800122
B1656364122882N00205295EA0009900122
B1656374122879N00205280EA0009900122
B1656384122875N00205264EA0009800122
B1656394122871N00205250EA0009900122
B1656404122867N00205235EA0009900122
B1656414122862N00205221EA0009900122
B1656424122856N00205207EA0009900122
B1656434122850N00205194EA0009800122
B1656444122844N00205180EA0009800121
B1656454122837N00205168EA0009800121
B1656464122830N00205155EA0009700121
B1656474122822N00205143EA0009800120
B1656484122814N00205131EA0009800120
B1656494122806N00205120EA0009700120
B1656504122797N00205109EA0009700119
B1656514122788N00205098EA0009700119
B1656524122779N00205087EA0009600119
B1656534122770N00205077EA0009600118
B1656544122760N00205068EA0009600118
B1656554122751N00205058EA0009400118
B1656564122741N00205049EA0009400117
B1656574122731N00205040EA0009200116
B1656584122722N00205030EA0009300116
B1656594122712N00205020EA0009300115
B1657004122703N00205010EA0009000114
B1657014122694N00204999EA0009100114
B1657024122686N00204988EA0009000114
B1657034122677N00204976EA0009000113
B1657044122670N00204964EA0008900112
B1657054122662N00204952EA0008800111
B1657064122655N00204939EA0008700111
B1657074122648N00204926EA0008700109
B1657084122642N00204912EA0008600109
B1657094122637N00204898EA0008500108
B1657104122632N00204884EA0008300107
B1657114122627N00204869EA0008400107
B1657124122623N00204855EA0008300106
B1657134122619N00204839EA0008100106
B1657144122616N00204824EA0008200105
B1657154122614N00204809EA0008100104
B1657164122612N00204793EA0008000103
B1657174122610N00204777EA0007900102
B1657184122608N00204761EA0007900102
B1657194122607N00204746EA0007700101
B1657204122605N00204730EA0007600101
B1657214122604N00204714EA0007600100
B1657224122602N00204699EA0007500100
B1657234122601N00204683EA0007500100
B1657244122600N00204667EA0007400099
B1657254122598N00204651EA0007300099
B1657264122597N00204635EA0007400098
B1657274122595N00204619EA0007300098
B1657284122594N00204604EA0007200097
B1657294122592N00204588EA0007200096
B1657304122591N00204572EA0007100096
B1657314122589N00204556EA0006900095
B1657324122588N00204541EA0007100095
B1657334122586N00204525EA0007100094
B1657344122585N00204509EA0006900093
B1657354122584N00204494EA0006800092
B1657364122582N00204478EA0006700092
B1657374122581N00204462EA0006600091
B1657384122579N00204446EA0006600090
B1657394122578N00204430EA0006500090
B1657404122577N00204415EA0006500089
B1657414122575N00204399EA0006400088
B1657424122574N00204383EA0006400087
B1657434122572N00204367EA0006300087
B1657444122571N00204352EA0006100086
B1657454122569N00204336EA0006100086
B1657464122568N00204320EA0006100085
B1657474122566N00204304EA0006100084
B1657484122565N00204289EA0006100083
B1657494122563N00204273EA0005800082
B1657504122562N00204257EA0005900082
B1657514122560N00204242EA0005800081
B1657524122559N00204226EA0005800080
B1657534122558N00204210EA0005600079
B1657544122556N00204194EA0005700079
B1657554122555N00204179EA0005600078
B1657564122553N00204163EA0005500078
B1657574122552N00204147EA0005400077
B1657584122550N00204131EA0005400077
B1657594122549N00204116EA0005300076
B1658004122547N00204100EA0005400076
B1658014122546N00204084EA0005200075
B1658024122544N00204068EA0005300074
B1658034122543N00204053EA0005000074
B1658044122542N00204037EA0004900073
B1658054122540N00204021EA0004900072
B1658064122539N00204005EA0004800072
B1658074122537N00203990EA0004800071
B1658084122536N00203974EA0004800071
B1658094122534N00203958EA0004800070
B1658104122533N00203942EA0004700069
B1658114122532N00203926EA0004500069
B1658124122530N00203911EA0004500068
B1658134122529N00203895EA0004600067
B1658144122527N00203879EA0004300066
B1658154122526N00203864EA0004300066
B1658164122524N00203848EA0004200065
B1658174122523N00203833EA0004000064
B1658184122522N00203818EA0004000063
B1658194122520N00203802EA0004000063
B1658204122519N00203787EA0004000062
B1658214122517N00203772EA0003900061
B1658224122516N00203756EA0003800060
B1658234122514N00203741EA0003700060
B1658244122513N00203726EA0003800059
B1658254122511N00203711EA0003700058
B1658264122509N00203695EA0003700057
B1658274122507N00203680EA0003600056
B1658284122505N00203665EA0003500056
B1658294122502N00203649EA0003500055
B1658304122500N00203634EA0003500054
B1658314122497N00203619EA0003400053
B1658324122494N00203604EA0003300052
B1658334122492N00203588EA0003300052
B1658344122488N00203573EA0003200051
B1658354122485N00203558EA0003200050
B1658364122482N00203543EA0003100049
B1658374122478N00203528EA0003000049
B1658384122475N00203513EA0002900048
B1658394122471N00203498EA0002900047
B1658404122467N00203484EA0002800047
B1658414122463N00203469EA0002700046
B1658424122459N00203454EA0002700046
B1658434122456N00203439EA0002700045
B1658444122452N00203424EA0002600044
B1658454122448N00203409EA0002500043
B1658464122445N00203394EA0002500042
B1658474122441N00203379EA0002400042
B1658484122437N00203364EA0002500041
B1658494122434N00203349EA0002400040
B1658504122430N00203334EA0002200040
B1658514122426N00203319EA0002200039
B1658524122423N00203305EA0002200038
B1658534122419N00203290EA0002100038
B1658544122415N00203275EA0002100036
B1658554122412N00203260EA0002000036
B1658564122408N00203245EA0002000035
B1658574122404N00203230EA0001900034
B1658584122401N00203215EA0001900033
B1658594122397N00203200EA0002000033
B1659004122394N00203185EA0001900032
B1659014122391N00203170EA0001800031
B1659024122388N00203155EA0001700031
B1659034122386N00203140EA0001700030
B1659044122383N00203124EA0001500029
B1659054122381N00203109EA0001600029
B1659064122379N00203093EA0001400028
B1659074122378N00203078EA0001400027
B1659084122376N00203062EA0001300027
B1659094122375N00203047EA0001200026
B1659104122374N00203031EA0001200025
B1659114122374N00203015EA0001200025
B1659124122374N00202999EA0001000025
B1659134122374N00202984EA0001000025
B1659144122374N00202968EA0001000025
B1659154122374N00202952EA0001000025
B1659164122374N00202937EA0000900025
B1659174122375N00202921EA0000800025
B1659184122375N00202905EA0000800025
B1659194122376N00202890EA0000700025
B1659204122376N00202874EA0000800025
B1659214122377N00202858EA0000800025
B1659224122378N00202843EA0000800025
B1659234122379N00202827EA0000800024
B1659244122379N00202811EA0000500024
B1659254122380N00202796EA0000600024
B1659264122381N00202780EA0000500023
B1659274122381N00202764EA0000600023
B1659284122382N00202749EA0000600023
B1659294122383N00202733EA0000700023
B1659304122383N00202717EA0000500023
B1659314122384N00202702EA0000500023
B1659324122385N00202686EA0000500022
B1659334122385N00202671EA0000500022
B1659344122386N00202655EA0000500022
B1659354122386N00202639EA0000600022
B1659364122387N00202624EA0000500022
B1659374122388N00202608EA0000400022
B1659384122388N00202593EA0000600022
B1659394122389N00202577EA0000500022
B1659404122389N00202562EA0000500022
B1659414122390N00202546EA0000500022
B1659424122390N00202530EA0000500022
B1659434122391N00202515EA0000300022
B1659444122392N00202499EA0000500022
B1659454122393N00202483EA0000400022
B1659464122393N00202468EA0000400022
B1659474122394N00202452EA0000400022
B1659484122396N00202436EA0000400022
B1659494122397N00202421EA0000400022
B1659504122400N00202405EA0000400022
B1659514122403N00202390EA0000400021
B1659524122407N00202375EA0000400022
B1659534122411N00202361EA0000400022
B1659544122417N00202348EA0000500023
B1659554122424N00202335EA0000600023
B1659564122431N00202323EA0000600024
B1659574122439N00202312EA0000800024
B1659584122448N00202302EA0000800025
B1659594122458N00202293EA0000800025
B1700004122468N00202285EA0000700025
B1700014122478N00202278EA0000800026
B1700024122489N00202271EA0000700025
B1700034122500N00202264EA0000800025
B1700044122511N00202256EA0000700025
B1700054122521N00202248EA0000700025
B1700064122531N00202239EA0000700024
B1700074122541N00202230EA0000700024
B1700084122550N00202220EA0000700023
B1700094122559N00202210EA0000700023
B1700104122568N00202200EA0000700023
B1700114122576N00202189EA0000700022
B1700124122585N00202177EA0000500022
B1700134122592N00202165EA0000600023
B1700144122600N00202153EA0000600023
B1700154122607N00202141EA0000700023
B1700164122614N00202128EA0000800024
B1700174122621N00202115EA0000700024
B1700184122628N00202102EA0000800025
B1700194122634N00202089EA0001000026
B1700204122640N00202075EA0001200027
B1700214122645N00202061EA0001200027
B1700224122649N00202047EA0001200028
B1700234122653N00202032EA0001400028
B1700244122657N00202016EA0001500029
B1700254122660N00202001EA0001500029
B1700264122662N00201985EA0001600030
B1700274122664N00201969EA0001500030
B1700284122665N00201953EA0001500030
B1700294122666N00201937EA0001500030
B1700304122666N00201921EA0001500029
B1700314122666N00201905EA0001500030
B1700324122666N00201889EA0001500030
B1700334122667N00201872EA0001500030
B1700344122667N00201856EA0001500030
B1700354122667N00201840EA0001400030
B1700364122667N00201823EA0001500030
B1700374122668N00201807EA0001600030
B1700384122668N00201791EA0001500030
B1700394122669N00201775EA0001500030
B1700404122669N00201758EA0001600030
B1700414122669N00201742EA0001600030
B1700424122670N00201726EA0001500030
B1700434122671N00201709EA0001600030
B1700444122672N00201693EA0001400030
B1700454122674N00201677EA0001400029
B1700464122677N00201661EA0001500029
B1700474122681N00201646EA0001500028
B1700484122686N00201631EA0001300027
B1700494122692N00201616EA0001300027
B1700504122699N00201602EA0001200025
B1700514122706N00201589EA0001200025
B1700524122715N00201577EA0001000024
B1700534122723N00201566EA0000900024
B1700544122733N00201555EA0000900023
B1700554122743N00201546EA0000800023
B1700564122753N00201536EA0000900022
B1700574122763N00201527EA0000900022
B1700584122774N00201517EA0001000022
B1700594122786N00201508EA0000900022
B1701004122797N00201499EA0001000022
B1701014122809N00201491EA0000800022
B1701024122821N00201483EA0001000022
B1701034122833N00201475EA0000900023
B1701044122845N00201467EA0000900023
B1701054122857N00201460EA0000900023
B1701064122870N00201453EA0001000023
B1701074122882N00201446EA0001000023
B1701084122895N00201439EA0000900023
B1701094122908N00201432EA0000900023
B1701104122921N00201426EA0000800023
B1701114122934N00201419EA0001000023
B1701124122947N00201413EA0000900023
B1701134122960N00201407EA0001000023
B1701144122973N00201400EA0000800023
B1701154122985N00201394EA0000900023
B1701164122998N00201387EA0000900023
B1701174123011N00201380EA0000800023
B1701184123023N00201373EA0000800023
B1701194123036N00201366EA0000900023
B1701204123049N00201359EA0000800023
B1701214123061N00201352EA0000800024
B1701224123074N00201344EA0000800024
B1701234123086N00201337EA0000900024
B1701244123099N00201330EA0000900024
B1701254123111N00201323EA0000900024
B1701264123124N00201315EA0000800024
B1701274123136N00201307EA0000700024
B1701284123148N00201300EA0001000024
B1701294123161N00201292EA0000800024
B1701304123173N00201284EA0000800024
B1701314123185N00201276EA0000900024
B1701324123197N00201268EA0000900023
B1701334123210N00201260EA0000900023
B1701344123222N00201252EA0000900023
B1701354123234N00201244EA0000900023
B1701364123247N00201236EA0000800023
B1701374123260N00201229EA0001000023
B1701384123272N00201221EA0001000023
B1701394123285N00201213EA0000900023
B1701404123298N00201206EA0001000023
B1701414123311N00201198EA0000900023
B1701424123324N00201190EA0000900023
B1701434123337N00201183EA0000800023
B1701444123350N00201176EA0000900024
B1701454123364N00201168EA0001000023
B1701464123377N00201161EA0000900023
B1701474123390N00201154EA0000900023
B1701484123403N00201147EA0001000023
B1701494123416N00201141EA0001000023
B1701504123429N00201134EA0001000023
B1701514123442N00201127EA0001000023
B1701524123456N00201120EA0001100023
B1701534123469N00201113EA0001000023
B1701544123482N00201107EA0001200023
B1701554123495N00201100EA0001100023
B1701564123508N00201094EA0001200023
B1701574123521N00201087EA0001200023
B1701584123535N00201081EA0001100023
B1701594123548N00201075EA0001100023
B1702004123561N00201069EA0001100023
B1702014123575N00201063EA0001000024
B1702024123588N00201057EA0001100024
B1702034123601N00201051EA0001000024
B1702044123615N00201045EA0001000024
B1702054123628N00201040EA0000900024
B1702064123642N00201034EA0001200024
B1702074123655N00201029EA0001100024
B1702084123669N00201023EA0001200024
B1702094123682N00201018EA0001100024
B1702104123696N00201012EA0001100025
B1702114123709N00201007EA0001200025
B1702124123723N00201002EA0001100025
B1702134123737N00200996EA0001200025
B1702144123750N00200991EA0001200025
B1702154123764N00200985EA0001200025
B1702164123777N00200980EA0001100025
B1702174123790N00200974EA0001200025
B1702184123804N00200968EA0001200025
B1702194123817N00200962EA0001200025
B1702204123831N00200956EA0001100025
B1702214123844N00200950EA0001200025
B1702224123857N00200944EA0001100025
B1702234123871N00200938EA0001200025
B1702244123884N00200931EA0001100025
B1702254123897N00200925EA0001200025
B1702264123910N00200919EA0001100025
B1702274123924N00200912EA0001200025
B1702284123937N00200906EA0001200025
B1702294123950N00200899EA0001200025
B1702304123963N00200893EA0001100025
B1702314123976N00200886EA0001100025
B1702324123989N00200879EA0001100026
B1702334124001N00200872EA0001100026
B1702344124013N00200866EA0001200026
B1702354124025N00200859EA0001100026
B1702364124037N00200853EA0001200026
B1702374124049N00200846EA0001100026
B1702384124060N00200840EA0001200025
B1702394124072N00200833EA0001000025
B1702404124083N00200827EA0001200026
B1702414124095N00200820EA0001200026
B1702424124106N00200813EA0001100026
B1702434124117N00200806EA0001000026
B1702444124129N00200800EA0001100026
B1702454124140N00200793EA0001100026
B1702464124152N00200786EA0001200026
B1702474124163N00200779EA0001100026
B1702484124174N00200772EA0001200026
B1702494124185N00200765EA0001200026
B1702504124197N00200758EA0001200026
B1702514124208N00200751EA0001200026
B1702524124219N00200744EA0001200026
B1702534124231N00200736EA0001300026
B1702544124243N00200729EA0001300026
B1702554124255N00200722EA0001300025
B1702564124267N00200716EA0001300025
B1702574124279N00200709EA0001200025
B1702584124292N00200701EA0001300025
B1702594124304N00200694EA0001200025
B1703004124316N00200687EA0001200025
B1703014124328N00200680EA0001200025
B1703024124339N00200674EA0001200025
B1703034124351N00200668EA0001200025
B1703044124363N00200661EA0001100025
B1703054124375N00200655EA0001200025
B1703064124387N00200649EA0001300025
B1703074124399N00200642EA0001200025
B1703084124412N00200636EA0001200025
B1703094124424N00200629EA0001200025
B1703104124437N00200623EA0001200025
B1703114124449N00200616EA0001300025
B1703124124462N00200609EA0001300025
B1703134124475N00200601EA0001200026
B1703144124488N00200593EA0001300025
B1703154124502N00200586EA0001200025
B1703164124515N00200578EA0001400026
B1703174124529N00200571EA0001300026
B1703184124542N00200564EA0001300026
B1703194124556N00200557EA0001300026
B1703204124569N00200550EA0001300027
B1703214124583N00200543EA0001400027
B1703224124597N00200536EA0001400027
B1703234124610N00200529EA0001500028
B1703244124624N00200522EA0001500028
B1703254124638N00200515EA0001500028
B1703264124651N00200508EA0001500029
B1703274124665N00200500EA0001600029
B1703284124679N00200492EA0001500030
B1703294124692N00200484EA0001700030
B1703304124705N00200476EA0001600030
B1703314124718N00200467EA0001600031
B1703324124732N00200458EA0001600031
B1703334124745N00200449EA0001800031
B1703344124757N00200439EA0001700031
B1703354124770N00200430EA0001700032
B1703364124783N00200420EA0001800032
B1703374124795N00200409EA0001700032
B1703384124808N00200399EA0001800032
B1703394124820N00200388EA0001800032
B1703404124833N00200378EA0001800033
B1703414124845N00200367EA0001800033
B1703424124857N00200357EA0001800033
B1703434124870N00200347EA0002000033
B1703444124883N00200337EA0001900034
B1703454124896N00200327EA0002000034
B1703464124909N00200318EA0002000034
B1703474124922N00200310EA0001900034
B1703484124935N00200302EA0001800034
B1703494124949N00200294EA0002000034
B1703504124962N00200287EA0002100034
B1703514124976N00200281EA0001900034
B1703524124990N00200275EA0002000034
B1703534125004N00200269EA0001900033
B1703544125019N00200264EA0001900033
B1703554125033N00200260EA0002000033
B1703564125048N00200256EA0002000033
B1703574125062N00200252EA0002000033
B1703584125076N00200248EA0001900033
B1703594125091N00200245EA0001900033
B1704004125105N00200241EA0002000033
B1704014125120N00200237EA0001900033
B1704024125134N00200232EA0002000033
B1704034125149N00200228EA0001900033
B1704044125164N00200223EA0001800033
B1704054125178N00200218EA0001900033
B1704064125193N00200213EA0001900033
B1704074125207N00200207EA0002000033
B1704084125222N00200201EA0002000033
B1704094125237N00200195EA0002100033
B1704104125253N00200189EA0001900033
B1704114125268N00200182EA0002100033
B1704124125284N00200176EA0002100033
B1704134125300N00200169EA0002100033
B1704144125316N00200162EA0002200034
B1704154125331N00200156EA0002200034
B1704164125347N00200149EA0002100034
B1704174125362N00200143EA0002100034
B1704184125378N00200136EA0002200034
B1704194125393N00200130EA0002300034
B1704204125409N00200123EA0002400034
B1704214125424N00200117EA0002200034
B1704224125440N00200111EA0002300034
B1704234125455N00200104EA0002200034
B1704244125470N00200098EA0002200035
B1704254125485N00200091EA0002300035
B1704264125501N00200084EA0002400035
B1704274125516N00200077EA0002300035
B1704284125531N00200069EA0002300035
B1704294125546N00200061EA0002200036
B1704304125561N00200052EA0002300036
B1704314125575N00200043EA0002300036
B1704324125589N00200033EA0002200036
B1704334125603N00200023EA0002200036
B1704344125616N00200012EA0002300036
B1704354125630N00200001EA0002300036
B1704364125642N00159990EA0002200036
B1704374125655N00159978EA0002200035
B1704384125667N00159966EA0002200035
B1704394125679N00159954EA0002300035
B1704404125690N00159942EA0002200035
B1704414125702N00159929EA0002100035
B1704424125714N00159917EA0002100034
B1704434125725N00159904EA0002100034
B1704444125737N00159892EA0002000034
B1704454125749N00159881EA0001900034
B1704464125761N00159869EA0002000033
B1704474125773N00159857EA0002000033
B1704484125785N00159846EA0002000033
B1704494125797N00159834EA0002000033
B1704504125809N00159823EA0002000033
B1704514125821N00159812EA0001900033
B1704524125834N00159801EA0002100033
B1704534125846N00159791EA0002000033
B1704544125859N00159781EA0002000033
B1704554125872N00159772EA0002000033
B1704564125885N00159762EA0001900033
B1704574125898N00159753EA0002000033
B1704584125911N00159744EA0002000033
B1704594125925N00159736EA0002000033
B1705004125938N00159727EA0002100033
B1705014125951N00159719EA0002200034
B1705024125965N00159710EA0002100034
B1705034125978N00159702EA0002100034
B1705044125992N00159694EA0002100034
B1705054126005N00159686EA0002100034
B1705064126019N00159677EA0002200034
B1705074126032N00159669EA0002100034
B1705084126046N00159660EA0002200035
B1705094126059N00159652EA0002200035
B1705104126072N00159644EA0002300035
B1705114126086N00159635EA0002300035
B1705124126099N00159627EA0002200035
B1705134126113N00159619EA0002300035
B1705144126126N00159610EA0002300035
B1705154126139N00159602EA0002300035
B1705164126153N00159593EA0002300036
B1705174126166N00159585EA0002400036
B1705184126179N00159576EA0002400036
B1705194126192N00159567EA0002500037
B1705204126205N00159558EA0002500037
B1705214126218N00159548EA0002500037
B1705224126231N00159537EA0002500037
B1705234126243N00159526EA0002700037
B1705244126256N00159515EA0002700037
B1705254126267N00159503EA0002700037
B1705264126279N00159491EA0002600037
B1705274126290N00159478EA0002600038
B1705284126301N00159465EA0002600038
B1705294126312N00159451EA0002700037
B1705304126323N00159437EA0002600037
B1705314126333N00159422EA0002500037
B1705324126343N00159407EA0002600037
B1705334126352N00159392EA0002400037
B1705344126361N00159376EA0002500037
B1705354126370N00159361EA0002500036
B1705364126379N00159345EA0002500036
B1705374126388N00159329EA0002500036
B1705384126397N00159314EA0002400036
B1705394126407N00159298EA0002400036
B1705404126416N00159282EA0002300036
B1705414126425N00159267EA0002200036
B1705424126434N00159252EA0002300036
B1705434126444N00159236EA0002300036
B1705444126453N00159221EA0002400036
B1705454126463N00159206EA0002300037
B1705464126472N00159191EA0002400037
B1705474126482N00159177EA0002300037
B1705484126492N00159162EA0002300037
B1705494126502N00159148EA0002400037
B1705504126513N00159134EA0002400037
B1705514126523N00159120EA0002300037
B1705524126534N00159106EA0002300037
B1705534126544N00159092EA0002200038
B1705544126555N00159078EA0002200038
B1705554126566N00159064EA0002300038
B1705564126576N00159051EA0002400038
B1705574126587N00159037EA0002400038
B1705584126598N00159023EA0002300039
B1705594126608N00159009EA0002300039
B1706004126619N00158996EA0002300039
B1706014126630N00158982EA0002400040
B1706024126640N00158968EA0002300040
B1706034126651N00158955EA0002200040
B1706044126662N00158941EA0002300040
B1706054126673N00158928EA0002400041
B1706064126683N00158914EA0002600041
B1706074126694N00158900EA0002500041
B1706084126705N00158887EA0002300041
B1706094126715N00158873EA0002300041
B1706104126726N00158859EA0002400042
B1706114126737N00158845EA0002500042
B1706124126747N00158832EA0002400042
B1706134126758N00158819EA0002500042
B1706144126770N00158806EA0002500042
B1706154126781N00158793EA0002500042
B1706164126792N00158780EA0002500042
B1706174126804N00158768EA0002500043
B1706184126816N00158756EA0002500042
B1706194126828N00158744EA0002500042
B1706204126840N00158733EA0002600042
B1706214126852N00158722EA0002500042
B1706224126865N00158711EA0002600042
B1706234126877N00158701EA0002500042
B1706244126890N00158691EA0002500042
B1706254126903N00158681EA0002500042
B1706264126916N00158671EA0002500041
B1706274126929N00158662EA0002500041
B1706284126942N00158653EA0002600041
B1706294126956N00158645EA0002400041
B1706304126969N00158636EA0002500041
B1706314126983N00158629EA0002500041
B1706324126997N00158621EA0002500041
B1706334127011N00158614EA0002500041
B1706344127025N00158607EA0002500040
B1706354127038N00158601EA0002700040
B1706364127052N00158594EA0002500040
B1706374127067N00158589EA0002500040
B1706384127081N00158583EA0002600040
B1706394127095N00158578EA0002500040
B1706404127110N00158574EA0002500040
B1706414127124N00158569EA0002700040
B1706424127139N00158565EA0002600040
B1706434127153N00158561EA0002600040
B1706444127168N00158558EA0002600040
B1706454127183N00158555EA0002500040
B1706464127197N00158553EA0002600039
B1706474127212N00158551EA0002600039
B1706484127227N00158549EA0002700039
B1706494127242N00158547EA0002700039
B1706504127256N00158545EA0002700039
B1706514127271N00158544EA0002800039
B1706524127286N00158542EA0002700040
B1706534127301N00158541EA0002800040
B1706544127316N00158539EA0002800040
B1706554127330N00158538EA0002900040
B1706564127345N00158535EA0002900040
B1706574127360N00158533EA0002800040
B1706584127375N00158530EA0002900040
B1706594127389N00158527EA0002900040
B1707004127404N00158524EA0002900041
B1707014127419N00158521EA0002900041
B1707024127433N00158517EA0002900041
B1707034127448N00158513EA0002800041
B1707044127462N00158508EA0002900041
B1707054127477N00158504EA0002900042
B1707064127491N00158499EA0002900042
B1707074127505N00158494EA0002700042
B1707084127520N00158488EA0003200042
B1707094127534N00158482EA0003000042
B1707104127548N00158476EA0002900042
B1707114127562N00158470EA0002900042
B1707124127576N00158463EA0002900042
B1707134127590N00158456EA0002800042
B1707144127604N00158449EA0003100042
B1707154127618N00158441EA0003000042
B1707164127632N00158433EA0003100042
B1707174127645N00158426EA0002900042
B1707184127659N00158418EA0002900042
B1707194127672N00158409EA0003000042
B1707204127686N00158401EA0003000042
B1707214127699N00158392EA0003000042
B1707224127712N00158382EA0003100042
B1707234127725N00158372EA0003000042
B1707244127737N00158362EA0003100041
B1707254127750N00158352EA0003100041
B1707264127762N00158341EA0003000041
B1707274127775N00158330EA0003000041
B1707284127787N00158318EA0002900041
B1707294127799N00158307EA0003000041
B1707304127811N00158295EA0002800041
B1707314127823N00158284EA0002900041
B1707324127835N00158272EA0002800041
B1707334127847N00158260EA0002800041
B1707344127858N00158249EA0002900041
B1707354127870N00158237EA0002800041
B1707364127882N00158225EA0003000041
B1707374127894N00158214EA0002900041
B1707384127906N00158202EA0003000041
B1707394127918N00158190EA0002800040
B1707404127930N00158179EA0002900040
B1707414127942N00158167EA0002900040
B1707424127954N00158155EA0002900040
B1707434127966N00158143EA0002900041
B1707444127977N00158132EA0002900041
B1707454127989N00158120EA0003000041
B1707464128001N00158108EA0002900041
B1707474128013N00158096EA0002900041
B1707484128025N00158084EA0002800042
B1707494128036N00158072EA0002900042
B1707504128048N00158059EA0003100042
B1707514128059N00158046EA0003100043
B1707524128070N00158033EA0003100043
B1707534128081N00158020EA0003100043
B1707544128092N00158007EA0003100043
B1707554128103N00157993EA0003100043
B1707564128113N00157979EA0003200044
B1707574128123N00157964EA0003000044
B1707584128133N00157950EA0003100044
B1707594128143N00157935EA0003200044
B1708004128152N00157920EA0003200044
B1708014128162N00157905EA0003200045
B1708024128171N00157890EA0003200045
B1708034128179N00157875EA0003200045
B1708044128187N00157860EA0003200045
B1708054128195N00157845EA0003300045
B1708064128202N00157831EA0003100045
B1708074128209N00157816EA0003300045
B1708084128216N00157802EA0003200045
B1708094128223N00157787EA0003300045
B1708104128230N00157772EA0003200046
B1708114128236N00157757EA0003400046
B1708124128243N00157742EA0003300046
B1708134128249N00157727EA0003400046
B1708144128255N00157711EA0003400046
B1708154128260N00157696EA0003400046
B1708164128266N00157680EA0003400047
B1708174128271N00157664EA0003400047
B1708184128277N00157647EA0003500047
B1708194128282N00157630EA0003500047
B1708204128286N00157612EA0003500047
B1708214128291N00157594EA0003600047
B1708224128295N00157575EA0003700048
B1708234128298N00157556EA0003700048
B1708244128300N00157537EA0003700048
B1708254128302N00157518EA0003700048
B1708264128304N00157499EA0003700048
B1708274128305N00157480EA0003700049
B1708284128305N00157460EA0003800049
B1708294128305N00157441EA0003800049
B1708304128304N00157422EA0003800049
B1708314128302N00157403EA0003900049
B1708324128300N00157384EA0003900049
B1708334128298N00157365EA0003800049
B1708344128294N00157346EA0003800049
B1708354128291N00157327EA0003900050
B1708364128287N00157309EA0003800050
B1708374128282N00157291EA0003900050
B1708384128276N00157273EA0003700050
B1708394128270N00157255EA0003800051
B1708404128263N00157238EA0003800051
B1708414128256N00157221EA0003800051
B1708424128249N00157204EA0003900051
B1708434128242N00157187EA0003800051
B1708444128235N00157170EA0003800051
B1708454128228N00157153EA0003800050
B1708464128221N00157136EA0003800050
B1708474128214N00157119EA0003700050
B1708484128208N00157101EA0003700051
B1708494128203N00157083EA0003700051
B1708504128199N00157064EA0003800051
B1708514128195N00157046EA0003800051
B1708524128192N00157028EA0003700051
B1708534128189N00157010EA0003700052
B1708544128187N00156993EA0003600052
B1708554128185N00156976EA0003700052
B1708564128184N00156959EA0003800053
B1708574128183N00156942EA0003800053
B1708584128183N00156924EA0003700053
B1708594128183N00156907EA0003800054
B1709004128184N00156889EA0004000054
B1709014128185N00156870EA0003900055
B1709024128187N00156852EA0004000055
B1709034128190N00156834EA0004100056
B1709044128193N00156816EA0004100056
B1709054128196N00156798EA0004100056
B1709064128200N00156780EA0004200057
B1709074128204N00156763EA0004200057
B1709084128208N00156745EA0004300058
B1709094128214N00156728EA0004300059
B1709104128220N00156712EA0004400059
B1709114128227N00156696EA0004600060
B1709124128234N00156679EA0004500060
B1709134128242N00156663EA0004500060
B1709144128250N00156647EA0004700060
B1709150000000N00000000EV0004600000
B1709160000000N00000000EV0004900000
B1709170000000N00000000EV0004900000
B1709180000000N00000000EV0004900000
B1709190000000N00000000EV0004900000
B1709200000000N00000000EV0005000000
B1709214128317N00156551EA0005100064
B1709224128330N00156539EA0005100064
B1709234128342N00156528EA0005100064
B1709244128354N00156518EA0005100064
B1709254128365N00156506EA0005300065
B1709264128376N00156494EA0005100065
B1709274128387N00156482EA0005100066
B1709284128397N00156470EA0005200067
B1709294128408N00156458EA0005300068
B1709304128419N00156446EA0005200069
B1709314128429N00156434EA0005300070
B1709324128440N00156422EA0005200070
B1709334128451N00156410EA0005400070
B1709344128462N00156398EA0005400070
B1709354128473N00156386EA0005300070
B1709364128484N00156375EA0005300070
B1709374128496N00156363EA0005100070
B1709384128507N00156352EA0005300070
B1709394128519N00156341EA0005300070
B1709404128531N00156331EA0005100069
B1709414128542N00156321EA0005100069
B1709424128554N00156311EA0005100069
B1709434128566N00156301EA0005100069
B1709444128579N00156292EA0005300069
B1709454128591N00156283EA0005100069
B1709464128604N00156274EA0005100069
B1709474128616N00156266EA0005000068
B1709484128629N00156258EA0005000068
B1709494128642N00156251EA0005000068
B1709504128655N00156244EA0005100068
B1709514128669N00156237EA0005100068
B1709524128682N00156231EA0004900068
B1709534128696N00156225EA0005000069
B1709544128709N00156219EA0005100069
B1709554128723N00156214EA0005200069
B1709564128737N00156209EA0005200069
B1709574128751N00156204EA0005300069
B1709584128764N00156200EA0005300069
B1709594128778N00156196EA0005400069
B1710004128792N00156192EA0005400069
B1710014128806N00156189EA0005500069
B1710024128820N00156185EA0005500069
B1710034128835N00156182EA0005600069
B1710044128849N00156178EA0005500070
B1710054128863N00156174EA0005600070
B1710064128877N00156170EA0005400070
B1710074128891N00156166EA0005300070
B1710084128905N00156162EA0005300070
B1710094128919N00156158EA0005300070
B1710104128933N00156153EA0005300070
B1710114128948N00156148EA0005500070
B1710124128962N00156142EA0005500070
B1710134128976N00156136EA0005500070
B1710144128990N00156130EA0005500070
B1710154129004N00156123EA0005800070
B1710164129018N00156116EA0005600070
B1710174129032N00156108EA0005700070
B1710184129046N00156101EA0005500071
B1710194129060N00156093EA0005600071
B1710204129073N00156084EA0005600071
B1710214129086N00156076EA0005500071
B1710224129099N00156067EA0005500071
B1710234129112N00156058EA0005400071
B1710244129124N00156049EA0005400070
B1710254129136N00156040EA0005400070
B1710264129148N00156031EA0005500070
B1710274129160N00156022EA0005400070
B1710284129171N00156012EA0005200070
B1710294129183N00156003EA0005200069
B1710304129194N00155993EA0005200069
B1710314129205N00155983EA0005300069
B1710324129216N00155972EA0005200068
B1710334129227N00155960EA0005100068
B1710344129238N00155948EA0005200067
B1710354129250N00155935EA0005200067
B1710364129261N00155922EA0005400067
B1710374129273N00155908EA0005500066
B1710384129285N00155893EA0005500066
B1710394129297N00155879EA0005600066
B1710404129309N00155863EA0005200065
B1710414129321N00155848EA0005100065
B1710424129333N00155833EA0005200064
B1710434129345N00155818EA0005000064
B1710444129357N00155803EA0005200063
B1710454129368N00155788EA0005000063
B1710464129380N00155773EA0005000062
B1710474129391N00155759EA0005200062
B1710484129402N00155744EA0005100062
B1710494129413N00155729EA0005000061
B1710504129424N00155714EA0005000061
B1710514129435N00155698EA0004900060
B1710524129446N00155683EA0004900060
B1710534129457N00155668EA0004800060
B1710544129468N00155653EA0004800059
B1710554129479N00155638EA0004800059
B1710564129490N00155623EA0004800059
B1710574129502N00155608EA0004800059
B1710584129513N00155592EA0004800059
B1710594129524N00155577EA0004700059
B1711004129535N00155563EA0004800059
B1711014129546N00155548EA0004800060
B1711024129557N00155533EA0004900060
B1711034129568N00155518EA0004900060
B1711044129579N00155503EA0004800060
B1711054129590N00155488EA0004900060
B1711064129601N00155473EA0004900060
B1711074129612N00155458EA0005000061
B1711084129623N00155443EA0005000061
B1711094129634N00155428EA0005000062
B1711104129645N00155413EA0005000063
B1711114129656N00155398EA0005100063
B1711124129667N00155383EA0005200064
B1711134129678N00155369EA0005100064
B1711144129688N00155354EA0005200065
B1711154129699N00155339EA0005300065
B1711164129710N00155324EA0005300066
B1711174129721N00155309EA0005500067
B1711184129732N00155294EA0005400067
B1711194129743N00155279EA0005400068
B1711204129754N00155264EA0005400068
B1711214129765N00155249EA0005400069
B1711224129776N00155235EA0005400070
B1711234129787N00155220EA0005500071
B1711244129798N00155205EA0005700071
B1711254129808N00155190EA0005700072
B1711264129818N00155175EA0005500073
B1711274129829N00155160EA0005700074
B1711284129838N00155145EA0005900075
B1711294129848N00155129EA0006000075
B1711304129857N00155113EA0006000076
B1711314129866N00155097EA0006200077
B1711324129875N00155080EA0006400078
B1711334129883N00155063EA0006300079
B1711344129891N00155046EA0006400079
B1711354129898N00155029EA0006400080
B1711364129905N00155011EA0006600081
B1711374129911N00154993EA0006700083
B1711384129918N00154975EA0006900084
B1711394129924N00154957EA0007000084
B1711404129929N00154938EA0007000085
B1711414129934N00154920EA0007100086
B1711424129939N00154901EA0007300087
B1711434129943N00154882EA0007300088
B1711444129947N00154862EA0007400089
B1711454129951N00154843EA0007500090
B1711464129955N00154824EA0007600091
B1711474129960N00154805EA0007600092
B1711484129965N00154787EA0007900093
B1711494129970N00154768EA0008000094
B1711504129976N00154750EA0008100095
B1711514129982N00154731EA0008000095
B1711524129988N00154714EA0008100096
B1711534129995N00154696EA0008100097
B1711544130003N00154679EA0008200097
B1711554130011N00154662EA0008200098
B1711564130019N00154645EA0008200098
B1711574130027N00154628EA0008400099
B1711584130036N00154612EA0008400099
B1711594130045N00154596EA0008400099
B1712004130054N00154580EA0008400099
B1712014130063N00154564EA0008300100
B1712024130073N00154549EA0008500100
B1712034130084N00154535EA0008400100
B1712044130094N00154521EA0008400100
B1712054130105N00154507EA0008400100
B1712064130116N00154493EA0008400101
B1712074130128N00154480EA0008400101
B1712084130139N00154468EA0008300101
B1712094130151N00154456EA0008400101
B1712104130163N00154444EA0008500101
B1712114130175N00154433EA0008500101
B1712124130188N00154422EA0008400101
B1712134130201N00154412EA0008400101
B1712144130214N00154402EA0008500101
B1712154130227N00154393EA0008500101
B1712164130241N00154384EA0008500101
B1712174130254N00154375EA0008500102
B1712184130268N00154367EA0008400102
B1712194130282N00154360EA0008500102
B1712204130296N00154353EA0008700103
B1712214130310N00154346EA0008600103
B1712224130324N00154339EA0008700104
B1712234130338N00154332EA0008600104
B1712244130352N00154325EA0008600104
B1712254130366N00154317EA0008700105
B1712264130380N00154309EA0008700105
B1712274130393N00154300EA0008800106
B1712284130406N00154291EA0008900106
B1712294130419N00154281EA0008800106
B1712304130432N00154271EA0008700106
B1712314130445N00154261EA0008900107
B1712324130458N00154250EA0008900107
B1712334130470N00154240EA0008800107
B1712344130483N00154229EA0008800107
B1712354130496N00154218EA0009000108
B1712364130508N00154207EA0009000108
B1712374130521N00154196EA0009100108
B1712384130533N00154185EA0009000108
B1712394130546N00154175EA0009100109
B1712404130558N00154164EA0009100109
B1712414130571N00154153EA0009000110
B1712424130583N00154142EA0009100110
B1712434130596N00154131EA0009200110
B1712444130608N00154120EA0009200111
B1712454130621N00154109EA0009100111
B1712464130633N00154098EA0009200111
B1712474130645N00154086EA0009100111
B1712484130657N00154075EA0009200112
B1712494130669N00154064EA0009200111
B1712504130682N00154054EA0009100111
B1712514130694N00154043EA0009100111
B1712524130706N00154033EA0009200110
B1712534130719N00154024EA0009100109
B1712544130732N00154015EA0009000108
B1712554130745N00154006EA0009000107
B1712564130759N00153998EA0008900107
B1712574130772N00153991EA0008900106
B1712584130786N00153984EA0008900106
B1712594130799N00153977EA0009000107
B1713004130813N00153971EA0009100107
B1713014130826N00153964EA0009100108
B1713024130839N00153958EA0009100110
B1713034130853N00153951EA0009100111
B1713044130866N00153945EA0009200112
B1713054130879N00153938EA0009200113
B1713064130893N00153932EA0009100114
B1713074130906N00153925EA0009200114
B1713084130920N00153919EA0009400115
B1713094130934N00153912EA0009500115
B1713104130947N00153905EA0009400116
B1713114130961N00153898EA0009600116
B1713124130974N00153892EA0009700117
B1713134130988N00153885EA0009700117
B1713144131002N00153878EA0009600118
B1713154131015N00153871EA0009700118
B1713164131028N00153864EA0009600118
B1713174131042N00153857EA0009700118
B1713184131055N00153850EA0009700117
B1713194131068N00153842EA0009600118
B1713204131081N00153834EA0009500118
B1713214131094N00153825EA0009600118
B1713224131107N00153816EA0009700118
B1713234131119N00153807EA0009800119
B1713244131131N00153797EA0009900119
B1713254131143N00153786EA0009900120
B1713264131155N00153775EA0010000121
B1713274131166N00153764EA0010100122
B1713284131177N00153752EA0010200123
B1713294131188N00153739EA0010300123
B1713304131199N00153726EA0010200124
B1713314131209N00153712EA0010400125
B1713324131219N00153697EA0010600125
B1713334131228N00153682EA0010500126
B1713344131238N00153667EA0010700127
B1713354131247N00153651EA0010800128
B1713364131255N00153635EA0010800129
B1713374131263N00153618EA0011000129
B1713384131271N00153601EA0011300130
B1713394131279N00153583EA0011400131
B1713404131285N00153566EA0011400131
B1713414131292N00153548EA0011400131
B1713424131298N00153529EA0011200132
B1713434131303N00153510EA0011300132
B1713444131308N00153492EA0011200132
B1713454131313N00153473EA0011400133
B1713464131318N00153454EA0011300133
B1713474131322N00153435EA0011300133
B1713484131326N00153415EA0011300132
B1713494131329N00153396EA0011400132
B1713504131332N00153377EA0011100132
B1713514131335N00153358EA0011200131
B1713524131338N00153338EA0011100131
B1713534131341N00153319EA0011000130
B1713544131343N00153300EA0011000129
B1713554131346N00153280EA0011000129
B1713564131350N00153261EA0011000128
B1713574131354N00153242EA0010700127
B1713584131358N00153223EA0010700126
B1713594131364N00153205EA0010500125
B1714004131371N00153188EA0010500124
B1714014131379N00153171EA0010400122
B1714024131387N00153155EA0010200121
B1714034131396N00153139EA0010100120
B1714044131405N00153123EA0010000119
B1714054131414N00153108EA0010000118
B1714064131424N00153093EA0009800117
B1714074131433N00153078EA0009800117
B1714084131442N00153063EA0009800117
B1714094131451N00153048EA0009800117
B1714104131460N00153033EA0009700117
B1714114131469N00153018EA0009900117
B1714124131479N00153002EA0009800117
B1714134131488N00152987EA0009900116
B1714144131497N00152972EA0009900117
B1714154131506N00152957EA0009900117
B1714164131515N00152942EA0010000118
B1714174131525N00152927EA0010100120
B1714184131534N00152913EA0010400121
B1714194131543N00152898EA0010500122
B1714204131553N00152884EA0010400123
B1714214131564N00152871EA0010500125
B1714224131574N00152858EA0010500126
B1714234131586N00152846EA0010800127
B1714244131598N00152834EA0010800129
B1714254131610N00152823EA0011000130
B1714264131622N00152813EA0011000131
B1714274131635N00152803EA0011400133
B1714284131648N00152794EA0011300134
B1714294131661N00152786EA0011600135
B1714304131675N00152779EA0011700137
B1714314131689N00152772EA0011900138
B1714324131702N00152764EA0011900140
B1714334131715N00152756EA0012000141
B1714344131729N00152748EA0012100142
B1714354131741N00152738EA0012200143
B1714364131754N00152728EA0012300144
B1714374131766N00152717EA0012400144
B1714384131777N00152704EA0012500145
B1714394131788N00152690EA0012400146
B1714404131798N00152676EA0012700146
B1714414131807N00152661EA0012600147
B1714424131815N00152645EA0012600147
B1714434131823N00152629EA0012700148
B1714444131830N00152612EA0012800148
B1714454131836N00152595EA0012700148
B1714464131841N00152577EA0012900148
B1714474131845N00152560EA0012800149
B1714484131849N00152542EA0012800149
B1714494131851N00152523EA0013000149
B1714504131853N00152505EA0012800149
B1714514131855N00152487EA0012800149
B1714524131856N00152469EA0012800149
B1714534131857N00152452EA0012700149
B1714544131858N00152434EA0012700149
B1714554131859N00152417EA0012700149
B1714564131860N00152401EA0012600149
B1714574131862N00152384EA0012600149
B1714584131863N00152367EA0012500148
B1714594131864N00152351EA0012600148
B1715004131865N00152334EA0012600148
B1715014131866N00152318EA0012500148
B1715024131867N00152301EA0012500148
B1715034131868N00152285EA0012500147
B1715044131869N00152268EA0012500147
B1715054131870N00152251EA0012700147
B1715064131871N00152234EA0012500147
B1715074131873N00152217EA0012500146
B1715084131874N00152200EA0012500146
B1715094131876N00152184EA0012400146
B1715104131879N00152168EA0012600146
B1715114131881N00152152EA0012300146
B1715124131885N00152136EA0012400146
B1715134131888N00152121EA0012500146
B1715144131892N00152106EA0012400146
B1715154131896N00152091EA0012400146
B1715164131900N00152077EA0012400146
B1715174131904N00152063EA0012300146
B1715184131909N00152050EA0012400146
B1715194131914N00152036EA0012400147
B1715204131919N00152023EA0012400147
B1715214131925N00152010EA0012600148
B1715224131931N00151997EA0012400148
B1715234131937N00151983EA0012600149
B1715244131944N00151970EA0012700149
B1715254131951N00151957EA0012700149
B1715264131959N00151944EA0012800150
B1715274131968N00151931EA0012800150
B1715284131976N00151918EA0012900150
B1715294131985N00151904EA0013000151
B1715304131995N00151891EA0013100152
B1715314132004N00151878EA0013100152
B1715324132014N00151865EA0013300153
B1715334132023N00151852EA0013300154
B1715344132032N00151838EA0013400154
B1715354132042N00151825EA0013400155
B1715364132051N00151812EA0013500156
B1715374132060N00151798EA0013700157
B1715384132070N00151785EA0013800158
B1715394132079N00151771EA0013800159
B1715404132088N00151758EA0014000160
B1715414132098N00151744EA0014100161
B1715424132108N00151731EA0014100162
B1715434132117N00151717EA0014200163
B1715444132127N00151704EA0014400164
B1715454132137N00151691EA0014400165
B1715464132147N00151678EA0014500166
B1715474132157N00151665EA0014600167
B1715484132167N00151653EA0014700168
B1715494132178N00151640EA0014800169
B1715504132189N00151629EA0015000171
B1715514132200N00151617EA0015200172
B1715524132211N00151606EA0015300173
B1715534132222N00151596EA0015400174
B1715544132234N00151585EA0015400175
B1715554132245N00151575EA0015500176
B1715564132257N00151566EA0015500177
B1715574132268N00151556EA0015600179
B1715584132280N00151547EA0015800180
B1715594132292N00151539EA0015800181
B1716004132304N00151530EA0016200182
B1716014132316N00151521EA0016200183
B1716024132328N00151513EA0016200185
B1716034132340N00151505EA0016500186
B1716044132353N00151496EA0016500187
B1716054132365N00151488EA0016500188
B1716064132377N00151479EA0016600189
B1716074132389N00151470EA0016700190
B1716084132402N00151462EA0016900191
B1716094132414N00151453EA0017000192
B1716104132427N00151445EA0017100193
B1716114132439N00151437EA0017200194
B1716124132451N00151428EA0017300195
B1716134132464N00151420EA0017400196
B1716144132476N00151411EA0017400198
B1716154132488N00151402EA0017600199
B1716164132501N00151394EA0017700200
B1716174132514N00151385EA0017700201
B1716184132526N00151376EA0017800202
B1716194132539N00151368EA0017900203
B1716204132551N00151359EA0018000204
B1716214132564N00151350EA0017900205
B1716224132576N00151342EA0018200206
B1716234132589N00151333EA0018400207
B1716244132602N00151325EA0018400208
B1716254132614N00151316EA0018500210
B1716264132627N00151307EA0018600211
B1716274132639N00151298EA0018600212
B1716284132651N00151289EA0018700213
B1716294132664N00151279EA0018900214
B1716304132676N00151270EA0018900215
B1716314132688N00151260EA0019000216
B1716324132699N00151250EA0019100217
B1716334132711N00151239EA0019300218
B1716344132722N00151228EA0019400219
B1716354132733N00151217EA0019400220
B1716364132744N00151205EA0019600221
B1716374132756N00151194EA0019500222
B1716384132767N00151182EA0019600222
B1716394132777N00151170EA0019700223
B1716404132788N00151158EA0019900224
B1716414132798N00151145EA0020100225
B1716424132808N00151132EA0020200226
B1716434132819N00151119EA0020300227
B1716444132828N00151106EA0020200228
B1716454132838N00151092EA0020400229
B1716464132848N00151078EA0020400230
B1716474132857N00151064EA0020500231
B1716484132866N00151050EA0020800232
B1716494132875N00151036EA0020800232
B1716504132884N00151021EA0020800233
B1716514132893N00151007EA0020800234
B1716524132902N00150992EA0021000235
B1716534132911N00150978EA0021000236
B1716544132920N00150963EA0021200237
B1716554132929N00150948EA0021200238
B1716564132938N00150933EA0021300239
B1716574132946N00150918EA0021300239
B1716584132955N00150903EA0021500240
B1716594132964N00150888EA0021600241
B1717004132972N00150873EA0021600241
B1717014132981N00150858EA0021700242
B1717024132990N00150844EA0021800243
B1717034132998N00150829EA0021700243
B1717044133007N00150814EA0021900244
B1717054133016N00150799EA0021900244
B1717064133024N00150784EA0021900244
B1717074133033N00150769EA0022100245
B1717084133042N00150754EA0022200245
B1717094133050N00150739EA0022200245
B1717104133059N00150724EA0022100246
B1717114133067N00150709EA0022100246
B1717124133076N00150694EA0022200246
B1717134133084N00150679EA0022200246
B1717144133093N00150664EA0022100246
B1717154133101N00150649EA0022300247
B1717164133110N00150634EA0022300247
B1717174133119N00150619EA0022400247
B1717184133127N00150604EA0022400247
B1717194133136N00150589EA0022400248
B1717204133144N00150574EA0022300248
B1717214133153N00150559EA0022400249
B1717224133161N00150544EA0022500249
B1717234133170N00150529EA0022600250
B1717244133179N00150514EA0022600250
B1717254133187N00150499EA0022700251
B1717264133195N00150485EA0022800252
B1717274133204N00150470EA0022800253
B1717284133212N00150455EA0022900254
B1717294133221N00150440EA0023000255
B1717304133229N00150425EA0023200256
B1717314133238N00150410EA0023300257
B1717324133246N00150395EA0023400258
B1717334133254N00150380EA0023500260
B1717344133263N00150365EA0023700261
B1717354133271N00150350EA0023800262
B1717364133280N00150336EA0023800264
B1717374133289N00150321EA0023900265
B1717384133297N00150306EA0024300266
B1717394133306N00150291EA0024400268
B1717404133315N00150276EA0024400269
B1717414133324N00150262EA0024600270
B1717424133333N00150249EA0024700272
B1717434133343N00150235EA0024700273
B1717444133353N00150222EA0025000274
B1717454133364N00150210EA0025000276
B1717464133374N00150197EA0025100277
B1717474133385N00150186EA0025200278
B1717484133396N00150174EA0025400279
B1717494133408N00150164EA0025500281
B1717504133419N00150153EA0025700282
B1717514133431N00150143EA0025700283
B1717524133443N00150134EA0025700285
B1717534133456N00150125EA0026000286
B1717544133468N00150116EA0026100288
B1717554133481N00150107EA0026100289
B1717564133493N00150099EA0026300291
B1717574133506N00150091EA0026400292
B1717584133519N00150082EA0026600294
B1717594133531N00150074EA0026700295
B1718004133543N00150065EA0026900297
B1718014133555N00150055EA0027000299
B1718024133567N00150045EA0027100300
B1718034133579N00150034EA0027200301
B1718044133590N00150022EA0027300302
B1718054133600N00150010EA0027600304
B1718064133611N00149998EA0027700305
B1718074133621N00149984EA0027900306
B1718084133630N00149971EA0028100307
B1718094133639N00149956EA0028100309
B1718104133648N00149941EA0028300310
B1718114133656N00149926EA0028400312
B1718124133663N00149911EA0028400313
B1718134133670N00149894EA0028600314
B1718144133677N00149878EA0028800316
B1718154133683N00149861EA0028700317
B1718164133688N00149843EA0028900318
B1718174133693N00149826EA0028900318
B1718184133698N00149808EA0028900319
B1718194133703N00149790EA0029100320
B1718204133708N00149772EA0029100321
B1718214133713N00149755EA0029200322
B1718224133718N00149737EA0029300323
B1718234133724N00149720EA0029300324
B1718244133728N00149702EA0029500325
B1718254133733N00149685EA0029500326
B1718264133738N00149668EA0029600327
B1718274133743N00149650EA0029700328
B1718284133747N00149632EA0029700329
B1718294133750N00149613EA0029800329
B1718304133753N00149595EA0029800329
B1718314133755N00149576EA0029800329
B1718324133757N00149557EA0029800329
B1718334133759N00149538EA0029800328
B1718344133759N00149519EA0029700327
B1718354133760N00149500EA0029500326
B1718364133759N00149481EA0029500326
B1718374133758N00149462EA0029500325
B1718384133757N00149443EA0029400325
B1718394133755N00149424EA0029500325
B1718404133752N00149406EA0029600326
B1718414133749N00149388EA0029500326
B1718424133746N00149370EA0029600327
B1718434133742N00149352EA0029600328
B1718444133738N00149334EA0029800329
B1718454133734N00149316EA0029700330
B1718464133730N00149299EA0030000330
B1718474133727N00149281EA0030000331
B1718484133723N00149263EA0030100331
B1718494133719N00149244EA0030000332
B1718504133715N00149226EA0030100332
B1718514133711N00149208EA0030000332
B1718524133708N00149190EA0030000333
B1718534133706N00149171EA0030200334
B1718544133705N00149152EA0030200334
B1718554133704N00149134EA0030200334
B1718564133705N00149115EA0030200335
B1718574133707N00149096EA0030300335
B1718584133710N00149078EA0030400336
B1718594133713N00149060EA0030400337
B1719004133718N00149042EA0030600338
B1719014133723N00149025EA0030600340
B1719024133729N00149008EA0030700341
B1719034133736N00148992EA0031000342
B1719044133743N00148977EA0031100344
B1719054133750N00148963EA0031100345
B1719064133757N00148948EA0031100346
B1719074133764N00148934EA0031100347
B1719084133770N00148919EA0031400348
B1719094133777N00148904EA0031400349
B1719104133784N00148889EA0031600350
B1719114133791N00148874EA0031700351
B1719124133798N00148859EA0031900352
B1719134133806N00148844EA0032100354
B1719144133813N00148829EA0032100355
B1719154133821N00148814EA0032200356
B1719164133829N00148799EA0032300357
B1719174133837N00148784EA0032300358
B1719184133846N00148769EA0032600359
B1719194133856N00148754EA0032600360
B1719204133865N00148740EA0032700361
B1719214133876N00148727EA0032900363
B1719224133886N00148713EA0033100364
B1719234133897N00148700EA0033300365
B1719244133908N00148686EA0033500367
B1719254133918N00148672EA0033700368
B1719264133929N00148659EA0033600370
B1719274133940N00148645EA0033700371
B1719284133951N00148631EA0033900373
B1719294133962N00148617EA0033900374
B1719304133973N00148603EA0034200375
B1719314133984N00148589EA0034100377
B1719324133994N00148575EA0034400377
B1719334134003N00148560EA0034400378
B1719344134013N00148544EA0034400379
B1719354134022N00148528EA0034500380
B1719364134030N00148511EA0034600380
B1719374134037N00148494EA0034700381
B1719384134044N00148476EA0034800382
B1719394134050N00148458EA0034800383
B1719404134056N00148440EA0034800384
B1719414134061N00148422EA0035000386
B1719424134066N00148403EA0035100387
B1719434134070N00148385EA0035200388
B1719444134075N00148367EA0035500389
B1719454134079N00148348EA0035600391
B1719464134084N00148330EA0035600392
B1719474134088N00148311EA0035800393
B1719484134093N00148293EA0035700394
B1719494134097N00148274EA0035900395
B1719504134102N00148255EA0035900396
B1719514134107N00148237EA0036100398
B1719524134111N00148218EA0036200399
B1719534134114N00148199EA0036300400
B1719544134117N00148180EA0036300401
B1719554134119N00148160EA0036300402
B1719564134121N00148141EA0036600402
B1719574134123N00148121EA0036400403
B1719584134125N00148102EA0036400403
B1719594134126N00148082EA0036600404
B1720004134127N00148062EA0036600404
B1720014134129N00148043EA0036700405
B1720024134130N00148023EA0036700405
B1720034134132N00148004EA0036700406
B1720044134134N00147984EA0036800406
B1720054134135N00147965EA0036800407
B1720064134138N00147945EA0036900407
B1720074134140N00147926EA0036900408
B1720084134144N00147907EA0037000408
B1720094134148N00147889EA0037100409
B1720104134153N00147870EA0037100409
B1720114134159N00147852EA0037100410
B1720124134165N00147835EA0037200411
B1720134134172N00147817EA0037200411
B1720144134179N00147800EA0037300412
B1720154134187N00147784EA0037400413
B1720164134195N00147767EA0037400413
B1720174134203N00147751EA0037500414
B1720184134211N00147735EA0037600415
B1720194134219N00147719EA0037600415
B1720204134227N00147702EA0037600416
B1720214134235N00147686EA0037800417
B1720224134244N00147670EA0037800417
B1720234134252N00147654EA0037900418
B1720244134260N00147638EA0038000418
B1720254134269N00147621EA0038000419
B1720264134276N00147605EA0038100420
B1720274134284N00147589EA0038300422
B1720284134292N00147572EA0038400423
B1720294134299N00147556EA0038600425
B1720304134306N00147539EA0038700426
B1720314134313N00147522EA0038800428
B1720324134320N00147505EA0038900429
B1720334134327N00147488EA0039100430
B1720344134333N00147470EA0039300432
B1720354134338N00147452EA0039400433
B1720364134344N00147434EA0039600434
B1720374134349N00147416EA0039700436
B1720384134354N00147397EA0039900437
B1720394134358N00147378EA0039900438
B1720404134362N00147360EA0040000440
B1720414134366N00147341EA0040200441
B1720424134370N00147322EA0040200442
B1720434134374N00147303EA0040200443
B1720444134378N00147284EA0040500444
B1720454134381N00147265EA0040500445
B1720464134385N00147246EA0040600446
B1720474134388N00147227EA0040800447
B1720484134392N00147208EA0040800448
B1720494134395N00147189EA0040800449
B1720504134399N00147170EA0040900450
B1720514134403N00147151EA0041000450
B1720524134407N00147132EA0041100451
B1720534134411N00147113EA0041200452
B1720544134415N00147094EA0041100452
B1720554134420N00147076EA0041300453
B1720564134425N00147057EA0041300454
B1720574134430N00147039EA0041400455
B1720584134436N00147021EA0041400455
B1720594134442N00147003EA0041500456
B1721004134449N00146986EA0041600457
B1721014134456N00146969EA0041600458
B1721024134463N00146952EA0041700459
B1721034134471N00146935EA0041800459
B1721044134479N00146919EA0041900460
B1721054134489N00146904EA0041900461
B1721064134498N00146889EA0041800461
B1721074134508N00146875EA0041900461
B1721084134519N00146861EA0042100462
B1721094134529N00146848EA0042200463
B1721104134541N00146836EA0042300464
B1721114134552N00146824EA0042300464
B1721124134564N00146813EA0042500465
B1721134134577N00146803EA0042600466
B1721144134590N00146793EA0042700467
B1721154134603N00146784EA0042800468
B1721164134616N00146777EA0043000469
B1721174134630N00146769EA0043000471
B1721184134644N00146763EA0043200472
B1721194134658N00146757EA0043300473
B1721204134672N00146752EA0043500475
B1721214134686N00146747EA0043700477
B1721224134700N00146742EA0043800478
B1721234134714N00146738EA0043900480
B1721244134729N00146733EA0044000481
B1721254134743N00146729EA0044200483
B1721264134757N00146725EA0044400485
B1721274134771N00146720EA0044500486
B1721284134785N00146716EA0044600488
B1721294134799N00146711EA0044800489
B1721304134813N00146705EA0044900491
B1721314134827N00146700EA0045000492
B1721324134840N00146694EA0045200494
B1721334134854N00146687EA0045200495
B1721344134867N00146680EA0045400497
B1721354134881N00146672EA0045600498
B1721364134894N00146663EA0045700500
B1721374134907N00146654EA0045900502
B1721384134919N00146645EA0046100503
B1721394134931N00146634EA0046000504
B1721404134944N00146624EA0046200506
B1721414134955N00146612EA0046500507
B1721424134967N00146600EA0046700509
B1721434134978N00146588EA0046900510
B1721444134988N00146575EA0046900512
B1721454134999N00146562EA0047000513
B1721464135009N00146548EA0047200515
B1721474135019N00146534EA0047200516
B1721484135029N00146520EA0047400518
B1721494135039N00146505EA0047700519
B1721504135049N00146491EA0047800521
B1721514135058N00146477EA0048000522
B1721524135068N00146464EA0048100523
B1721534135078N00146451EA0048100525
B1721544135088N00146440EA0048200526
B1721554135099N00146429EA0048500528
B1721564135110N00146418EA0048500530
B1721574135122N00146409EA0048600531
B1721584135134N00146401EA0048900533
B1721594135146N00146394EA0049000534
B1722004135160N00146389EA0049300536
B1722014135173N00146384EA0049400538
B1722024135186N00146381EA0049500540
B1722034135200N00146378EA0049800541
B1722044135214N00146377EA0049900543
B1722054135228N00146377EA0050100545
B1722064135242N00146377EA0050300547
B1722074135255N00146378EA0050500549
B1722084135269N00146379EA0050600550
B1722094135283N00146379EA0050700552
B1722104135297N00146380EA0050800553
B1722114135311N00146380EA0051000555
B1722124135325N00146380EA0051300556
B1722134135339N00146378EA0051200558
B1722144135353N00146376EA0051400560
B1722154135367N00146372EA0051600561
B1722164135381N00146368EA0051600563
B1722174135394N00146362EA0051900565
B1722184135407N00146355EA0052100566
B1722194135420N00146347EA0052100568
B1722204135432N00146337EA0052400570
B1722214135444N00146327EA0052400571
B1722224135455N00146316EA0052700572
B1722234135466N00146304EA0052800574
B1722244135476N00146291EA0052900575
B1722254135486N00146278EA0053000576
B1722264135496N00146264EA0053100577
B1722274135505N00146250EA0053200578
B1722284135514N00146235EA0053200578
B1722294135524N00146221EA0053300579
B1722304135533N00146206EA0053300580
B1722314135542N00146192EA0053400581
B1722324135551N00146177EA0053400582
B1722334135560N00146163EA0053500582
B1722344135569N00146148EA0053500583
B1722354135579N00146134EA0053600583
B1722364135588N00146120EA0053600583
B1722374135597N00146105EA0053600583
B1722384135607N00146091EA0053700583
B1722394135616N00146077EA0053600584
B1722404135625N00146062EA0053600584
B1722414135635N00146048EA0053600584
B1722424135643N00146033EA0053600584
B1722434135652N00146017EA0053600584
B1722444135659N00146001EA0053600583
B1722454135666N00145985EA0053500583
B1722464135672N00145968EA0053500582
B1722474135677N00145950EA0053400582
B1722484135681N00145932EA0053400581
B1722494135685N00145913EA0053400580
B1722504135687N00145895EA0053300579
B1722514135689N00145876EA0053200578
B1722524135690N00145857EA0053100577
B1722534135690N00145838EA0053000576
B1722544135689N00145820EA0053000575
B1722554135687N00145801EA0052900574
B1722564135685N00145782EA0052700573
B1722574135681N00145764EA0052600572
B1722584135677N00145746EA0052300571
B1722594135671N00145729EA0052300570
B1723004135665N00145712EA0052100569
B1723014135658N00145695EA0052100568
B1723024135650N00145679EA0051900567
B1723034135642N00145664EA0051900566
B1723044135633N00145649EA0051700566
B1723054135623N00145636EA0051700565
B1723064135613N00145623EA0051600564
B1723074135602N00145611EA0051500563
B1723084135592N00145598EA0051400562
B1723094135581N00145585EA0051200561
B1723104135571N00145572EA0051100560
B1723114135562N00145558EA0051000559
B1723124135553N00145543EA0051000557
B1723134135545N00145528EA0050900556
B1723144135538N00145512EA0050800555
B1723154135531N00145495EA0050700554
B1723164135526N00145478EA0050800553
B1723174135521N00145460EA0050700553
B1723184135517N00145442EA0050600552
B1723194135515N00145423EA0050500551
B1723204135513N00145405EA0050500551
B1723214135512N00145386EA0050400550
B1723224135512N00145367EA0050400550
B1723234135513N00145349EA0050400550
B1723244135515N00145330EA0050300549
B1723254135518N00145312EA0050300548
B1723264135521N00145294EA0050200548
B1723274135526N00145276EA0050100547
B1723284135531N00145258EA0050100547
B1723294135537N00145241EA0049900546
B1723304135543N00145224EA0050000546
B1723314135549N00145207EA0049800545
B1723324135555N00145190EA0049800544
B1723334135561N00145173EA0049800544
B1723344135567N00145156EA0049700544
B1723354135573N00145139EA0049800544
B1723364135579N00145123EA0049800543
B1723374135586N00145106EA0049900543
B1723384135592N00145089EA0049800543
B1723394135599N00145072EA0049800543
B1723404135605N00145056EA0049800543
B1723414135613N00145039EA0049800542
B1723424135620N00145023EA0049700542
B1723434135627N00145007EA0049800542
B1723444135635N00144991EA0049800542
B1723454135643N00144976EA0049800543
B1723464135651N00144960EA0049900543
B1723474135659N00144945EA0049900544
B1723484135667N00144931EA0050200545
B1723494135675N00144916EA0050000546
B1723504135684N00144901EA0050200547
B1723514135691N00144885EA0050200548
B1723524135699N00144869EA0050200549
B1723534135705N00144853EA0050500550
B1723544135712N00144836EA0050600551
B1723554135717N00144819EA0050600552
B1723564135722N00144801EA0050600553
B1723574135726N00144783EA0050800554
B1723584135730N00144765EA0050800555
B1723594135733N00144747EA0051000555
B1724004135736N00144729EA0051000556
B1724014135738N00144710EA0051000557
B1724024135740N00144691EA0051100558
B1724034135743N00144673EA0051400558
B1724044135745N00144654EA0051300559
B1724054135747N00144636EA0051600560
B1724064135750N00144618EA0051400561
B1724074135752N00144601EA0051500561
B1724084135753N00144585EA0051500561
B1724094135755N00144569EA0051500562
B1724104135757N00144553EA0051500562
B1724114135759N00144537EA0051700562
B1724124135760N00144521EA0051500562
B1724134135762N00144505EA0051700563
B1724144135764N00144489EA0051700563
B1724154135765N00144472EA0051600562
B1724164135766N00144456EA0051600562
B1724174135768N00144440EA0051600562
B1724184135769N00144424EA0051400562
B1724194135770N00144408EA0051500561
B1724204135770N00144392EA0051400561
B1724214135771N00144376EA0051600561
B1724224135772N00144360EA0051400560
B1724234135773N00144344EA0051000560
B1724244135774N00144329EA0051300000
B1724250000000N00000000EV0051100000
B1724260000000N00000000EV0051200000
B1724270000000N00000000EV0051100000
B1724280000000N00000000EV0051000000
B1724290000000N00000000EV0051300000
B1724300000000N00000000EV0050700000
B1724310000000N00000000EV0050800000
B1724320000000N00000000EV0050700000
B1724330000000N00000000EV0050300000
B1724340000000N00000000EV0050300000
B1724350000000N00000000EV0050600000
B1724360000000N00000000EV0050300000
B1724370000000N00000000EV0050100000
B1724380000000N00000000EV0050000000
B1724390000000N00000000EV0050200000
B1724400000000N00000000EV0049900000
B1724410000000N00000000EV0049900000
B1724420000000N00000000EV0049600000
B1724430000000N00000000EV0049600000
B1724440000000N00000000EV0049600000
B1724450000000N00000000EV0049400000
B1724460000000N00000000EV0049300000
B1724470000000N00000000EV0049000000
B1724480000000N00000000EV0049200000
B1724490000000N00000000EV0048900000
B1724500000000N00000000EV0048900000
B1724510000000N00000000EV0048700000
B1724520000000N00000000EV0048000000
B1724530000000N00000000EV0048200000
B1724540000000N00000000EV0048200000
B1724550000000N00000000EV0047900000
B1724560000000N00000000EV0048000000
B1724574135710N00143771EA0047900000
B1724584135711N00143755EA0047700555
B1724594135708N00143742EA0047700543
B1725004135705N00143725EA0047600542
B1725014135701N00143708EA0047500537
B1725024135697N00143691EA0047400533
B1725034135694N00143673EA0047300531
B1725044135691N00143655EA0047200529
B1725054135688N00143638EA0047200526
B1725064135685N00143620EA0047000524
B1725074135682N00143601EA0046900521
B1725084135679N00143583EA0046700517
B1725094135676N00143565EA0046600513
B1725104135673N00143546EA0046500510
B1725114135669N00143527EA0046300508
B1725124135667N00143508EA0046200507
B1725134135665N00143489EA0046100506
B1725144135664N00143469EA0045800504
B1725154135663N00143449EA0045800503
B1725164135663N00143429EA0045800501
B1725174135665N00143408EA0045700499
B1725184135668N00143388EA0045400498
B1725194135671N00143368EA0045300497
B1725204135676N00143348EA0045300495
B1725214135681N00143329EA0045400494
B1725224135688N00143310EA0045400493
B1725234135695N00143291EA0045100492
B1725244135703N00143273EA0045100491
B1725254135711N00143255EA0045000489
B1725264135720N00143236EA0045000487
B1725274135728N00143217EA0044700486
B1725284135737N00143199EA0044500485
B1725294135746N00143181EA0044300483
B1725304135754N00143162EA0044300482
B1725314135763N00143144EA0044200481
B1725324135771N00143125EA0044200480
B1725334135778N00143106EA0044000478
B1725344135786N00143087EA0043800476
B1725354135792N00143067EA0043600475
B1725364135799N00143047EA0043300473
B1725374135804N00143027EA0043300471
B1725384135810N00143007EA0043300470
B1725394135814N00142987EA0043200468
B1725404135819N00142966EA0043100467
B1725414135822N00142945EA0042700465
B1725424135826N00142924EA0042400463
B1725434135830N00142903EA0042300462
B1725444135833N00142882EA0042300460
B1725454135837N00142861EA0042200458
B1725464135841N00142840EA0042000456
B1725474135845N00142819EA0042000454
B1725484135848N00142798EA0041800452
B1725494135852N00142776EA0041700450
B1725504135857N00142755EA0041500449
B1725514135861N00142734EA0041300447
B1725524135866N00142714EA0041200445
B1725534135871N00142693EA0040900443
B1725544135876N00142672EA0040800441
B1725554135881N00142652EA0040800439
B1725564135887N00142632EA0040500438
B1725574135892N00142612EA0040300436
B1725584135899N00142591EA0040200434
B1725594135905N00142571EA0040000433
B1726004135912N00142552EA0040100431
B1726014135919N00142532EA0039800429
B1726024135926N00142512EA0039500427
B1726034135933N00142493EA0039400425
B1726044135941N00142473EA0039200424
B1726054135949N00142454EA0039000422
B1726064135957N00142435EA0038900420
B1726074135965N00142417EA0038600419
B1726084135974N00142398EA0038700417
B1726094135981N00142380EA0038200416
B1726104135988N00142361EA0038100414
B1726114135995N00142342EA0038100413
B1726124136001N00142323EA0038000411
B1726134136005N00142303EA0038000410
B1726144136008N00142283EA0037800409
B1726154136011N00142263EA0037600408
B1726164136012N00142243EA0037500408
B1726174136012N00142224EA0037500407
B1726184136011N00142204EA0037400407
B1726194136010N00142186EA0037300407
B1726204136007N00142167EA0037400406
B1726214136004N00142150EA0037300406
B1726224136000N00142132EA0037300406
B1726234135996N00142115EA0037100406
B1726244135991N00142099EA0037000405
B1726254135986N00142083EA0037000405
B1726264135981N00142067EA0037100405
B1726274135976N00142052EA0037100405
B1726284135971N00142037EA0036900405
B1726294135965N00142022EA0037100405
B1726304135960N00142006EA0037000405
B1726314135955N00141991EA0037100404
B1726324135950N00141975EA0036900404
B1726334135945N00141960EA0037000404
B1726344135939N00141945EA0037000403
B1726354135934N00141930EA0036900403
B1726364135929N00141915EA0036900402
B1726374135923N00141900EA0036800402
B1726384135917N00141885EA0036700402
B1726394135911N00141871EA0036600401
B1726404135904N00141858EA0036600401
B1726414135897N00141845EA0036600401
B1726424135889N00141833EA0036600401
B1726434135880N00141821EA0036700401
B1726444135871N00141809EA0036600400
B1726454135863N00141798EA0036600400
B1726464135854N00141787EA0036400400
B1726474135845N00141776EA0036500400
B1726484135836N00141765EA0036600400
B1726494135827N00141753EA0036500400
B1726504135819N00141741EA0036500399
B1726514135810N00141729EA0036500399
B1726524135801N00141716EA0036500399
B1726534135792N00141702EA0036500399
B1726544135783N00141688EA0036600399
B1726554135775N00141672EA0036500398
B1726564135768N00141655EA0036600398
B1726574135763N00141637EA0036500397
B1726584135758N00141618EA0036400397
B1726594135753N00141599EA0036200396
B1727004135750N00141580EA0036400395
B1727014135747N00141560EA0036400395
B1727024135745N00141540EA0036300394
B1727034135744N00141520EA0036200393
B1727044135743N00141500EA0036000392
B1727054135743N00141480EA0036000391
B1727064135742N00141460EA0035600390
B1727074135742N00141440EA0035600389
B1727084135741N00141420EA0035400387
B1727094135741N00141401EA0035400386
B1727104135740N00141381EA0035400385
B1727114135739N00141361EA0035100384
B1727124135738N00141341EA0034900382
B1727134135739N00141321EA0034900381
B1727144135740N00141301EA0034800379
B1727154135742N00141281EA0034700378
B1727164135744N00141261EA0034600376
B1727174135748N00141241EA0034400374
B1727184135751N00141221EA0034200373
B1727194135755N00141201EA0034200371
B1727204135758N00141182EA0034000370
B1727214135761N00141162EA0033800369
B1727224135762N00141142EA0033700368
B1727234135763N00141122EA0033500366
B1727244135763N00141103EA0033300365
B1727254135762N00141084EA0033300363
B1727264135760N00141066EA0033200362
B1727274135756N00141047EA0032900360
B1727284135753N00141029EA0033100360
B1727294135748N00141010EA0032900359
B1727304135742N00140993EA0032900359
B1727314135735N00140975EA0032800359
B1727324135727N00140958EA0032900358
B1727334135719N00140942EA0032900358
B1727344135709N00140927EA0032900358
B1727354135699N00140913EA0033000359
B1727364135689N00140899EA0033000360
B1727374135678N00140888EA0033000360
B1727384135666N00140877EA0033100361
B1727394135655N00140867EA0033100362
B1727404135643N00140858EA0033300363
B1727414135632N00140851EA0033300364
B1727424135620N00140844EA0033300364
B1727434135608N00140838EA0033200364
B1727444135597N00140832EA0033200364
B1727454135586N00140827EA0033200364
B1727464135574N00140821EA0033000363
B1727474135563N00140816EA0033100363
B1727484135552N00140810EA0033000363
B1727494135542N00140805EA0033000362
B1727504135531N00140800EA0033000361
B1727514135520N00140794EA0033000361
B1727524135509N00140789EA0033000360
B1727534135497N00140783EA0032800359
B1727544135485N00140777EA0032700357
B1727554135473N00140771EA0032500356
B1727564135460N00140765EA0032500355
B1727574135448N00140759EA0032300353
B1727584135435N00140752EA0032200352
B1727594135422N00140746EA0032100350
B1728004135409N00140739EA0032000348
B1728014135397N00140732EA0031800347
B1728024135384N00140725EA0031700345
B1728034135371N00140717EA0031600344
B1728044135359N00140709EA0031500342
B1728054135347N00140700EA0031400341
B1728064135335N00140690EA0031200339
B1728074135324N00140679EA0031000338
B1728084135313N00140667EA0031000337
B1728094135302N00140655EA0030800336
B1728104135293N00140641EA0030600334
B1728114135284N00140627EA0030500333
B1728124135275N00140612EA0030400332
B1728134135267N00140597EA0030400330
B1728144135260N00140581EA0030100329
B1728154135253N00140564EA0029900328
B1728164135247N00140547EA0029900326
B1728174135242N00140530EA0029900325
B1728184135238N00140512EA0029800324
B1728194135234N00140494EA0029600324
B1728204135232N00140476EA0029600323
B1728214135230N00140458EA0029500323
B1728224135229N00140440EA0029400323
B1728234135229N00140422EA0029500323
B1728244135229N00140404EA0029400323
B1728254135231N00140387EA0029400323
B1728264135233N00140369EA0029300323
B1728274135235N00140352EA0029400323
B1728284135239N00140334EA0029600324
B1728294135243N00140317EA0029500324
B1728304135248N00140300EA0029600325
B1728314135254N00140283EA0029700325
B1728324135260N00140267EA0029700326
B1728334135267N00140251EA0029800327
B1728344135275N00140234EA0029800328
B1728354135282N00140218EA0030100329
B1728364135289N00140202EA0030000330
B1728374135296N00140186EA0030300331
B1728384135303N00140169EA0030300331
B1728394135309N00140152EA0030300332
B1728404135314N00140135EA0030400333
B1728414135320N00140117EA0030400334
B1728424135325N00140100EA0030500334
B1728434135329N00140082EA0030700335
B1728444135334N00140064EA0030700335
B1728454135337N00140046EA0030800336
B1728464135340N00140028EA0030700336
B1728474135343N00140009EA0030800336
B1728484135346N00139990EA0030800336
B1728494135347N00139972EA0030900337
B1728504135349N00139953EA0030900337
B1728514135350N00139934EA0030800338
B1728524135350N00139915EA0030900338
B1728534135351N00139896EA0030900338
B1728544135350N00139878EA0030900339
B1728554135349N00139859EA0030900339
B1728564135348N00139840EA0030800339
B1728574135347N00139821EA0031000339
B1728584135346N00139803EA0030900339
B1728594135345N00139784EA0031000340
B1729004135344N00139765EA0031100340
B1729014135343N00139746EA0031100340
B1729024135342N00139727EA0031100340
B1729034135342N00139709EA0031100340
B1729044135342N00139690EA0031100341
B1729054135342N00139671EA0031100341
B1729064135343N00139652EA0031100341
B1729074135343N00139633EA0031100342
B1729084135344N00139615EA0031200342
B1729094135345N00139596EA0031300343
B1729104135346N00139577EA0031400343
B1729114135348N00139559EA0031300343
B1729124135350N00139540EA0031300343
B1729134135352N00139521EA0031200344
B1729144135354N00139503EA0031300344
B1729154135356N00139484EA0031500344
B1729164135359N00139466EA0031400344
B1729174135362N00139447EA0031500345
B1729184135365N00139429EA0031300345
B1729194135369N00139411EA0031400345
B1729204135373N00139393EA0031600345
B1729214135376N00139375EA0031600346
B1729224135381N00139357EA0031600346
B1729234135385N00139339EA0031400346
B1729244135390N00139321EA0031600347
B1729254135394N00139304EA0031600347
B1729264135400N00139286EA0031700348
B1729274135405N00139269EA0031800348
B1729284135411N00139252EA0031800349
B1729294135417N00139235EA0032000349
B1729304135423N00139218EA0032000349
B1729314135429N00139201EA0032000350
B1729324135435N00139184EA0032000350
B1729334135442N00139168EA0032000351
B1729344135449N00139151EA0032000351
B1729354135456N00139135EA0032100351
B1729364135463N00139118EA0032100352
B1729374135471N00139102EA0032200352
B1729384135479N00139087EA0032300353
B1729394135487N00139071EA0032500354
B1729404135495N00139055EA0032400354
B1729414135504N00139040EA0032300355
B1729424135512N00139025EA0032300355
B1729434135521N00139010EA0032600356
B1729444135530N00138995EA0032500356
B1729454135539N00138981EA0032600357
B1729464135548N00138966EA0032600357
B1729474135557N00138951EA0032600357
B1729484135566N00138936EA0032600357
B1729494135575N00138921EA0032600357
B1729504135584N00138906EA0032700357
B1729514135592N00138890EA0032500357
B1729524135600N00138874EA0032500357
B1729534135607N00138858EA0032500356
B1729544135614N00138841EA0032500356
B1729554135621N00138824EA0032300355
B1729564135627N00138807EA0032400355
B1729574135633N00138790EA0032400354
B1729584135639N00138773EA0032200354
B1729594135644N00138755EA0032300354
B1730004135649N00138737EA0032500354
B1730014135654N00138719EA0032400354
B1730024135658N00138701EA0032400354
B1730034135663N00138683EA0032400354
B1730044135667N00138665EA0032500353
B1730054135671N00138647EA0032400353
B1730064135676N00138629EA0032300353
B1730074135681N00138612EA0032400354
B1730084135686N00138594EA0032400353
B1730094135692N00138577EA0032300354
B1730104135698N00138560EA0032400353
B1730114135705N00138543EA0032400354
B1730124135712N00138526EA0032500354
B1730134135719N00138510EA0032400354
B1730144135727N00138494EA0032400354
B1730154135735N00138478EA0032400354
B1730164135743N00138462EA0032500354
B1730174135752N00138447EA0032400354
B1730184135761N00138432EA0032700354
B1730194135770N00138418EA0032600355
B1730204135780N00138404EA0032600355
B1730214135790N00138390EA0032600355
B1730224135800N00138377EA0032500355
B1730234135811N00138364EA0032600354
B1730244135822N00138352EA0032500354
B1730254135833N00138339EA0032500353
B1730264135844N00138327EA0032400353
B1730274135855N00138315EA0032200352
B1730284135867N00138303EA0032200351
B1730294135878N00138291EA0032300351
B1730304135889N00138279EA0032200350
B1730314135900N00138267EA0032000349
B1730324135911N00138254EA0032000348
B1730334135922N00138241EA0031900347
B1730344135934N00138229EA0031800346
B1730354135945N00138216EA0031700346
B1730364135956N00138203EA0031600345
B1730374135966N00138190EA0031700345
B1730384135977N00138177EA0031500345
B1730394135988N00138164EA0031600345
B1730404135999N00138151EA0031600345
B1730414136009N00138138EA0031700345
B1730424136020N00138124EA0031600345
B1730434136031N00138111EA0031700346
B1730444136041N00138097EA0031700346
B1730454136051N00138083EA0032000347
B1730464136062N00138069EA0031900348
B1730474136072N00138055EA0032000349
B1730484136082N00138041EA0032100350
B1730494136093N00138027EA0032400352
B1730504136103N00138013EA0032600353
B1730514136113N00137999EA0032800355
B1730524136123N00137985EA0032900356
B1730534136132N00137970EA0032900358
B1730544136142N00137955EA0033200359
B1730554136152N00137940EA0033200360
B1730564136162N00137926EA0033500362
B1730574136172N00137911EA0033500363
B1730584136181N00137896EA0033700365
B1730594136190N00137880EA0033800366
B1731004136199N00137864EA0034000368
B1731014136207N00137848EA0033900370
B1731024136215N00137831EA0034100371
B1731034136222N00137814EA0034200372
B1731044136228N00137796EA0034500374
B1731054136234N00137778EA0034600375
B1731064136239N00137759EA0034800376
B1731074136243N00137740EA0034900377
B1731084136246N00137721EA0035000379
B1731094136248N00137702EA0035100380
B1731104136250N00137682EA0035400381
B1731114136251N00137662EA0035500382
B1731124136251N00137643EA0035500384
B1731134136251N00137623EA0035700385
B1731144136249N00137604EA0035800387
B1731154136247N00137584EA0035900388
B1731164136244N00137565EA0036100389
B1731174136240N00137546EA0036200391
B1731184136236N00137527EA0036300392
B1731194136230N00137509EA0036400393
B1731204136224N00137491EA0036400394
B1731214136218N00137473EA0036700395
B1731224136211N00137456EA0036700396
B1731234136204N00137438EA0036900397
B1731244136196N00137421EA0037100398
B1731254136189N00137404EA0036900398
B1731264136181N00137387EA0037000399
B1731274136173N00137370EA0037000399
B1731284136165N00137354EA0037100400
B1731294136156N00137337EA0037100400
B1731304136147N00137321EA0037000400
B1731314136138N00137305EA0037200400
B1731324136128N00137290EA0037100399
B1731334136119N00137274EA0037000399
B1731344136109N00137259EA0036900399
B1731354136099N00137244EA0036900398
B1731364136090N00137229EA0036900398
B1731374136080N00137214EA0036800397
B1731384136070N00137199EA0036800397
B1731394136060N00137185EA0036800397
B1731404136049N00137171EA0036800396
B1731414136039N00137157EA0036800396
B1731424136028N00137143EA0036600396
B1731434136017N00137129EA0036700395
B1731444136006N00137116EA0036700395
B1731454135995N00137103EA0036700394
B1731464135984N00137090EA0036600394
B1731474135972N00137078EA0036500393
B1731484135961N00137066EA0036400393
B1731494135949N00137054EA0036400392
B1731504135937N00137042EA0036600392
B1731514135925N00137030EA0036400392
B1731524135913N00137019EA0036600392
B1731534135900N00137008EA0036500391
B1731544135887N00136996EA0036300390
B1731554135874N00136984EA0036400390
B1731564135861N00136972EA0036300390
B1731574135847N00136960EA0036500390
B1731584135833N00136948EA0036500390
B1731594135819N00136936EA0036300389
B1732004135806N00136923EA0036500389
B1732014135793N00136910EA0036300388
B1732024135780N00136896EA0036300388
B1732034135768N00136881EA0036200387
B1732044135757N00136865EA0036200387
B1732054135746N00136849EA0035900387
B1732064135736N00136832EA0035900387
B1732074135727N00136814EA0035800386
B1732084135719N00136795EA0035800386
B1732094135711N00136775EA0035900385
B1732104135705N00136756EA0035600384
B1732114135699N00136735EA0035600383
B1732124135692N00136715EA0035500382
B1732134135686N00136695EA0035400381
B1732144135680N00136675EA0035300380
B1732154135674N00136655EA0035300379
B1732164135667N00136635EA0035100378
B1732174135660N00136616EA0034800377
B1732184135652N00136597EA0034700376
B1732194135645N00136577EA0034700374
B1732204135636N00136559EA0034600373
B1732214135628N00136540EA0034400371
B1732224135619N00136522EA0034200369
B1732234135610N00136504EA0034100368
B1732244135600N00136486EA0033900366
B1732254135590N00136468EA0033900364
B1732264135581N00136450EA0033600362
B1732274135571N00136432EA0033400360
B1732284135562N00136414EA0033200358
B1732294135553N00136395EA0033000356
B1732304135544N00136376EA0032800354
B1732314135537N00136356EA0032700353
B1732324135530N00136336EA0032600351
B1732334135523N00136316EA0032400350
B1732344135518N00136295EA0032200349
B1732354135513N00136275EA0032100348
B1732364135510N00136254EA0032200348
B1732374135507N00136233EA0032100347
B1732384135505N00136211EA0032200347
B1732394135503N00136190EA0032000347
B1732404135503N00136168EA0032000347
B1732414135503N00136146EA0032000347
B1732424135503N00136125EA0032000347
B1732434135503N00136103EA0032100347
B1732444135502N00136081EA0032100347
B1732454135501N00136060EA0032000347
B1732464135499N00136038EA0032100347
B1732474135497N00136017EA0032100347
B1732484135494N00135996EA0032000347
B1732494135491N00135974EA0032100347
B1732504135488N00135953EA0032100347
B1732514135486N00135931EA0032100347
B1732524135484N00135910EA0032100347
B1732534135484N00135888EA0032200346
B1732544135484N00135867EA0032100346
B1732554135486N00135845EA0032100346
B1732564135488N00135824EA0032000346
B1732574135491N00135803EA0032000346
B1732584135496N00135782EA0032000346
B1732594135501N00135762EA0032000347
B1733004135507N00135742EA0032200347
B1733014135513N00135722EA0032000347
B1733024135520N00135702EA0031900348
B1733034135527N00135683EA0032100348
B1733044135534N00135663EA0032300349
B1733054135540N00135643EA0032300349
B1733064135547N00135624EA0032300350
B1733074135553N00135604EA0032300350
B1733084135558N00135583EA0032400351
B1733094135563N00135563EA0032500352
B1733104135567N00135542EA0032800352
B1733114135570N00135521EA0032800353
B1733124135573N00135500EA0032800355
B1733134135575N00135478EA0033100355
B1733144135576N00135457EA0033200356
B1733154135577N00135435EA0033300357
B1733164135578N00135414EA0033300358
B1733174135579N00135394EA0033200359
B1733184135580N00135374EA0033400360
B1733194135581N00135354EA0033500361
B1733204135583N00135334EA0033600362
B1733214135585N00135314EA0033700363
B1733224135587N00135294EA0033600364
B1733234135589N00135275EA0033900365
B1733244135591N00135255EA0034000367
B1733254135594N00135236EA0034200368
B1733264135597N00135216EA0034100369
B1733274135600N00135197EA0034400370
B1733284135603N00135177EA0034300371
B1733294135606N00135158EA0034500372
B1733304135609N00135139EA0034600373
B1733314135611N00135120EA0034600374
B1733324135614N00135100EA0034800375
B1733334135616N00135081EA0034900376
B1733344135619N00135063EA0034800377
B1733354135621N00135045EA0034900378
B1733364135624N00135027EA0035000379
B1733374135627N00135008EA0035100379
B1733384135630N00134990EA0035100380
B1733394135632N00134971EA0035300381
B1733404135635N00134952EA0035400382
B1733414135638N00134932EA0035600383
B1733424135641N00134913EA0035600384
B1733434135643N00134893EA0035700385
B1733444135646N00134873EA0035900386
B1733454135649N00134853EA0035900387
B1733464135652N00134833EA0036000388
B1733474135655N00134813EA0036000389
B1733484135658N00134793EA0036200390
B1733494135661N00134773EA0036200391
B1733504135664N00134754EA0036300391
B1733514135666N00134736EA0036100392
B1733524135669N00134717EA0036300393
B1733534135672N00134699EA0036300393
B1733544135674N00134681EA0036300394
B1733554135677N00134662EA0036500395
B1733564135679N00134644EA0036500396
B1733574135682N00134626EA0036400396
B1733584135684N00134608EA0036600397
B1733594135687N00134589EA0036600397
B1734004135689N00134571EA0036600398
B1734014135692N00134552EA0036700398
B1734024135693N00134533EA0036600399
B1734034135695N00134514EA0036700399
B1734044135697N00134495EA0036700399
B1734054135698N00134476EA0036600399
B1734064135699N00134457EA0036700400
B1734074135700N00134438EA0036500400
B1734084135701N00134420EA0036500400
B1734094135701N00134404EA0036500400
B1734104135702N00134388EA0036400400
B1734114135701N00134373EA0036300399
B1734124135701N00134358EA0036400399
B1734134135700N00134344EA0036200399
B0900394151946N00049115EA0056800000
B0900404151946N00049116EA0056700000
B0900414151946N00049116EA0056700000
B0900424151943N00049048EA0056600865
B0900434151942N00049048EA0056600863
B0900444151942N00049052EA0056600833
B0900454151943N00049054EA0056600820
B0900464151943N00049052EA0056600841
B0900474151943N00049052EA0056600851
B0900484151943N00049055EA0056700824
B0900494151942N00049058EA0056800807
B0900504151942N00049059EA0056700797
B0900514151942N00049061EA0056700789
B0900524151943N00049063EA0056600778
B0900534151943N00049064EA0056700769
B0900544151943N00049064EA0056800769
B0900554151943N00049064EA0056700768
B0900564151943N00049064EA0056700767
B0900574151943N00049064EA0056700767
B0900584151944N00049066EA0056700759
B0900594151944N00049067EA0056700753
B0901004151944N00049068EA0056700750
B0901014151944N00049068EA0056700747
B0901024151944N00049068EA0056700746
B0901034151944N00049068EA0056700744
B0901044151944N00049069EA0056600741
B0901054151944N00049070EA0056700738
B0901064151945N00049071EA0056700736
B0901074151945N00049071EA0056600733
B0901084151945N00049072EA0056700731
B0901094151946N00049074EA0056700722
B0901104151947N00049076EA0056700717
B0901114151947N00049077EA0056700711
B0901124151948N00049078EA0056700706
B0901134151948N00049080EA0056600701
B0901144151949N00049081EA0056800698
B0901154151949N00049082EA0056600694
B0901164151949N00049082EA0056500694
B0901174151949N00049082EA0056600692
B0901184151950N00049083EA0056700689
B0901194151950N00049084EA0056700687
B0901204151950N00049085EA0056700685
B0901214151950N00049086EA0056700683
B0901224151951N00049086EA0056600681
B0901234151951N00049087EA0056700679
B0901244151951N00049088EA0056700677
B0901254151951N00049088EA0056700675
B0901264151951N00049089EA0056700674
B0901274151951N00049089EA0056600673
B0901284151951N00049090EA0056600672
B0901294151952N00049090EA0056700670
B0901304151952N00049091EA0056700669
B0901314151952N00049091EA0056600668
B0901324151952N00049092EA0056700665
B0901334151952N00049092EA0056600664
B0901344151952N00049093EA0056700663
B0901354151954N00049096EA0056600649
B0901364151954N00049098EA0056700643
B0901374151955N00049099EA0056600639
B0901384151955N00049099EA0056600636
B0901394151955N00049100EA0056700634
B0901404151955N00049100EA0056600633
B0901414151955N00049101EA0056700632
B0901424151956N00049101EA0056600631
B0901434151956N00049101EA0056600630
B0901444151956N00049101EA0056600630
B0901454151956N00049101EA0056700629
B0901464151956N00049101EA0056600629
B0901474151956N00049102EA0056700629
B0901484151956N00049102EA0056600628
B0901494151956N00049102EA0056700628
B0901504151956N00049102EA0056600628
B0901514151956N00049102EA0056700628
B0901524151956N00049102EA0056600628
B0901534151956N00049102EA0056600628
B0901544151956N00049102EA0056600627
B0901554151956N00049102EA0056700627
B0901564151956N00049102EA0056700627
B0901574151956N00049102EA0056700627
B0901584151956N00049102EA0056600627
B0901594151956N00049102EA0056600627
GVgd39Mx0JOKvGuMNi8uXgV5tXonElFVFdwtttQtR8e9OGIzFb6z+1Gq8cmFu5XzVW4GveletGlu
G4O7O98YQ9hpiuSAiZtq2DLjeN78aR7t7i+N/hKDj2yIuVPs1ezFXB7EsbBUafou+/LUSyIxytoS
G+WWyYOA4lc3bZBZBy0WtA=
