AXSFwn
HFDTEDATE:070826
HFPLTPILOTINCHARGE:Ignacio Luzuriaga
HFCM2CREW2:NIL
HFGTYGLIDERTYPE: Niviuk Artik R2
HFGIDGLIDERID:NIL
HFDTMGPSDATUM:WGS84
HFRFWFIRMWAREVERSION:EU_2.00V
HFRHWHARDWAREVERSION:4.5
HFFTYFRTYPE:alfapilot,Voolaris Tracker
HFGPSRECEIVER:UBLOX,M10,72,50000,GPS,GLO,GAL
HFPRSPRESSALTSENSOR:ST,LPS22HB,10000
HFALGALTGPS:GEO
HFALPALTPRESSURE:ISA
HFTZNTIMEZONE:0
B1651510000000N00000000EV0014300000
B1651520000000N00000000EV0014300000
B1651530000000N00000000EV0014400000
B1651540000000N00000000EV0014500000
B1651550000000N00000000EV0014600000
B1651560000000N00000000EV0014700000
B1651570000000N00000000EV0014600000
B1651580000000N00000000EV0014600000
B1651594124785N00207794EA0014800000
B1652004124782N00207778EA0014900182
B1652014124778N00207768EA0014900182
B1652024124772N00207759EA0014900184
B1652034124766N00207751EA0015000187
B1652044124759N00207743EA0015200188
B1652054124753N00207735EA0015200190
B1652064124746N00207727EA0015200192
B1652074124740N00207718EA0015200193
B1652084124733N00207710EA0015300195
B1652094124727N00207701EA0015300196
B1652104124720N00207693EA0015300197
B1652114124714N00207684EA0015300197
B1652124124708N00207676EA0015300198
B1652134124702N00207668EA0015300198
B1652144124695N00207659EA0015300198
B1652154124688N00207649EA0015300198
B1652164124682N00207638EA0015300197
B1652174124676N00207626EA0015400197
B1652184124669N00207615EA0015400197
B1652194124663N00207603EA0015300197
B1652204124657N00207591EA0015400197
B1652214124650N00207579EA0015200197
B1652224124644N00207567EA0015100197
B1652234124637N00207555EA0015300197
B1652244124631N00207542EA0015300197
B1652254124624N00207528EA0015400197
B1652264124616N00207514EA0015200198
B1652274124608N00207503EA0015200197
B1652284124600N00207492EA0015100197
B1652294124591N00207482EA0015100197
B1652304124583N00207472EA0015100198
B1652314124574N00207462EA0015100196
B1652324124565N00207453EA0015200195
B1652334124557N00207442EA0015000194
B1652344124548N00207432EA0014900192
B1652354124539N00207422EA0014800191
B1652364124530N00207412EA0014600190
B1652374124520N00207402EA0014600188
B1652384124511N00207393EA0014400186
B1652394124502N00207383EA0014300184
B1652404124492N00207374EA0014300182
B1652414124482N00207364EA0014100180
B1652424124472N00207355EA0013900178
B1652434124463N00207345EA0013900176
B1652444124453N00207335EA0013700174
B1652454124443N00207324EA0013400173
B1652464124434N00207313EA0013300171
B1652474124426N00207301EA0013200169
B1652484124417N00207289EA0013100167
B1652494124409N00207276EA0013000167
B1652504124400N00207264EA0012900167
B1652514124392N00207252EA0012700167
B1652524124383N00207240EA0012600165
B1652534124375N00207228EA0012500165
B1652544124367N00207217EA0012500164
B1652554124360N00207204EA0012500163
B1652564124353N00207193EA0012600163
B1652574124345N00207183EA0012600000
B1652580000000N00000000EV0012300000
B1652590000000N00000000EV0012400000
B1653000000000N00000000EV0012500000
B1653010000000N00000000EV0012200000
B1653020000000N00000000EV0012100000
B1653030000000N00000000EV0012200000
B1653040000000N00000000EV0012100000
B1653050000000N00000000EV0012100000
B1653060000000N00000000EV0012100000
B1653074124272N00207082EA0012100155
B1653084124266N00207066EA0012100154
B1653094124256N00207059EA0012100150
B1653104124245N00207051EA0012100147
B1653110000000N00000000EV0012000000
B1653120000000N00000000EV0012000000
B1653130000000N00000000EV0011900000
B1653140000000N00000000EV0012100000
B1653150000000N00000000EV0012000000
B1653160000000N00000000EV0011900000
B1653170000000N00000000EV0012000000
B1653180000000N00000000EV0012000000
B1653190000000N00000000EV0012100000
B1653200000000N00000000EV0012000000
B1653214124155N00206960EA0012200000
B1653224124147N00206951EA0012300149
B1653234124143N00206942EA0012300153
B1653244124137N00206929EA0012300157
B1653254124128N00206918EA0012200161
B1653264124119N00206906EA0012400165
B1653274124110N00206892EA0012500167
B1653284124102N00206881EA0012400167
B1653294124094N00206870EA0012400167
B1653304124085N00206861EA0012400167
B1653314124076N00206851EA0012400167
B1653324124066N00206841EA0012500167
B1653334124056N00206833EA0012500166
B1653344124046N00206826EA0012600165
B1653354124036N00206820EA0012500164
B1653364124026N00206815EA0012500163
B1653374124015N00206810EA0012400162
B1653384124004N00206807EA0012400160
B1653394123994N00206804EA0012500159
B1653404123983N00206803EA0012500158
B1653414123972N00206801EA0012300157
B1653424123962N00206800EA0012400157
B1653430000000N00000000EV0012200000
B1653440000000N00000000EV0012200000
B1653450000000N00000000EV0012100000
B1653460000000N00000000EV0012000000
B1653470000000N00000000EV0011700000
B1653480000000N00000000EV0011900000
B1653490000000N00000000EV0011600000
B1653500000000N00000000EV0011600000
B1653510000000N00000000EV0011400000
B1653520000000N00000000EV0011200000
B1653530000000N00000000EV0011200000
B1653540000000N00000000EV0011100000
B1653550000000N00000000EV0010800000
B1653560000000N00000000EV0010700000
B1653570000000N00000000EV0010700000
B1653580000000N00000000EV0010600000
B1653590000000N00000000EV0010700000
B1654000000000N00000000EV0010500000
B1654010000000N00000000EV0010500000
B1654020000000N00000000EV0010400000
B1654030000000N00000000EV0010500000
B1654040000000N00000000EV0010500000
B1654050000000N00000000EV0010300000
B1654060000000N00000000EV0010300000
B1654070000000N00000000EV0010400000
B1654080000000N00000000EV0010600000
B1654090000000N00000000EV0010500000
B1654100000000N00000000EV0010400000
B1654110000000N00000000EV0010400000
B1654120000000N00000000EV0010300000
B1654130000000N00000000EV0010400000
B1654140000000N00000000EV0010300000
B1654150000000N00000000EV0010100000
B1654160000000N00000000EV0010500000
B1654170000000N00000000EV0010400000
B1654180000000N00000000EV0010400000
B1654190000000N00000000EV0010300000
B1654200000000N00000000EV0010100000
B1654210000000N00000000EV0010200000
B1654220000000N00000000EV0010400000
B1654230000000N00000000EV0010300000
GhBLLsKLh26OrZUxGOvPQd1q24ItnJcDKK+Y5Sl9Ujks46HMhQLwI684OXNvdSTAqPGGBUi3xdgf
Gf7XpZZycfHA1IGqWDgPbZuwqNH83kgw0nVwv+gZeZEqfhYH+pS1q84aDd7q9QISd7B7RFTtSyMQ
GmQNw4tWqEah5l3WwM+dwg=
