AXSFwn
HFDTEDATE:070826
HFPLTPILOTINCHARGE:Ignacio Luzuriaga
HFCM2CREW2:NIL
HFGTYGLIDERTYPE: Niviuk Artik R2
HFGIDGLIDERID:NIL
HFDTMGPSDATUM:WGS84
HFRFWFIRMWAREVERSION:EU_2.00V
HFRHWHARDWAREVERSION:4.5
HFFTYFRTYPE:alfapilot,Voolaris Tracker
HFGPSRECEIVER:UBLOX,M10,72,50000,GPS,GLO,GAL
HFPRSPRESSALTSENSOR:ST,LPS22HB,10000
HFALGALTGPS:GEO
HFALPALTPRESSURE:ISA
HFTZNTIMEZONE:0
B1629450000000N00000000EV0013400000
B1629464125523N00208620EA0013300031
B1629474125521N00208620EA0013300036
B1629484125498N00208616EA0013400150
B1629494125495N00208614EA0013500163
B1629504125492N00208612EA0013500167
B1629514125489N00208612EA0013600171
B1629524125487N00208610EA0013400171
B1629534125484N00208609EA0013500169
B1629544125481N00208607EA0013500169
B1629554125503N00208595EA0013700227
B1629564125506N00208589EA0013700249
B1629574125505N00208585EA0013800259
B1629584125503N00208581EA0013800265
B1629594125501N00208578EA0013800269
B1630004125498N00208576EA0013900271
B1630014125495N00208573EA0013800272
B1630024125492N00208571EA0014000273
B1630034125489N00208568EA0013900274
B1630044125485N00208565EA0014000274
B1630054125480N00208563EA0013900275
B1630064125475N00208560EA0014000275
B1630074125470N00208557EA0014100275
B1630084125464N00208556EA0014100279
B1630094125459N00208554EA0014100278
B1630104125454N00208552EA0014000277
B1630114125450N00208549EA0013900275
B1630124125446N00208546EA0013900274
B1630134125444N00208544EA0013800274
B1630144125441N00208543EA0013900274
B1630154125440N00208542EA0013900271
B1630164125439N00208541EA0013800270
B1630174125439N00208540EA0013900268
B1630184125439N00208539EA0013900267
B1630194125438N00208539EA0013800266
B1630204125438N00208538EA0013800264
B1630214125438N00208538EA0013900264
B1630224125438N00208537EA0013900263
B1630234125438N00208536EA0013900262
B1630244125438N00208536EA0013800262
B1630254125440N00208528EA0013800247
B1630264125440N00208524EA0013800236
B1630274125440N00208522EA0013900229
B1630284125440N00208520EA0013700223
B1630294125441N00208518EA0014000219
B1630304125441N00208517EA0013900215
B1630314125440N00208516EA0014000211
B1630324125440N00208515EA0013900208
B1630334125441N00208515EA0014000206
B1630344125441N00208514EA0014000204
B1630354125441N00208513EA0013800203
B1630364125441N00208513EA0013900202
B1630374125441N00208513EA0014000201
B1630384125441N00208512EA0014000200
B1630394125441N00208512EA0013900200
B1630404125441N00208512EA0013900199
B1630414125441N00208512EA0014000199
B1630424125441N00208511EA0014000198
B1630434125441N00208511EA0013900197
B1630444125441N00208511EA0013900195
B1630454125441N00208511EA0013900194
B1630464125441N00208511EA0013900195
B1630474125441N00208511EA0013800194
B1630484125441N00208510EA0013900193
B1630494125441N00208510EA0013900192
B1630504125441N00208510EA0013900191
B1630514125441N00208510EA0014000190
B1630524125440N00208509EA0013900189
B1630534125439N00208509EA0014000188
B1630544125437N00208507EA0014000187
B1630554125435N00208506EA0014000186
B1630564125432N00208505EA0014100186
B1630574125429N00208504EA0014000185
B1630584125426N00208502EA0014000185
B1630594125423N00208501EA0014100184
B1631004125420N00208500EA0014100184
B1631014125416N00208499EA0014100183
B1631024125412N00208497EA0014100184
B1631034125407N00208494EA0014100183
B1631044125402N00208492EA0014100184
B1631054125397N00208489EA0014000184
B1631064125392N00208486EA0014100185
B1631074125387N00208484EA0014100185
B1631084125383N00208481EA0014100185
B1631094125378N00208478EA0014100184
B1631104125373N00208475EA0014000184
B1631114125368N00208473EA0014100184
B1631124125364N00208470EA0014100185
B1631134125359N00208467EA0014200185
B1631144125354N00208465EA0014200185
B1631154125349N00208462EA0014300185
B1631164125344N00208460EA0014200186
B1631174125339N00208458EA0014300186
B1631184125334N00208455EA0014300187
B1631194125330N00208454EA0014300186
B1631204125326N00208452EA0014300186
B1631214125321N00208450EA0014400186
B1631224125317N00208448EA0014400187
B1631234125312N00208446EA0014500187
B1631244125307N00208443EA0014500187
B1631254125302N00208441EA0014500187
B1631264125298N00208439EA0014600188
B1631274125293N00208437EA0014500187
B1631284125289N00208435EA0014400187
B1631294125284N00208432EA0014600188
B1631304125279N00208430EA0014500188
B1631314125274N00208428EA0014500188
B1631324125269N00208425EA0014500188
B1631334125264N00208423EA0014500188
B1631344125259N00208421EA0014500188
B1631354125255N00208418EA0014400189
B1631364125250N00208416EA0014500188
B1631374125245N00208414EA0014400187
B1631384125241N00208412EA0014400187
B1631394125238N00208410EA0014400187
B1631404125235N00208409EA0014400187
B1631414125233N00208408EA0014500187
B1631424125232N00208408EA0014300187
B1631434125230N00208408EA0014400186
B1631444125229N00208409EA0014400187
B1631454125227N00208411EA0014300188
B1631464125227N00208413EA0014400188
B1631474125227N00208417EA0014200188
B1631484125228N00208421EA0014300189
B1631494125230N00208423EA0014300189
B1631504125233N00208426EA0014200188
B1631514125235N00208428EA0014200189
B1631524125238N00208430EA0014400188
B1631534125240N00208431EA0014400188
B1631544125242N00208432EA0014300187
B1631554125243N00208432EA0014300187
B1631564125243N00208432EA0014300187
B1631574125243N00208432EA0014400186
B1631584125243N00208432EA0014300185
B1631594125243N00208432EA0014200184
B1632004125243N00208432EA0014400183
B1632014125243N00208432EA0014300183
B1632024125243N00208432EA0014300183
B1632034125243N00208432EA0014400184
B1632044125243N00208431EA0014300184
B1632054125243N00208431EA0014400184
B1632064125243N00208431EA0014400184
B1632074125243N00208431EA0014300184
B1632084125243N00208431EA0014400184
B1632094125243N00208432EA0014300185
B1632104125243N00208432EA0014400185
B1632114125243N00208432EA0014300185
B1632124125243N00208432EA0014300184
B1632134125243N00208432EA0014300184
B1632144125243N00208431EA0014400184
B1632154125243N00208431EA0014300183
B1632164125243N00208431EA0014400183
B1632174125243N00208431EA0014400184
B1632184125243N00208431EA0014300183
B1632194125243N00208431EA0014400183
B1632204125243N00208431EA0014400182
B1632214125243N00208431EA0014300182
B1632224125244N00208431EA0014500182
B1632234125244N00208431EA0014400182
B1632244125244N00208431EA0014300181
B1632254125244N00208431EA0014200181
B1632264125244N00208431EA0014300180
B1632274125244N00208431EA0014400180
B1632284125244N00208431EA0014300179
B1632294125244N00208431EA0014400179
B1632304125244N00208431EA0014300179
B1632314125244N00208431EA0014400178
B1632324125244N00208431EA0014500178
B1632334125244N00208431EA0014400178
B1632344125244N00208431EA0014400178
B1632354125244N00208431EA0014400177
B1632364125244N00208431EA0014400177
B1632374125244N00208431EA0014300177
B1632384125244N00208431EA0014400177
B1632394125244N00208431EA0014400176
B1632404125244N00208431EA0014200176
B1632414125244N00208431EA0014300176
B1632424125244N00208432EA0014300176
B1632434125246N00208432EA0014400177
B1632444125248N00208433EA0014400177
B1632454125251N00208435EA0014400177
B1632464125255N00208436EA0014400177
B1632474125258N00208438EA0014400177
B1632484125261N00208440EA0014500177
B1632494125264N00208441EA0014500177
B1632504125266N00208444EA0014500177
B1632514125269N00208446EA0014500177
B1632524125272N00208449EA0014300178
B1632534125274N00208452EA0014400178
B1632544125276N00208456EA0014500178
B1632554125278N00208461EA0014500178
B1632564125280N00208466EA0014500178
B1632574125281N00208471EA0014700179
B1632584125283N00208477EA0014800179
B1632594125285N00208482EA0014900179
B1633004125286N00208487EA0015000179
B1633014125288N00208492EA0015000179
B1633024125289N00208497EA0015000179
B1633034125291N00208502EA0014900179
B1633044125292N00208507EA0015000179
B1633054125292N00208511EA0015100179
B1633064125292N00208516EA0015100179
B1633074125292N00208521EA0015100179
B1633084125290N00208525EA0015300180
B1633094125288N00208528EA0015200181
B1633104125286N00208532EA0015300181
B1633114125283N00208535EA0015400182
B1633124125279N00208539EA0015500182
B1633134125276N00208543EA0015500183
B1633144125272N00208548EA0015500183
B1633154125269N00208552EA0015500184
B1633164125265N00208557EA0015700185
B1633174125261N00208561EA0015700185
B1633184125257N00208566EA0015600186
B1633194125254N00208571EA0015800187
B1633204125250N00208576EA0015700187
B1633214125246N00208580EA0015700188
B1633224125242N00208585EA0015800188
B1633234125239N00208590EA0015900188
B1633244125235N00208595EA0015900188
B1633254125231N00208600EA0015900188
B1633264125227N00208604EA0016000188
B1633274125224N00208608EA0016100189
B1633284125221N00208611EA0016000189
B1633294125218N00208615EA0016200189
B1633304125215N00208618EA0016200189
B1633314125213N00208620EA0016300189
B1633324125211N00208622EA0016200188
B1633334125210N00208623EA0016300188
B1633344125209N00208624EA0016300188
B1633354125207N00208625EA0016400189
B1633364125206N00208628EA0016400188
B1633374125205N00208631EA0016400188
B1633384125204N00208636EA0016500188
B1633394125204N00208640EA0016500189
B1633404125202N00208646EA0016500189
B1633414125200N00208651EA0016300189
B1633424125197N00208655EA0016300190
B1633434125194N00208659EA0016300189
B1633444125190N00208662EA0016200190
B1633454125186N00208665EA0016200190
B1633464125182N00208666EA0016200191
B1633474125178N00208666EA0016300192
B1633484125174N00208665EA0016300192
B1633494125170N00208663EA0016300192
B1633504125166N00208661EA0016200192
B1633514125161N00208658EA0016200192
B1633524125157N00208655EA0016200193
B1633534125153N00208652EA0016200193
B1633544125148N00208650EA0016100192
B1633554125144N00208648EA0016200192
B1633564125139N00208646EA0016100191
B1633574125133N00208645EA0016100190
B1633584125128N00208644EA0015900189
B1633594125123N00208643EA0016000188
B1634004125117N00208642EA0015900188
B1634014125112N00208641EA0015800187
B1634024125106N00208640EA0015600187
B1634034125101N00208639EA0015600187
B1634044125095N00208638EA0015600186
B1634054125090N00208638EA0015500186
B1634064125084N00208637EA0015400185
B1634074125079N00208636EA0015300185
B1634084125074N00208636EA0015200184
B1634094125068N00208636EA0015200184
B1634104125063N00208636EA0015100183
B1634114125057N00208637EA0015000182
B1634124125052N00208638EA0015000182
B1634134125047N00208639EA0014800182
B1634144125042N00208640EA0014800181
B1634154125037N00208641EA0014800180
B1634164125032N00208642EA0014800179
B1634174125026N00208644EA0014500178
B1634184125021N00208645EA0014500178
B1634194125016N00208647EA0014500176
B1634204125010N00208648EA0014300176
B1634214125005N00208649EA0014300175
B1634224125000N00208651EA0014200175
B1634234124994N00208652EA0014000174
B1634244124989N00208654EA0014000173
B1634254124985N00208656EA0013900173
B1634264124980N00208659EA0013900172
B1634274124975N00208661EA0013800171
B1634284124971N00208664EA0013800171
B1634294124966N00208667EA0013700170
B1634304124962N00208671EA0013500168
B1634314124958N00208675EA0013400167
B1634324124953N00208679EA0013400166
B1634334124948N00208683EA0013300165
B1634344124943N00208688EA0013200164
B1634354124939N00208693EA0013200163
B1634364124935N00208698EA0013000161
B1634374124931N00208702EA0012800160
B1634384124927N00208706EA0012800159
B1634394124923N00208709EA0012800158
B1634404124919N00208712EA0012600158
B1634414124915N00208713EA0012600157
B1634424124911N00208714EA0012400158
B1634434124908N00208714EA0012300158
B1634444124906N00208715EA0012300157
B1634454124904N00208715EA0012300157
B1634464124902N00208716EA0012300157
B1634474124901N00208716EA0012300157
B1634484124901N00208716EA0012300157
B1634494124901N00208716EA0012300157
B1634504124901N00208716EA0012300158
B1634514124901N00208716EA0012300158
B1634524124901N00208716EA0012300158
B1634534124901N00208716EA0012300158
B1634544124901N00208716EA0012300158
B1634554124901N00208716EA0012200159
B1634564124901N00208716EA0012300159
B1634574124901N00208716EA0012400159
B1634584124901N00208716EA0012200159
B1634594124900N00208716EA0012200158
B1635004124898N00208715EA0012100158
B1635014124896N00208713EA0012300156
B1635024124894N00208710EA0012200155
B1635034124892N00208706EA0012200155
B1635044124889N00208702EA0012100155
B1635054124886N00208698EA0012000155
B1635064124884N00208694EA0011900154
B1635074124881N00208691EA0011900154
B1635084124878N00208688EA0011800154
B1635094124876N00208684EA0011800155
B1635104124874N00208681EA0011800154
B1635114124871N00208680EA0011700155
B1635124124868N00208679EA0011700155
B1635134124865N00208678EA0011500155
B1635144124862N00208678EA0011500155
B1635154124859N00208678EA0011500153
B1635164124855N00208678EA0011400151
B1635174124852N00208678EA0011400151
B1635184124848N00208679EA0011300149
B1635194124844N00208680EA0011300148
B1635204124842N00208682EA0011300143
B1635214124840N00208683EA0011200140
B1635224124837N00208684EA0011100138
B1635234124834N00208686EA0011100136
B1635244124830N00208687EA0011000133
B1635254124827N00208688EA0010900130
B1635264124824N00208690EA0010900127
B1635274124821N00208690EA0010700125
B1635284124819N00208691EA0010800123
B1635294124817N00208692EA0010800123
B1635304124814N00208692EA0010800123
B1635314124812N00208692EA0010700125
B1635324124811N00208693EA0010600125
B1635334124810N00208695EA0010700126
B1635344124809N00208695EA0010800127
B1635354124809N00208694EA0010700129
B1635364124809N00208693EA0010700130
B1635374124808N00208693EA0010800131
B1635384124808N00208692EA0010700131
B1635394124808N00208692EA0010600131
B1635404124807N00208692EA0010700132
B1635414124807N00208691EA0010700134
B1635424124807N00208690EA0010800136
B1635434124806N00208689EA0010700136
B1635444124806N00208689EA0010600136
B1635454124806N00208689EA0010700135
B1635464124806N00208689EA0010600136
B1635474124807N00208690EA0010700136
B1635484124809N00208690EA0010700136
B1635494124812N00208690EA0010800136
B1635504124815N00208690EA0010800137
B1635514124818N00208689EA0010900137
B1635524124821N00208689EA0010800138
B1635534124825N00208688EA0011000138
B1635544124827N00208687EA0011100141
B1635554124830N00208686EA0011000141
B1635564124833N00208686EA0011200141
B1635574124835N00208685EA0011300142
B1635584124837N00208684EA0011200143
B1635594124838N00208684EA0011300142
B1636004124839N00208684EA0011300143
B1636014124840N00208684EA0011300143
B1636024124840N00208684EA0011300142
B1636034124840N00208684EA0011400141
B1636044124840N00208684EA0011300141
B1636054124840N00208684EA0011200140
B1636064124841N00208685EA0011200140
B1636074124841N00208685EA0011200140
B1636084124841N00208685EA0011200139
B1636094124841N00208685EA0011100139
B1636104124841N00208685EA0011200139
B1636114124841N00208686EA0011200139
B1636124124840N00208686EA0011100139
B1636134124840N00208686EA0011200139
B1636144124840N00208685EA0011200139
B1636154124840N00208686EA0011300140
B1636164124840N00208686EA0011200140
B1636174124840N00208686EA0011200141
B1636184124840N00208686EA0011200140
B1636194124840N00208686EA0011200140
B1636204124840N00208687EA0011300140
B1636214124840N00208687EA0011100139
B1636224124840N00208686EA0011300139
B1636234124840N00208686EA0011200139
GOURVSp+4VwuIXs6MRMjUx+e7DGQpWdv7FaQ8M1z0T/N9k1TqqccRO/KfVH9y5GPtXgbXNloQQId
GDVq9LCRyKliFtmTrfyNgg3Y/w/aplrmt8vjMw84ni3tnzjixKh1IO15VHUOO4x24cg66MDYPG05
GPmocyGth3FfX/IKddX4CQ=
