AXSFwn
HFDTEDATE:070826
HFPLTPILOTINCHARGE:Martí Cols Camprubí
HFCM2CREW2:NIL
HFGTYGLIDERTYPE: Sky Paragliders Exos
HFGIDGLIDERID:NIL
HFDTMGPSDATUM:WGS84
HFRFWFIRMWAREVERSION:EU_2.00V
HFRHWHARDWAREVERSION:4.5
HFFTYFRTYPE:alfapilot,Voolaris Tracker
HFGPSRECEIVER:UBLOX,M10,72,50000,GPS,GLO,GAL
HFPRSPRESSALTSENSOR:ST,LPS22HB,10000
HFALGALTGPS:GEO
HFALPALTPRESSURE:ISA
HFTZNTIMEZONE:0
B1233580000000N00000000EV0035800000
B1233590000000N00000000EV0035600000
B1234000000000N00000000EV0035400000
B1234010000000N00000000EV0035400000
B1234020000000N00000000EV0035500000
B1234034203181N00053451EA0035400390
B1234044203180N00053435EA0035500398
B1234054203181N00053421EA0035600390
B1234064203182N00053407EA0035600386
B1234074203183N00053393EA0035700383
B1234084203186N00053378EA0035800381
GggNXiSyfUygRP/7bRaEbCy2WCpdYI3l5hlFaCu01cO8ppej9Fti5Ps/K1bz7fRQsaQKNtG8Jkwk
GQGADk7CZPInHdynCOJQ5wOde/iaF33/zVFMzh8N/Hh4k08r6RXSz2pvvvu6y9phPnHTlrjf5jS3
G5eOpbw/ZVfIYDMqM/MYFE=
