AXSFwn
HFDTEDATE:070826
HFPLTPILOTINCHARGE:Martí Cols Camprubí
HFCM2CREW2:NIL
HFGTYGLIDERTYPE:Sky Paragliders Exos 
HFGIDGLIDERID:NIL
HFDTMGPSDATUM:WGS84
HFRFWFIRMWAREVERSION:EU_2.00V
HFRHWHARDWAREVERSION:4.5
HFFTYFRTYPE:alfapilot,Voolaris Tracker
HFGPSRECEIVER:UBLOX,M10,72,50000,GPS,GLO,GAL
HFPRSPRESSALTSENSOR:ST,LPS22HB,10000
HFALGALTGPS:GEO
HFALPALTPRESSURE:ISA
HFTZNTIMEZONE:0
B1017524202763N00044769EA0145001566
B1017534202763N00044769EA0145001566
B1017544202763N00044769EA0145001566
B1017554202763N00044769EA0145001566
B1017564202763N00044769EA0145101566
B1017574202764N00044769EA0145001567
B1017584202764N00044769EA0145101567
B1017594202764N00044770EA0145001567
B1018004202764N00044770EA0144901567
B1018014202763N00044770EA0144901567
B1018024202762N00044770EA0144701566
B1018034202760N00044769EA0144701565
B1018044202758N00044768EA0144601564
B1018054202755N00044766EA0144501563
B1018064202751N00044764EA0144601563
B1018074202748N00044763EA0144701564
B1018084202745N00044762EA0144901565
B1018094202742N00044760EA0144801566
B1018104202738N00044760EA0144701567
B1018114202735N00044760EA0145201568
B1018124202733N00044762EA0145401569
B1018134202730N00044765EA0145301569
B1018144202727N00044767EA0145201569
B1018154202723N00044768EA0145301569
B1018164202719N00044768EA0145301569
B1018174202716N00044768EA0145501571
B1018184202714N00044768EA0145501571
B1018194202712N00044769EA0145501571
B1018204202710N00044771EA0145301569
B1018214202708N00044774EA0145101568
B1018224202705N00044778EA0145101567
B1018234202702N00044781EA0145001566
B1018244202699N00044784EA0145201567
B1018254202696N00044787EA0145101567
B1018264202694N00044790EA0145201567
B1018274202692N00044794EA0145101567
B1018284202689N00044798EA0145101568
B1018294202687N00044803EA0145201568
B1018304202685N00044807EA0145001567
B1018314202683N00044812EA0145001567
B1018324202681N00044818EA0145001566
B1018334202678N00044824EA0145101566
B1018344202676N00044831EA0145201567
B1018354202673N00044837EA0145301568
B1018364202671N00044842EA0145401570
B1018374202668N00044847EA0145501570
B1018384202666N00044852EA0145401570
B1018394202664N00044858EA0145201570
B1018404202662N00044864EA0145401569
B1018414202659N00044870EA0145501570
B1018424202656N00044876EA0145501571
B1018434202654N00044882EA0145701572
B1018444202652N00044886EA0145601573
B1018454202650N00044891EA0145501572
B1018464202648N00044896EA0145401571
B1018474202646N00044903EA0145301570
B1018484202644N00044909EA0145201568
B1018494202642N00044916EA0145301568
B1018504202639N00044922EA0145201567
B1018514202636N00044927EA0145001567
B1018524202634N00044932EA0145201566
B1018534202631N00044938EA0145101567
B1018544202629N00044944EA0145201567
B1018554202627N00044950EA0145101567
B1018564202624N00044956EA0145001566
B1018574202622N00044962EA0144801564
B1018584202620N00044969EA0144601562
B1018594202618N00044976EA0144701561
B1019004202615N00044983EA0144801562
B1019014202612N00044990EA0145101564
B1019024202610N00044997EA0145401568
B1019034202608N00045003EA0145601570
B1019044202608N00045009EA0145601572
B1019054202607N00045016EA0145701572
B1019064202607N00045022EA0145701572
B1019074202606N00045029EA0145701572
B1019084202604N00045035EA0145601572
B1019094202601N00045041EA0145701572
B1019104202599N00045046EA0145801573
B1019114202596N00045051EA0145701573
B1019124202593N00045056EA0145901574
B1019134202590N00045061EA0145801574
B1019144202588N00045066EA0145901575
B1019154202585N00045071EA0145901575
B1019164202583N00045076EA0145901575
B1019174202581N00045081EA0146001575
B1019184202578N00045086EA0145801575
B1019194202576N00045091EA0145801575
B1019204202574N00045096EA0145801574
B1019214202572N00045101EA0145701573
B1019224202569N00045107EA0145801573
B1019234202567N00045112EA0145901574
B1019244202565N00045118EA0146001575
B1019254202563N00045123EA0146101576
B1019264202562N00045127EA0146101576
B1019274202561N00045133EA0146001576
B1019284202560N00045139EA0146201577
B1019294202558N00045146EA0146301578
B1019304202556N00045151EA0146501581
B1019314202553N00045155EA0146801583
B1019324202550N00045157EA0146901584
B1019334202547N00045158EA0146901584
B1019344202543N00045157EA0146701584
B1019354202540N00045155EA0146601583
B1019364202538N00045151EA0146701583
B1019374202537N00045145EA0146501582
B1019384202536N00045140EA0146401581
B1019394202536N00045135EA0146401580
B1019404202535N00045130EA0146301579
B1019414202534N00045125EA0146301579
B1019424202533N00045120EA0146101578
B1019434202533N00045115EA0146101577
B1019444202533N00045109EA0146001576
B1019454202534N00045103EA0145801575
B1019464202536N00045097EA0145901574
B1019474202538N00045092EA0145901574
B1019484202542N00045087EA0145801574
B1019494202546N00045084EA0145801573
B1019504202551N00045080EA0145601572
B1019514202556N00045075EA0145501572
B1019524202561N00045071EA0145701572
B1019534202566N00045067EA0145701573
B1019544202571N00045063EA0145701574
B1019554202576N00045058EA0145701574
B1019564202580N00045053EA0145701574
B1019574202583N00045047EA0145901574
B1019584202586N00045040EA0145801575
B1019594202589N00045033EA0145901575
B1020004202592N00045026EA0146001576
B1020014202595N00045019EA0146101577
B1020024202598N00045012EA0146301580
B1020034202601N00045006EA0146601582
B1020044202601N00045001EA0146701583
B1020054202600N00044997EA0146701584
B1020064202597N00044995EA0146601584
B1020074202594N00044995EA0146701584
B1020084202590N00044998EA0146901585
B1020094202587N00045002EA0147201587
B1020104202584N00045005EA0147301590
B1020114202582N00045007EA0147601592
B1020124202580N00045009EA0147701594
B1020134202577N00045011EA0147801595
B1020144202575N00045014EA0147901596
B1020154202572N00045015EA0147901597
B1020164202568N00045015EA0148101597
B1020174202566N00045015EA0148101598
B1020184202564N00045016EA0147901598
B1020194202562N00045019EA0147801597
B1020204202561N00045024EA0147701595
B1020214202560N00045031EA0147801595
B1020224202560N00045038EA0147901596
B1020234202561N00045044EA0148101597
B1020244202564N00045050EA0148101598
B1020254202568N00045054EA0147901597
B1020264202574N00045057EA0148101597
B1020274202580N00045058EA0148101598
B1020284202587N00045058EA0148301600
B1020294202593N00045056EA0148501602
B1020304202597N00045052EA0148701604
B1020314202601N00045048EA0148801605
B1020324202604N00045042EA0148801606
B1020334202605N00045036EA0149001608
B1020344202604N00045031EA0149201610
B1020354202601N00045028EA0149301611
B1020364202598N00045028EA0149501612
B1020374202594N00045032EA0149501613
B1020384202591N00045037EA0149601614
B1020394202591N00045044EA0149601615
B1020404202592N00045051EA0149601615
B1020414202596N00045058EA0149701615
B1020424202602N00045063EA0149801616
B1020434202610N00045064EA0150001618
B1020444202616N00045062EA0150201620
B1020454202622N00045059EA0150401623
B1020464202627N00045055EA0150701625
B1020474202631N00045052EA0150801627
B1020484202634N00045047EA0150901628
B1020494202637N00045042EA0151001629
B1020504202639N00045036EA0151301631
B1020514202640N00045030EA0151301632
B1020524202639N00045025EA0151301633
B1020534202637N00045021EA0151501634
B1020544202634N00045019EA0151401634
B1020554202630N00045019EA0151601635
B1020564202627N00045022EA0151701636
B1020574202625N00045025EA0151701637
B1020584202623N00045030EA0151701637
B1020594202623N00045035EA0151601637
B1021004202623N00045041EA0151601636
B1021014202624N00045049EA0151501635
B1021024202627N00045056EA0151501635
B1021034202631N00045063EA0151601635
B1021044202636N00045069EA0151601635
B1021054202642N00045073EA0151601636
B1021064202649N00045074EA0151901638
B1021074202655N00045073EA0151901639
B1021084202661N00045069EA0152101639
B1021094202666N00045064EA0152001639
B1021104202669N00045059EA0152101640
B1021114202670N00045055EA0152401642
B1021124202671N00045050EA0152201643
B1021134202672N00045046EA0152301643
B1021144202674N00045042EA0152301643
B1021154202675N00045036EA0152301642
B1021164202677N00045031EA0152301642
B1021174202678N00045025EA0152201641
B1021184202680N00045019EA0152101641
B1021194202681N00045013EA0152101641
B1021204202682N00045009EA0151901640
B1021214202683N00045005EA0151801638
B1021224202685N00045000EA0151601636
B1021234202685N00044996EA0151401634
B1021244202686N00044990EA0151301632
B1021254202687N00044984EA0151301632
B1021264202689N00044977EA0151201631
B1021274202692N00044971EA0151201631
B1021284202695N00044965EA0151201631
B1021294202698N00044958EA0151201631
B1021304202701N00044952EA0151201632
B1021314202706N00044946EA0151301632
B1021324202710N00044940EA0151401633
B1021334202714N00044934EA0151601634
B1021344202716N00044929EA0151501634
B1021354202717N00044924EA0151401633
B1021364202718N00044920EA0151101632
B1021374202718N00044916EA0151201631
B1021384202716N00044913EA0151101631
B1021394202715N00044913EA0151101630
B1021404202713N00044915EA0150901629
B1021414202711N00044918EA0150901627
B1021424202709N00044921EA0150701627
B1021434202707N00044925EA0150701626
B1021444202705N00044929EA0150701625
B1021454202704N00044933EA0150701625
B1021464202702N00044936EA0150601625
B1021474202701N00044939EA0150501624
B1021484202699N00044942EA0150501623
B1021494202697N00044945EA0150401622
B1021504202695N00044949EA0150401622
B1021514202693N00044953EA0150301622
B1021524202692N00044956EA0150301622
B1021534202690N00044959EA0150201622
B1021544202688N00044962EA0150301622
B1021554202686N00044965EA0150401622
B1021564202683N00044968EA0150701624
B1021574202681N00044971EA0150801625
B1021584202680N00044976EA0150801626
B1021594202679N00044980EA0150801627
B1022004202678N00044983EA0150701627
B1022014202676N00044986EA0150701626
B1022024202674N00044989EA0150601625
B1022034202672N00044992EA0150701626
B1022044202670N00044995EA0150701626
B1022054202668N00044999EA0150801626
B1022064202667N00045002EA0150701626
B1022074202665N00045006EA0150601626
B1022084202663N00045011EA0150601626
B1022094202662N00045016EA0150701626
B1022104202660N00045021EA0150701626
B1022114202658N00045025EA0150801627
B1022124202657N00045029EA0150801627
B1022134202656N00045033EA0150801628
B1022144202654N00045036EA0150701627
B1022154202653N00045040EA0150701627
B1022164202651N00045043EA0150701626
B1022174202649N00045047EA0150701625
B1022184202646N00045050EA0150501625
B1022194202644N00045053EA0150501625
B1022204202641N00045056EA0150501624
B1022214202638N00045059EA0150501624
B1022224202635N00045063EA0150401623
B1022234202633N00045067EA0150501623
B1022244202630N00045070EA0150301623
B1022254202626N00045072EA0150401622
B1022264202623N00045075EA0150201622
B1022274202620N00045077EA0150301623
B1022284202617N00045080EA0150201623
B1022294202614N00045083EA0150301622
B1022304202611N00045086EA0150301622
B1022314202609N00045090EA0150201622
B1022324202606N00045094EA0150301622
B1022334202604N00045098EA0150301622
B1022344202602N00045102EA0150301622
B1022354202599N00045106EA0150401623
B1022364202597N00045110EA0150401623
B1022374202596N00045115EA0150401623
B1022384202594N00045119EA0150301623
B1022394202592N00045124EA0150201622
B1022404202590N00045129EA0150301622
B1022414202587N00045134EA0150201622
B1022424202584N00045139EA0150101621
B1022434202582N00045144EA0150301621
B1022444202580N00045150EA0150101621
B1022454202578N00045155EA0150101621
B1022464202577N00045161EA0150101620
B1022474202575N00045167EA0150001620
B1022484202573N00045173EA0150201620
B1022494202570N00045178EA0150201621
B1022504202568N00045184EA0150401623
B1022514202566N00045190EA0150501624
B1022524202565N00045196EA0150601626
B1022534202565N00045202EA0150701626
B1022544202565N00045207EA0150601625
B1022554202563N00045213EA0150201622
B1022564202560N00045217EA0150001619
B1022574202555N00045220EA0149801618
B1022584202552N00045220EA0149701616
B1022594202550N00045216EA0149401613
B1023004202551N00045209EA0149301611
B1023014202553N00045203EA0149301610
B1023024202556N00045198EA0149501612
B1023034202558N00045193EA0149601614
B1023044202559N00045190EA0149601615
B1023054202561N00045186EA0149501615
B1023064202562N00045183EA0149601615
B1023074202563N00045178EA0149501614
B1023084202566N00045173EA0149601614
B1023094202568N00045168EA0149701615
B1023104202571N00045163EA0149701616
B1023114202574N00045158EA0149701617
B1023124202576N00045154EA0149901618
B1023134202578N00045150EA0150001618
B1023144202581N00045144EA0149801618
B1023154202583N00045138EA0149901618
B1023164202587N00045132EA0150001618
B1023174202589N00045127EA0149901618
B1023184202591N00045121EA0149901618
B1023194202591N00045115EA0149801617
B1023204202588N00045112EA0149901617
B1023214202584N00045110EA0149701618
B1023224202580N00045112EA0150001619
B1023234202577N00045115EA0150201621
B1023244202575N00045119EA0150201621
B1023254202574N00045125EA0150101621
B1023264202574N00045131EA0150101621
B1023274202573N00045137EA0150101620
B1023284202571N00045144EA0150001619
B1023294202570N00045151EA0149901619
B1023304202568N00045157EA0149801618
B1023314202566N00045164EA0149901618
B1023324202565N00045171EA0149901618
B1023334202564N00045177EA0149801617
B1023344202563N00045185EA0149501615
B1023354202561N00045193EA0149501614
B1023364202559N00045202EA0149501613
B1023374202558N00045210EA0149601614
B1023384202557N00045218EA0149601615
B1023394202556N00045224EA0149701616
B1023404202555N00045230EA0149501615
B1023414202553N00045237EA0149301613
B1023424202551N00045244EA0149101611
B1023434202548N00045252EA0149001609
B1023444202546N00045259EA0149001609
B1023454202543N00045265EA0148901608
B1023464202541N00045272EA0148701607
B1023474202539N00045278EA0148601605
B1023484202536N00045284EA0148401603
B1023494202533N00045290EA0148301601
B1023504202529N00045297EA0148201600
B1023514202526N00045303EA0148101600
B1023524202523N00045310EA0148201599
B1023534202520N00045316EA0148101598
B1023544202516N00045323EA0148001598
B1023554202513N00045330EA0148001597
B1023564202510N00045337EA0148001598
B1023574202507N00045343EA0148001599
B1023584202505N00045348EA0148101599
B1023594202503N00045353EA0148101599
B1024004202501N00045359EA0148101599
B1024014202497N00045365EA0148001598
B1024024202493N00045371EA0147701596
B1024034202490N00045378EA0147801596
B1024044202487N00045385EA0147701596
B1024054202484N00045393EA0147801595
B1024064202481N00045400EA0147901595
B1024074202478N00045408EA0147801595
B1024084202474N00045416EA0147901596
B1024094202471N00045423EA0148001597
B1024104202469N00045430EA0148201598
B1024114202467N00045436EA0148301600
B1024124202465N00045441EA0148301601
B1024134202463N00045447EA0148501602
B1024144202461N00045453EA0148501603
B1024154202460N00045459EA0148701604
B1024164202458N00045466EA0148801606
B1024174202457N00045473EA0149001608
B1024184202456N00045479EA0149201610
B1024194202456N00045486EA0149301611
B1024204202456N00045494EA0149401612
B1024214202455N00045501EA0149401612
B1024224202453N00045509EA0149601614
B1024234202451N00045515EA0149701615
B1024244202449N00045521EA0149701615
B1024254202447N00045527EA0149601614
B1024264202444N00045534EA0149601614
B1024274202441N00045540EA0149701615
B1024284202438N00045545EA0149701616
B1024294202435N00045549EA0149701616
B1024304202433N00045553EA0149701615
B1024314202431N00045558EA0149601615
B1024324202428N00045563EA0149601614
B1024334202425N00045568EA0149801615
B1024344202421N00045572EA0149801616
B1024354202417N00045573EA0150001618
B1024364202413N00045572EA0150201620
B1024374202410N00045569EA0150401621
B1024384202410N00045564EA0150401622
B1024394202409N00045559EA0150401623
B1024404202408N00045554EA0150401623
B1024414202407N00045550EA0150501623
B1024424202404N00045545EA0150501623
B1024434202402N00045541EA0150601624
B1024444202401N00045536EA0150501624
B1024454202401N00045531EA0150301623
B1024464202402N00045526EA0150201621
B1024474202403N00045521EA0150101620
B1024484202405N00045516EA0149901619
B1024494202408N00045511EA0150001618
B1024504202411N00045508EA0149801617
B1024514202414N00045505EA0149501616
B1024524202417N00045501EA0149701615
B1024534202421N00045498EA0149701615
B1024544202424N00045493EA0149901616
B1024554202425N00045489EA0149801617
B1024564202426N00045485EA0149701616
B1024574202426N00045480EA0149401614
B1024584202425N00045475EA0149201612
B1024594202426N00045469EA0149101610
B1025004202427N00045464EA0149101609
B1025014202430N00045459EA0149001608
B1025024202434N00045456EA0148901607
B1025034202437N00045453EA0148801606
B1025044202441N00045451EA0148601605
B1025054202445N00045449EA0148401603
B1025064202449N00045447EA0148201601
B1025074202454N00045444EA0148201599
B1025084202458N00045440EA0148101599
B1025094202462N00045437EA0148101599
B1025104202465N00045434EA0147901599
B1025114202469N00045431EA0147901597
B1025124202472N00045428EA0147701595
B1025134202476N00045424EA0147401592
B1025144202478N00045419EA0147401590
B1025154202481N00045413EA0147201589
B1025164202483N00045407EA0147301589
B1025174202486N00045401EA0147301590
B1025184202489N00045395EA0147501592
B1025194202492N00045390EA0147601594
B1025204202494N00045385EA0148001596
B1025214202496N00045380EA0148101598
B1025224202499N00045376EA0148201600
B1025234202502N00045372EA0148301601
B1025244202505N00045369EA0148501603
B1025254202508N00045365EA0148601604
B1025264202511N00045361EA0148801606
B1025274202512N00045356EA0148901607
B1025284202512N00045351EA0148901608
B1025294202509N00045348EA0149101609
B1025304202504N00045348EA0149101610
B1025314202500N00045351EA0149201611
B1025324202496N00045356EA0149501612
B1025334202494N00045363EA0149701614
B1025344202493N00045372EA0149701616
B1025354202494N00045380EA0150001618
B1025364202495N00045387EA0150101620
B1025374202496N00045394EA0150201621
B1025384202496N00045400EA0150301622
B1025394202496N00045407EA0150301621
B1025404202495N00045414EA0150201621
B1025414202492N00045420EA0150301621
B1025424202489N00045424EA0150101621
B1025434202485N00045427EA0150101620
B1025444202481N00045427EA0149901619
B1025454202478N00045424EA0149901618
B1025464202477N00045420EA0149901617
B1025474202477N00045415EA0149701617
B1025484202479N00045410EA0149701616
B1025494202482N00045405EA0149601616
B1025504202485N00045401EA0149701616
B1025514202489N00045397EA0149801616
B1025524202493N00045394EA0149801617
B1025534202497N00045390EA0149901618
B1025544202500N00045387EA0150101619
B1025554202504N00045383EA0150001619
B1025564202508N00045380EA0149901619
B1025574202511N00045376EA0150001620
B1025584202514N00045372EA0150201621
B1025594202517N00045368EA0150201622
B1026004202518N00045364EA0150301622
B1026014202517N00045360EA0150201622
B1026024202514N00045357EA0150101621
B1026034202510N00045357EA0150101621
B1026044202505N00045359EA0150201620
B1026054202501N00045364EA0150101621
B1026064202499N00045369EA0150201622
B1026074202497N00045376EA0150401622
B1026084202495N00045382EA0150401623
B1026094202494N00045389EA0150401623
B1026104202493N00045396EA0150301623
B1026114202492N00045403EA0150201622
B1026124202491N00045411EA0150201621
B1026134202489N00045418EA0150301621
B1026144202488N00045426EA0150201621
B1026154202487N00045433EA0150101621
B1026164202487N00045440EA0150301622
B1026174202486N00045447EA0150201621
B1026184202485N00045454EA0150201621
B1026194202483N00045461EA0150101620
B1026204202481N00045469EA0150001620
B1026214202479N00045476EA0149901620
B1026224202476N00045483EA0150001619
B1026234202473N00045490EA0150001619
B1026244202469N00045496EA0150001619
B1026254202466N00045502EA0150001619
B1026264202462N00045507EA0149901619
B1026274202459N00045513EA0149901618
B1026284202456N00045518EA0149901618
B1026294202452N00045523EA0149701617
B1026304202448N00045527EA0149701616
B1026314202445N00045532EA0149601615
B1026324202441N00045537EA0149601614
B1026334202438N00045542EA0149501614
B1026344202434N00045546EA0149501613
B1026354202430N00045551EA0149301612
B1026364202427N00045556EA0149201611
B1026374202423N00045561EA0149101610
B1026384202420N00045566EA0149101609
B1026394202417N00045572EA0148901609
B1026404202414N00045578EA0148901608
B1026414202412N00045584EA0148901607
B1026424202409N00045590EA0148701606
B1026434202407N00045596EA0148701605
B1026444202403N00045603EA0148601604
B1026454202400N00045609EA0148501604
B1026464202397N00045615EA0148601603
B1026474202394N00045621EA0148501603
B1026484202392N00045628EA0148401602
B1026494202389N00045635EA0148201601
B1026504202386N00045641EA0148201599
B1026514202383N00045647EA0148001598
B1026524202379N00045654EA0147901597
B1026534202375N00045660EA0147801596
B1026544202372N00045667EA0147701595
B1026554202368N00045673EA0147701594
B1026564202365N00045681EA0147601593
B1026574202362N00045689EA0147701594
B1026584202359N00045697EA0147901596
B1026594202356N00045704EA0148201598
B1027004202352N00045710EA0148201600
B1027014202349N00045715EA0148201600
B1027024202345N00045718EA0148001598
B1027034202341N00045719EA0147901596
B1027044202337N00045718EA0147601594
B1027054202335N00045713EA0147501592
B1027064202336N00045708EA0147301590
B1027074202338N00045704EA0147201589
B1027084202341N00045702EA0147201589
B1027094202343N00045699EA0147201590
B1027104202344N00045696EA0147401590
B1027114202345N00045692EA0147301590
B1027124202346N00045688EA0147301590
B1027134202348N00045684EA0147301590
B1027144202349N00045680EA0147401591
B1027154202351N00045676EA0147401591
B1027164202353N00045673EA0147401592
B1027174202355N00045670EA0147501592
B1027184202359N00045667EA0147401592
B1027194202362N00045663EA0147601593
B1027204202364N00045658EA0147801595
B1027214202367N00045654EA0147901596
B1027224202369N00045650EA0147801596
B1027234202372N00045647EA0147701595
B1027244202374N00045643EA0147401592
B1027254202375N00045638EA0146901589
B1027264202376N00045633EA0146901586
B1027274202378N00045628EA0146601584
B1027284202379N00045623EA0146301582
B1027294202381N00045619EA0146301581
B1027304202382N00045615EA0146101579
B1027314202383N00045610EA0145901577
B1027324202384N00045606EA0145701575
B1027334202384N00045600EA0145401573
B1027344202384N00045595EA0145301571
B1027354202384N00045590EA0145401570
B1027364202384N00045584EA0145401570
B1027374202385N00045578EA0145401571
B1027384202386N00045572EA0145401571
B1027394202388N00045567EA0145401571
B1027404202391N00045563EA0145501572
B1027414202394N00045560EA0145501571
B1027424202396N00045556EA0145301570
B1027434202398N00045551EA0145201569
B1027444202398N00045546EA0145201569
B1027454202399N00045540EA0145101568
B1027464202400N00045534EA0145201568
B1027474202401N00045529EA0145101569
B1027484202402N00045523EA0145301570
B1027494202403N00045519EA0145301571
B1027504202405N00045514EA0145501572
B1027514202408N00045510EA0145601572
B1027524202411N00045506EA0145501572
B1027534202414N00045501EA0145601573
B1027544202418N00045498EA0145701574
B1027554202420N00045494EA0145701575
B1027564202423N00045491EA0145901575
B1027574202426N00045488EA0145701574
B1027584202428N00045484EA0145701573
B1027594202431N00045479EA0145701573
B1028004202433N00045474EA0145701574
B1028014202436N00045469EA0146101576
B1028024202438N00045464EA0146101578
B1028034202441N00045459EA0146301580
B1028044202442N00045455EA0146701583
B1028054202444N00045450EA0146801585
B1028064202445N00045445EA0147101588
B1028074202446N00045441EA0147301590
B1028084202446N00045438EA0147401592
B1028094202445N00045435EA0147401592
B1028104202445N00045432EA0147301592
B1028114202444N00045428EA0147301591
B1028124202442N00045425EA0147301591
B1028134202440N00045421EA0147301591
B1028144202437N00045418EA0147401591
B1028154202434N00045415EA0147401592
B1028164202431N00045413EA0147401592
B1028174202429N00045412EA0147401592
B1028184202426N00045410EA0147301592
B1028194202423N00045409EA0147201590
B1028204202419N00045407EA0147101590
B1028214202416N00045406EA0147201590
B1028224202412N00045404EA0147101589
B1028234202408N00045402EA0147101588
B1028244202405N00045400EA0147101588
B1028254202401N00045400EA0147001588
B1028264202397N00045401EA0147201589
B1028274202392N00045405EA0147401591
B1028284202389N00045410EA0147501592
B1028294202388N00045416EA0147501593
B1028304202388N00045423EA0147401592
B1028314202389N00045430EA0147401591
B1028324202391N00045438EA0147501591
B1028334202393N00045446EA0147301591
B1028344202396N00045453EA0147401591
B1028354202399N00045459EA0147201591
B1028364202404N00045464EA0147201589
B1028374202409N00045468EA0147001588
B1028384202415N00045471EA0147101588
B1028394202421N00045472EA0147301590
B1028404202427N00045471EA0147401591
B1028414202432N00045470EA0147401592
B1028424202436N00045467EA0147501593
B1028434202440N00045465EA0147601594
B1028444202445N00045462EA0147601594
B1028454202449N00045459EA0147701595
B1028464202453N00045455EA0147701595
B1028474202456N00045450EA0147701595
B1028484202459N00045446EA0147701595
B1028494202462N00045441EA0147701594
B1028504202465N00045436EA0147701594
B1028514202468N00045431EA0147701594
B1028524202471N00045426EA0147701595
B1028534202473N00045420EA0147801596
B1028544202476N00045415EA0148001597
B1028554202478N00045411EA0147801597
B1028564202480N00045406EA0147701596
B1028574202482N00045402EA0147501594
B1028584202484N00045397EA0147301591
B1028594202484N00045392EA0147101589
B1029004202485N00045386EA0147001588
B1029014202486N00045380EA0146901587
B1029024202488N00045375EA0147001587
B1029034202489N00045370EA0146901587
B1029044202491N00045365EA0147001588
B1029054202494N00045360EA0147201589
B1029064202497N00045356EA0147301590
B1029074202501N00045353EA0147501591
B1029084202505N00045349EA0147401592
B1029094202508N00045344EA0147601594
B1029104202510N00045339EA0147901597
B1029114202511N00045333EA0148001598
B1029124202510N00045329EA0148101598
B1029134202508N00045326EA0148001597
B1029144202504N00045325EA0148001597
B1029154202500N00045327EA0148001597
B1029164202497N00045331EA0147901597
B1029174202496N00045336EA0148001598
B1029184202496N00045343EA0148101598
B1029194202496N00045349EA0148301599
B1029204202497N00045356EA0148201600
B1029214202497N00045363EA0148301601
B1029224202497N00045369EA0148201601
B1029234202496N00045374EA0148101600
B1029244202493N00045378EA0148101599
B1029254202490N00045381EA0148001597
B1029264202486N00045382EA0147701595
B1029274202482N00045380EA0147601593
B1029284202480N00045374EA0147301590
B1029294202479N00045367EA0147401591
B1029304202481N00045360EA0147601594
B1029314202483N00045355EA0148001597
B1029324202485N00045351EA0148201599
B1029334202486N00045348EA0148101599
B1029344202488N00045344EA0147901598
B1029354202490N00045340EA0147901596
B1029364202492N00045335EA0147701595
B1029374202495N00045329EA0147801595
B1029384202498N00045323EA0147801595
B1029394202501N00045318EA0147801595
B1029404202504N00045313EA0147801595
B1029414202507N00045308EA0147701595
B1029424202510N00045303EA0147801596
B1029434202514N00045298EA0147801596
B1029444202517N00045292EA0147801597
B1029454202519N00045287EA0148101597
B1029464202522N00045282EA0148101598
B1029474202525N00045277EA0148101598
B1029484202528N00045273EA0148201599
B1029494202530N00045268EA0148201600
B1029504202532N00045263EA0148401601
B1029514202533N00045258EA0148401602
B1029524202535N00045253EA0148301602
B1029534202537N00045248EA0148501602
B1029544202538N00045242EA0148401603
B1029554202541N00045236EA0148601603
B1029564202543N00045230EA0148801605
B1029574202545N00045224EA0148801606
B1029584202545N00045219EA0148701607
B1029594202545N00045214EA0148701606
B1030004202545N00045209EA0148701606
B1030014202546N00045204EA0148501605
B1030024202546N00045198EA0148501604
B1030034202548N00045192EA0148401603
B1030044202549N00045186EA0148401603
B1030054202551N00045180EA0148501603
B1030064202554N00045174EA0148501602
B1030074202556N00045168EA0148301602
B1030084202559N00045163EA0148201601
B1030094202562N00045157EA0148201600
B1030104202566N00045150EA0148101599
B1030114202569N00045144EA0148001599
B1030124202573N00045137EA0148001599
B1030134202577N00045131EA0148101599
B1030144202580N00045124EA0148101599
B1030154202583N00045117EA0148201600
B1030164202587N00045109EA0148301601
B1030174202591N00045102EA0148501603
B1030184202594N00045096EA0148701605
B1030194202598N00045089EA0148901607
B1030204202601N00045083EA0149101609
B1030214202604N00045077EA0149401611
B1030224202606N00045071EA0149401613
B1030234202607N00045066EA0149501613
B1030244202606N00045060EA0149501614
B1030254202606N00045054EA0149601615
B1030264202604N00045048EA0149801616
B1030274202603N00045044EA0150001619
B1030284202601N00045040EA0150301621
B1030294202600N00045036EA0150401623
B1030304202599N00045033EA0150401623
B1030314202599N00045030EA0150301623
B1030324202598N00045026EA0150201622
B1030334202597N00045022EA0150301622
B1030344202596N00045016EA0150401623
B1030354202596N00045010EA0150701624
B1030364202596N00045004EA0150801626
B1030374202596N00044998EA0150901628
B1030384202596N00044992EA0150901630
B1030394202596N00044987EA0151001630
B1030404202596N00044981EA0150801629
B1030414202597N00044975EA0150801628
B1030424202599N00044968EA0150801628
B1030434202601N00044961EA0151001630
B1030444202603N00044954EA0151201631
B1030454202606N00044947EA0151101630
B1030464202608N00044941EA0150901630
B1030474202611N00044936EA0150801629
B1030484202613N00044930EA0150801628
B1030494202615N00044925EA0150601627
B1030504202617N00044919EA0150501626
B1030514202620N00044914EA0150501626
B1030524202624N00044909EA0150401625
B1030534202628N00044905EA0150401625
B1030544202632N00044900EA0150601626
B1030554202636N00044896EA0150701627
B1030564202639N00044891EA0150801628
B1030574202642N00044888EA0150901628
B1030584202645N00044884EA0150901628
B1030594202647N00044879EA0150801628
B1031004202649N00044874EA0150601627
B1031014202652N00044869EA0150501625
B1031024202655N00044864EA0150501624
B1031034202658N00044858EA0150401623
B1031044202661N00044853EA0150301623
B1031054202665N00044848EA0150301623
B1031064202668N00044844EA0150401623
B1031074202671N00044839EA0150301623
B1031084202674N00044834EA0150301623
B1031094202676N00044830EA0150401624
B1031104202679N00044826EA0150401624
B1031114202683N00044821EA0150301623
B1031124202686N00044817EA0150201622
B1031134202689N00044812EA0150201622
B1031144202693N00044808EA0150101621
B1031154202696N00044804EA0150101621
B1031164202700N00044800EA0150001620
B1031174202704N00044796EA0150101620
B1031184202707N00044791EA0150001620
B1031194202711N00044786EA0149901619
B1031204202714N00044781EA0149801618
B1031214202718N00044776EA0149601615
B1031224202722N00044770EA0149401613
B1031234202726N00044764EA0149301612
B1031244202729N00044758EA0149201611
B1031254202733N00044753EA0149201611
B1031264202737N00044749EA0149101610
B1031274202741N00044745EA0148901608
B1031284202745N00044741EA0148601606
B1031294202748N00044737EA0148301603
B1031304202751N00044732EA0148201600
B1031314202755N00044726EA0148001599
B1031324202758N00044720EA0148001598
B1031334202762N00044714EA0147901597
B1031344202766N00044709EA0148001597
B1031354202770N00044704EA0147901597
B1031364202774N00044698EA0147901597
B1031374202778N00044693EA0147901597
B1031384202782N00044688EA0148101598
B1031394202786N00044683EA0148001598
B1031404202791N00044680EA0148001598
B1031414202797N00044676EA0148001598
B1031424202803N00044672EA0148101599
B1031434202808N00044669EA0148101599
B1031444202812N00044665EA0148201600
B1031454202816N00044661EA0148201601
B1031464202819N00044657EA0148201601
B1031474202821N00044652EA0148301602
B1031484202822N00044647EA0148501604
B1031494202823N00044642EA0148701605
B1031504202822N00044638EA0148701606
B1031514202821N00044634EA0148901607
B1031524202819N00044629EA0149001608
B1031534202818N00044625EA0149201609
B1031544202816N00044620EA0149301611
B1031554202815N00044617EA0149301611
B1031564202813N00044613EA0149101611
B1031574202812N00044610EA0149101610
B1031584202811N00044606EA0149001609
B1031594202811N00044603EA0148901608
B1032004202811N00044598EA0148901608
B1032014202812N00044593EA0148801608
B1032024202814N00044588EA0148801608
B1032034202816N00044584EA0148801606
B1032044202817N00044580EA0148501604
B1032054202817N00044575EA0148201601
B1032064202817N00044570EA0148001599
B1032074202816N00044564EA0148001598
B1032084202816N00044559EA0147801597
B1032094202816N00044554EA0148001597
B1032104202817N00044548EA0147901596
B1032114202819N00044543EA0147901596
B1032124202820N00044537EA0147801596
B1032134202821N00044531EA0148101597
B1032144202823N00044525EA0148301599
B1032154202824N00044520EA0148601603
B1032164202826N00044515EA0148901606
B1032174202828N00044511EA0149201610
B1032184202829N00044507EA0149301612
B1032194202830N00044504EA0149501613
B1032204202831N00044501EA0149401614
B1032214202830N00044498EA0149401613
B1032224202828N00044494EA0149501613
B1032234202826N00044491EA0149501613
B1032244202822N00044490EA0149601615
B1032254202818N00044492EA0149601615
B1032264202815N00044497EA0149601614
B1032274202813N00044505EA0149501614
B1032284202814N00044514EA0149401613
B1032294202819N00044522EA0149201611
B1032304202826N00044527EA0149201610
B1032314202833N00044527EA0149101609
B1032324202839N00044522EA0149201610
B1032334202842N00044517EA0149301611
B1032344202844N00044511EA0149401612
B1032354202845N00044506EA0149601613
B1032364202845N00044500EA0149501615
B1032374202845N00044496EA0149801616
B1032384202845N00044491EA0149801618
B1032394202846N00044488EA0150101619
B1032404202847N00044484EA0150101620
B1032414202848N00044480EA0150101620
B1032424202848N00044476EA0150101619
B1032434202847N00044472EA0150001619
B1032444202845N00044470EA0150001620
B1032454202842N00044468EA0150101620
B1032464202838N00044469EA0150001620
B1032474202835N00044471EA0150101620
B1032484202832N00044475EA0150001620
B1032494202829N00044481EA0150001619
B1032504202828N00044488EA0150001619
B1032514202828N00044497EA0150001619
B1032524202830N00044505EA0149901618
B1032534202834N00044511EA0149801617
B1032544202841N00044516EA0149601616
B1032554202848N00044518EA0149701616
B1032564202854N00044517EA0149801617
B1032574202859N00044515EA0149801618
B1032584202863N00044512EA0150001618
B1032594202864N00044508EA0149901617
B1033004202865N00044504EA0149701616
B1033014202865N00044500EA0149701616
B1033024202864N00044496EA0149801616
B1033034202864N00044492EA0149901617
B1033044202864N00044488EA0149901617
B1033054202863N00044483EA0150001618
B1033064202863N00044479EA0150101618
B1033074202863N00044474EA0150101619
B1033084202862N00044470EA0150101620
B1033094202862N00044465EA0150201621
B1033104202863N00044461EA0150301622
B1033114202863N00044456EA0150401623
B1033124202863N00044451EA0150501624
B1033134202863N00044447EA0150701626
B1033144202863N00044442EA0150801627
B1033154202863N00044438EA0150801628
B1033164202864N00044433EA0150901628
B1033174202865N00044428EA0151001629
B1033184202866N00044423EA0150901629
B1033194202867N00044419EA0151201629
B1033204202867N00044414EA0151101630
B1033214202868N00044409EA0151101631
B1033224202868N00044404EA0151201631
B1033234202869N00044399EA0151201631
B1033244202870N00044394EA0151201631
B1033254202872N00044389EA0151201631
B1033264202873N00044384EA0151001631
B1033274202874N00044378EA0151001630
B1033284202875N00044372EA0151001630
B1033294202876N00044366EA0151001630
B1033304202877N00044360EA0151001630
B1033314202879N00044355EA0151001629
B1033324202880N00044349EA0150801628
B1033334202882N00044343EA0150701627
B1033344202884N00044337EA0150601626
B1033354202885N00044331EA0150501625
B1033364202886N00044324EA0150501625
B1033374202887N00044318EA0150501624
B1033384202888N00044313EA0150501624
B1033394202888N00044307EA0150301623
B1033404202888N00044302EA0150201622
B1033414202888N00044296EA0150001621
B1033424202887N00044290EA0150001619
B1033434202886N00044284EA0149901618
B1033444202885N00044278EA0149701616
B1033454202885N00044271EA0149601615
B1033464202884N00044265EA0149301613
B1033474202883N00044259EA0149001611
B1033484202883N00044252EA0149001609
B1033494202882N00044245EA0149001608
B1033504202882N00044237EA0148901608
B1033514202881N00044231EA0148701607
B1033524202880N00044225EA0148701607
B1033534202878N00044221EA0148801606
B1033544202875N00044218EA0148401604
B1033554202871N00044218EA0148201602
B1033564202867N00044220EA0148101600
B1033574202863N00044224EA0148001599
B1033584202861N00044229EA0147901598
B1033594202860N00044236EA0147801597
B1034004202859N00044242EA0147701596
B1034014202859N00044248EA0147601595
B1034024202860N00044255EA0147401593
B1034034202860N00044262EA0147301592
B1034044202859N00044268EA0147301591
B1034054202859N00044275EA0147101589
B1034064202859N00044283EA0147001588
B1034074202858N00044290EA0146701586
B1034084202857N00044299EA0146701584
B1034094202855N00044308EA0146601584
B1034104202853N00044316EA0146701584
B1034114202851N00044323EA0146701585
B1034124202850N00044330EA0146701585
B1034134202848N00044336EA0146501585
B1034144202847N00044343EA0146601583
B1034154202845N00044350EA0146401581
B1034164202844N00044358EA0146401580
B1034174202843N00044366EA0146001578
B1034184202841N00044374EA0146101577
B1034194202840N00044382EA0145801575
B1034204202838N00044389EA0145501573
B1034214202836N00044398EA0145501571
B1034224202834N00044407EA0145301570
B1034234202832N00044415EA0145301569
B1034244202831N00044424EA0145101568
B1034254202830N00044433EA0145001567
B1034264202828N00044441EA0145001566
B1034274202827N00044449EA0144801565
B1034284202825N00044457EA0144901564
B1034294202823N00044466EA0144901564
B1034304202822N00044474EA0144901564
B1034314202821N00044482EA0144801564
B1034324202819N00044489EA0144801564
B1034334202818N00044497EA0144901564
B1034344202816N00044504EA0144701563
B1034354202814N00044513EA0144701562
B1034364202812N00044521EA0144701563
B1034374202811N00044529EA0144801563
B1034384202808N00044536EA0144901564
B1034394202806N00044543EA0144901565
B1034404202804N00044550EA0145001566
B1034414202801N00044557EA0145301567
B1034424202799N00044565EA0145401569
B1034434202797N00044573EA0145601571
B1034444202796N00044580EA0145601572
B1034454202795N00044587EA0145701572
B1034464202793N00044592EA0145701573
B1034474202792N00044598EA0145601573
B1034484202790N00044604EA0145601573
B1034494202789N00044610EA0145701573
B1034504202788N00044615EA0145701573
B1034514202788N00044620EA0145601573
B1034524202787N00044625EA0145401571
B1034534202787N00044630EA0145301570
B1034544202786N00044635EA0145201568
B1034554202784N00044641EA0145001566
B1034564202782N00044646EA0145001565
B1034574202780N00044652EA0145101565
B1034584202778N00044657EA0145201566
B1034594202777N00044663EA0145201568
B1035004202776N00044668EA0145301569
B1035014202774N00044673EA0145501570
B1035024202772N00044678EA0145601571
B1035034202770N00044683EA0145901573
B1035044202767N00044687EA0146001574
B1035054202765N00044691EA0146001576
B1035064202763N00044695EA0146101577
B1035074202762N00044699EA0146101576
B1035084202761N00044705EA0146101577
B1035094202760N00044711EA0146201578
B1035104202760N00044719EA0146401580
B1035114202761N00044728EA0146701582
B1035124202763N00044735EA0146901585
B1035134202764N00044742EA0147101587
B1035144202766N00044748EA0147201588
B1035154202767N00044755EA0147301589
B1035164202767N00044762EA0147301590
B1035174202767N00044768EA0147401590
B1035184202767N00044774EA0147401590
B1035194202766N00044780EA0147301590
B1035204202765N00044786EA0147201589
B1035214202764N00044792EA0147101588
B1035224202763N00044798EA0147001588
B1035234202761N00044804EA0147001587
B1035244202760N00044809EA0147101587
B1035254202758N00044814EA0147201588
B1035264202757N00044818EA0147101589
B1035274202756N00044821EA0147101588
B1035284202756N00044823EA0147001587
B1035294202754N00044826EA0146701586
B1035304202753N00044829EA0146701584
B1035314202751N00044833EA0146701584
B1035324202749N00044836EA0146701584
B1035334202748N00044841EA0146701584
B1035344202747N00044845EA0146701584
B1035354202746N00044849EA0146601583
B1035364202745N00044852EA0146501582
B1035374202744N00044855EA0146601582
B1035384202744N00044856EA0146501582
B1035394202743N00044856EA0146601582
B1035404202743N00044857EA0146801583
B1035414202743N00044857EA0146701583
B1035424202743N00044857EA0146701583
B1035434202743N00044856EA0146801583
B1035444202743N00044857EA0146701583
B1035454202744N00044858EA0146701583
B1035464202744N00044858EA0146601583
B1035474202744N00044858EA0146601583
B1035484202744N00044858EA0146701583
B1035494202744N00044858EA0146701583
B1035504202744N00044858EA0146701583
B1035514202744N00044858EA0146701583
B1035524202744N00044858EA0146701583
B1035534202744N00044858EA0146701583
B1035544202744N00044858EA0146701583
B1035554202744N00044858EA0146701583
GLF1mrEez037XTfhlxA2rNcajp+0eOoIjeufeawyKYMuOMNqygeYpHSZaGEKe/1DvMewritmfayI
GDCucs0L3mGOZxHtLFOPngNKMWnu9fCqIY4j2AJbbZPvU6Q3Eof7OG0SnO8iNxYbiLYARikiS/J3
Go2lWnOq/G9FdtNC8ZzEWk=
