AXSFwn
HFDTEDATE:070826
HFPLTPILOTINCHARGE:Martí Cols Camprubí
HFCM2CREW2:NIL
HFGTYGLIDERTYPE:Sky Paragliders Exos 
HFGIDGLIDERID:NIL
HFDTMGPSDATUM:WGS84
HFRFWFIRMWAREVERSION:EU_2.00V
HFRHWHARDWAREVERSION:4.5
HFFTYFRTYPE:alfapilot,Voolaris Tracker
HFGPSRECEIVER:UBLOX,M10,72,50000,GPS,GLO,GAL
HFPRSPRESSALTSENSOR:ST,LPS22HB,10000
HFALGALTGPS:GEO
HFALPALTPRESSURE:ISA
HFTZNTIMEZONE:0
B1041394202758N00044782EA0145101566
B1041404202757N00044782EA0144901566
B1041414202756N00044782EA0144701565
B1041424202754N00044781EA0144501564
B1041434202752N00044778EA0144501564
B1041444202750N00044776EA0144601564
B1041454202747N00044774EA0144601565
B1041464202744N00044773EA0144901566
B1041474202742N00044771EA0145201567
B1041484202741N00044769EA0145201568
B1041494202739N00044766EA0145301568
B1041504202737N00044762EA0145101568
B1041514202735N00044757EA0145401568
B1041524202733N00044753EA0145301569
B1041534202730N00044750EA0145401570
B1041544202728N00044749EA0145401569
B1041554202725N00044749EA0145401569
B1041564202722N00044751EA0145401569
B1041574202719N00044753EA0145301568
B1041584202717N00044756EA0145101568
B1041594202716N00044760EA0145201567
B1042004202714N00044764EA0145101567
B1042014202713N00044768EA0145001566
B1042024202711N00044772EA0144901565
B1042034202709N00044777EA0144901564
B1042044202707N00044781EA0144701563
B1042054202705N00044786EA0144801563
B1042064202703N00044790EA0144801563
B1042074202701N00044794EA0144801563
B1042084202699N00044797EA0144701563
B1042094202696N00044800EA0144701562
B1042104202694N00044803EA0144501561
B1042114202692N00044808EA0144501561
B1042124202689N00044813EA0144501560
B1042134202687N00044818EA0144701561
B1042144202684N00044822EA0144701562
B1042154202682N00044826EA0144801563
B1042164202680N00044830EA0144701563
B1042174202678N00044834EA0144801563
B1042184202676N00044839EA0144701563
B1042194202674N00044844EA0144901564
B1042204202671N00044850EA0145101565
B1042214202669N00044856EA0145101566
B1042224202667N00044861EA0145201567
B1042234202665N00044867EA0145201568
B1042244202662N00044872EA0145401569
B1042254202660N00044878EA0145301569
B1042264202658N00044883EA0145301569
B1042274202656N00044887EA0145301569
B1042284202653N00044891EA0145301569
B1042294202650N00044895EA0145401570
B1042304202648N00044900EA0145601571
B1042314202646N00044904EA0145801572
B1042324202645N00044909EA0145801573
B1042334202644N00044915EA0145901574
B1042344202644N00044921EA0145801573
B1042354202644N00044927EA0145801573
B1042364202643N00044934EA0145701573
B1042374202643N00044941EA0145801573
B1042384202641N00044948EA0145801573
B1042394202639N00044953EA0145901574
B1042404202637N00044958EA0146101576
B1042414202634N00044963EA0146501579
B1042424202632N00044966EA0146501582
B1042434202629N00044968EA0146701583
B1042444202627N00044968EA0146901585
B1042454202625N00044966EA0147001585
B1042464202625N00044962EA0147001586
B1042474202626N00044957EA0147001586
B1042484202629N00044953EA0147101587
B1042494202634N00044950EA0147101587
B1042504202638N00044947EA0147201588
B1042514202642N00044943EA0147201588
B1042524202646N00044938EA0147101587
B1042534202649N00044933EA0147001587
B1042544202653N00044926EA0147401588
B1042554202657N00044919EA0147501590
B1042564202661N00044913EA0147701593
B1042574202665N00044907EA0148001596
B1042584202670N00044903EA0148201598
B1042594202674N00044899EA0148501601
B1043004202678N00044896EA0148801603
B1043014202681N00044893EA0148701604
B1043024202683N00044889EA0148701604
B1043034202683N00044884EA0148801604
B1043044202682N00044880EA0149001604
B1043054202679N00044878EA0148901605
B1043064202676N00044880EA0148901605
B1043074202674N00044885EA0148901606
B1043084202674N00044891EA0149001607
B1043094202674N00044898EA0149101608
B1043104202674N00044905EA0149401610
B1043114202673N00044911EA0149601612
B1043124202672N00044918EA0149601613
B1043134202671N00044925EA0149701615
B1043144202670N00044932EA0149901617
B1043154202669N00044937EA0150101619
B1043164202668N00044940EA0150301621
B1043174202666N00044940EA0150401621
B1043184202665N00044937EA0150401621
B1043194202666N00044932EA0150401621
B1043204202669N00044926EA0150401621
B1043214202675N00044920EA0150701623
B1043224202681N00044915EA0150801625
B1043234202686N00044911EA0151201629
B1043244202689N00044907EA0151301630
B1043254202692N00044903EA0151301631
B1043264202694N00044900EA0151201630
B1043274202695N00044895EA0151101629
B1043284202695N00044890EA0151201630
B1043294202695N00044885EA0151201630
B1043304202694N00044880EA0151401632
B1043314202693N00044878EA0151501633
B1043324202691N00044876EA0151501633
B1043334202689N00044876EA0151401633
B1043344202686N00044877EA0151601634
B1043354202683N00044879EA0151801636
B1043364202681N00044883EA0152101638
B1043374202680N00044887EA0152201640
B1043384202680N00044892EA0152301642
B1043394202680N00044897EA0152401643
B1043404202680N00044903EA0152501644
B1043414202679N00044909EA0152801646
B1043424202677N00044915EA0153001648
B1043434202676N00044919EA0153101650
B1043444202673N00044921EA0153501653
B1043454202670N00044921EA0153601654
B1043464202667N00044919EA0153601656
B1043474202666N00044915EA0153801657
B1043484202665N00044912EA0153801658
B1043494202665N00044910EA0153601658
B1043504202665N00044909EA0153501656
B1043514202663N00044909EA0153401654
B1043524202661N00044910EA0153101652
B1043534202659N00044913EA0153101650
B1043544202657N00044917EA0152901649
B1043554202656N00044923EA0152701648
B1043564202657N00044931EA0152801647
B1043574202659N00044938EA0152801647
B1043584202660N00044946EA0152901648
B1043594202661N00044953EA0153001649
B1044004202661N00044958EA0153101650
B1044014202662N00044963EA0153101651
B1044024202662N00044968EA0153201651
B1044034202662N00044974EA0153001651
B1044044202662N00044980EA0153101650
B1044054202661N00044987EA0153001650
B1044064202660N00044993EA0153001651
B1044074202659N00044999EA0153101651
B1044084202657N00045004EA0153301652
B1044094202656N00045010EA0153201652
B1044104202654N00045015EA0153401653
B1044114202652N00045019EA0153701655
B1044124202650N00045022EA0153601657
B1044134202648N00045023EA0153901658
B1044144202646N00045021EA0153701657
B1044154202645N00045017EA0153701657
B1044164202646N00045011EA0153801658
B1044174202648N00045005EA0154001659
B1044184202652N00044999EA0154201660
B1044194202655N00044995EA0154001661
B1044204202658N00044990EA0154001661
B1044214202660N00044986EA0153901660
B1044224202661N00044981EA0153801658
B1044234202662N00044976EA0153701657
B1044244202664N00044970EA0153701657
B1044254202667N00044965EA0153801658
B1044264202670N00044960EA0153901659
B1044274202673N00044956EA0154001659
B1044284202676N00044951EA0153901660
B1044294202678N00044946EA0153901659
B1044304202681N00044941EA0153601657
B1044314202684N00044935EA0153401654
B1044324202687N00044929EA0153201652
B1044334202690N00044922EA0153201651
B1044344202694N00044915EA0153101651
B1044354202697N00044909EA0153201651
B1044364202700N00044904EA0153401653
B1044374202702N00044900EA0153501654
B1044384202705N00044896EA0153501656
B1044394202707N00044892EA0153701657
B1044404202710N00044887EA0153801657
B1044414202712N00044883EA0153801658
B1044424202714N00044878EA0153801658
B1044434202716N00044873EA0153701658
B1044444202718N00044868EA0153701658
B1044454202720N00044863EA0153601657
B1044464202721N00044858EA0153701656
B1044474202723N00044853EA0153501655
B1044484202725N00044847EA0153401654
B1044494202726N00044842EA0153401653
B1044504202728N00044836EA0153201653
B1044514202730N00044831EA0153001652
B1044524202732N00044827EA0153001651
B1044534202733N00044822EA0152801649
B1044544202734N00044817EA0152601647
B1044554202736N00044811EA0152401645
B1044564202738N00044806EA0152301643
B1044574202739N00044801EA0152301642
B1044584202741N00044796EA0152201642
B1044594202743N00044791EA0152101641
B1045004202745N00044787EA0152001640
B1045014202748N00044783EA0151801638
B1045024202751N00044778EA0151701637
B1045034202754N00044774EA0151601636
B1045044202756N00044769EA0151601636
B1045054202758N00044765EA0151601636
B1045064202759N00044761EA0151601636
B1045074202759N00044758EA0151501635
B1045084202758N00044756EA0151501634
B1045094202755N00044754EA0151501634
B1045104202751N00044752EA0151701635
B1045114202748N00044751EA0151801637
B1045124202744N00044750EA0151901638
B1045134202742N00044747EA0152001639
B1045144202740N00044743EA0152101640
B1045154202740N00044739EA0152201641
B1045164202739N00044736EA0152201641
B1045174202739N00044733EA0152201641
B1045184202736N00044732EA0151901639
B1045194202732N00044733EA0151801637
B1045204202728N00044737EA0151701636
B1045214202726N00044743EA0151701636
B1045224202726N00044751EA0151601635
B1045234202729N00044758EA0151301633
B1045244202734N00044764EA0151101630
B1045254202741N00044766EA0150901629
B1045264202748N00044766EA0150801627
B1045274202753N00044764EA0150701626
B1045284202758N00044761EA0150601625
B1045294202763N00044757EA0150601624
B1045304202767N00044752EA0150501624
B1045314202770N00044746EA0150601624
B1045324202773N00044740EA0150601625
B1045334202775N00044735EA0150901626
B1045344202776N00044730EA0150901627
B1045354202777N00044725EA0151101629
B1045364202779N00044721EA0151101630
B1045374202780N00044717EA0151101630
B1045384202782N00044713EA0151201630
B1045394202783N00044709EA0151101630
B1045404202783N00044705EA0151201631
B1045414202782N00044701EA0151101631
B1045424202780N00044698EA0151301632
B1045434202776N00044697EA0151501633
B1045444202772N00044697EA0151801635
B1045454202767N00044700EA0152201639
B1045464202764N00044703EA0152301642
B1045474202763N00044709EA0152401643
B1045484202762N00044716EA0152301643
B1045494202763N00044725EA0152301642
B1045504202766N00044733EA0152201642
B1045514202771N00044740EA0152201642
B1045524202778N00044744EA0152201641
B1045534202785N00044745EA0152101640
B1045544202791N00044744EA0152101640
B1045554202795N00044741EA0152101640
B1045564202798N00044736EA0152101640
B1045574202798N00044732EA0152201640
B1045584202798N00044727EA0152201641
B1045594202797N00044723EA0152401643
B1046004202796N00044720EA0152601644
B1046014202795N00044717EA0152701647
B1046024202793N00044714EA0153001649
B1046034202792N00044712EA0153001651
B1046044202791N00044709EA0153201652
B1046054202790N00044706EA0153401654
B1046064202789N00044704EA0153601655
B1046074202786N00044701EA0153701657
B1046084202783N00044700EA0153901658
B1046094202779N00044701EA0154001660
B1046104202775N00044705EA0154101661
B1046114202772N00044712EA0154401663
B1046124202772N00044721EA0154401665
B1046134202774N00044730EA0154401665
B1046144202779N00044737EA0154401665
B1046154202786N00044742EA0154301664
B1046164202793N00044744EA0154401664
B1046174202799N00044743EA0154401664
B1046184202805N00044739EA0154501664
B1046194202808N00044734EA0154601665
B1046204202811N00044729EA0154801668
B1046214202812N00044724EA0155001671
B1046224202811N00044719EA0155101672
B1046234202809N00044716EA0155201673
B1046244202805N00044713EA0155401674
B1046254202801N00044713EA0155601676
B1046264202798N00044713EA0155801679
B1046274202795N00044715EA0155901681
B1046284202793N00044718EA0155801681
B1046294202790N00044722EA0155901681
B1046304202788N00044728EA0155801680
B1046314202787N00044736EA0155901680
B1046324202787N00044744EA0155901680
B1046334202789N00044753EA0155801680
B1046344202794N00044760EA0155701680
B1046354202799N00044766EA0155601679
B1046364202806N00044769EA0155601678
B1046374202813N00044769EA0155501677
B1046384202819N00044766EA0155601677
B1046394202824N00044762EA0155801679
B1046404202828N00044758EA0156101682
B1046414202830N00044755EA0156201684
B1046424202831N00044751EA0156401685
B1046434202832N00044748EA0156301685
B1046444202832N00044745EA0156301685
B1046454202831N00044741EA0156501685
B1046464202831N00044737EA0156401685
B1046474202830N00044733EA0156401686
B1046484202830N00044728EA0156501686
B1046494202829N00044724EA0156301686
B1046504202829N00044720EA0156201685
B1046514202829N00044716EA0156301685
B1046524202828N00044712EA0156301686
B1046534202827N00044708EA0156501687
B1046544202825N00044705EA0156501688
B1046554202822N00044702EA0156801689
B1046564202819N00044700EA0156901691
B1046574202818N00044697EA0157001691
B1046584202816N00044695EA0156901692
B1046594202814N00044693EA0157001692
B1047004202811N00044691EA0156901692
B1047014202808N00044688EA0157001692
B1047024202806N00044686EA0157001692
B1047034202804N00044683EA0157001693
B1047044202801N00044681EA0157001692
B1047054202798N00044679EA0156801691
B1047064202795N00044678EA0156801690
B1047074202791N00044678EA0156601688
B1047084202786N00044680EA0156401688
B1047094202782N00044683EA0156601687
B1047104202779N00044687EA0156501687
B1047114202776N00044692EA0156501687
B1047124202773N00044696EA0156501687
B1047134202771N00044702EA0156301686
B1047144202769N00044707EA0156201684
B1047154202767N00044713EA0156101683
B1047164202764N00044718EA0155901681
B1047174202761N00044724EA0156001680
B1047184202758N00044729EA0155801679
B1047194202755N00044734EA0155801678
B1047204202753N00044740EA0155601678
B1047214202751N00044746EA0155601677
B1047224202750N00044752EA0155401676
B1047234202749N00044758EA0155401675
B1047244202748N00044764EA0155201674
B1047254202747N00044770EA0155301673
B1047264202746N00044777EA0155301673
B1047274202744N00044783EA0155201672
B1047284202742N00044789EA0155101672
B1047294202740N00044795EA0155101672
B1047304202738N00044801EA0155301673
B1047314202735N00044807EA0155401674
B1047324202732N00044811EA0155501676
B1047334202730N00044815EA0155701678
B1047344202727N00044817EA0155901679
B1047354202724N00044818EA0156001680
B1047364202721N00044820EA0156101681
B1047374202718N00044824EA0156101683
B1047384202716N00044830EA0156401685
B1047394202715N00044839EA0156701687
B1047404202717N00044848EA0156701688
B1047414202721N00044856EA0156601688
B1047424202728N00044861EA0156601687
B1047434202735N00044862EA0156401687
B1047444202741N00044860EA0156601687
B1047454202745N00044857EA0156601687
B1047464202748N00044853EA0156601687
B1047474202750N00044849EA0156601687
B1047484202752N00044844EA0156701688
B1047494202753N00044839EA0156801689
B1047504202753N00044833EA0156801690
B1047514202752N00044828EA0157101692
B1047524202751N00044825EA0157301694
B1047534202748N00044823EA0157501695
B1047544202745N00044823EA0157601697
B1047554202741N00044825EA0157901699
B1047564202739N00044830EA0158001701
B1047574202737N00044837EA0158101702
B1047584202738N00044846EA0157901702
B1047594202742N00044855EA0158101702
B1048004202748N00044864EA0158001702
B1048014202755N00044870EA0158301704
B1048024202763N00044873EA0158401706
B1048034202770N00044872EA0158601708
B1048044202775N00044869EA0158501709
B1048054202778N00044865EA0158701710
B1048064202780N00044859EA0158801711
B1048074202781N00044854EA0159101713
B1048084202780N00044850EA0159301715
B1048094202778N00044848EA0159401717
B1048104202775N00044848EA0159701719
B1048114202772N00044850EA0159701720
B1048124202770N00044855EA0159701721
B1048134202768N00044862EA0159801721
B1048144202768N00044870EA0159701720
B1048154202770N00044880EA0159701720
B1048164202774N00044889EA0159801721
B1048174202779N00044897EA0159801722
B1048184202786N00044901EA0159801722
B1048194202793N00044904EA0159901722
B1048204202800N00044903EA0159901722
B1048214202805N00044901EA0159901722
B1048224202809N00044897EA0160001723
B1048234202812N00044892EA0159901723
B1048244202813N00044887EA0160001723
B1048254202813N00044882EA0160201724
B1048264202813N00044877EA0160501726
B1048274202814N00044872EA0160501729
B1048284202814N00044868EA0160801731
B1048294202815N00044866EA0160701732
B1048304202815N00044864EA0160401731
B1048314202814N00044864EA0160401729
B1048324202812N00044863EA0160201726
B1048334202809N00044863EA0160201725
B1048344202805N00044863EA0160101725
B1048354202802N00044863EA0160201725
B1048364202799N00044864EA0160301726
B1048374202796N00044866EA0160401727
B1048384202794N00044867EA0160301728
B1048394202793N00044868EA0160301728
B1048404202791N00044867EA0160301727
B1048414202789N00044867EA0160101726
B1048424202786N00044867EA0160001724
B1048434202783N00044867EA0159901723
B1048444202780N00044867EA0159901723
B1048454202776N00044868EA0160001723
B1048464202773N00044870EA0159901724
B1048474202769N00044872EA0159801723
B1048484202766N00044874EA0159801722
B1048494202762N00044877EA0159801721
B1048504202758N00044880EA0159801721
B1048514202754N00044883EA0159801721
B1048524202751N00044886EA0159901722
B1048534202748N00044889EA0160001722
B1048544202745N00044892EA0159701722
B1048554202742N00044896EA0159801721
B1048564202739N00044900EA0159801721
B1048574202736N00044905EA0159801721
B1048584202732N00044908EA0159801721
B1048594202729N00044912EA0159801721
B1049004202726N00044915EA0159701721
B1049014202723N00044920EA0159701721
B1049024202721N00044924EA0159701720
B1049034202718N00044929EA0159701720
B1049044202716N00044934EA0159601719
B1049054202714N00044938EA0159401718
B1049064202712N00044943EA0159201716
B1049074202709N00044947EA0159001714
B1049084202706N00044952EA0158701712
B1049094202703N00044957EA0158601710
B1049104202700N00044962EA0158401708
B1049114202697N00044968EA0158401706
B1049124202694N00044973EA0158101704
B1049134202692N00044978EA0157901702
B1049144202690N00044984EA0157601700
B1049154202688N00044990EA0157401697
B1049164202686N00044996EA0157201694
B1049174202683N00045002EA0157001692
B1049184202680N00045007EA0156801690
B1049194202678N00045012EA0156501688
B1049204202675N00045016EA0156001685
B1049214202672N00045020EA0155901682
B1049224202669N00045025EA0155801680
B1049234202665N00045029EA0155801679
B1049244202662N00045033EA0155601678
B1049254202658N00045037EA0155501677
B1049264202655N00045040EA0155501677
B1049274202651N00045044EA0155501677
B1049284202648N00045049EA0155501677
B1049294202644N00045052EA0155501676
B1049304202641N00045056EA0155501676
B1049314202638N00045060EA0155401676
B1049324202635N00045063EA0155401676
B1049334202631N00045067EA0155501677
B1049344202628N00045070EA0155501678
B1049354202626N00045073EA0155601678
B1049364202623N00045076EA0155501677
B1049374202621N00045079EA0155501677
B1049384202618N00045083EA0155401676
B1049394202615N00045087EA0155501677
B1049404202611N00045091EA0155701678
B1049414202608N00045093EA0155801680
B1049424202606N00045093EA0155801680
B1049434202604N00045092EA0155601679
B1049444202602N00045091EA0155601678
B1049454202599N00045089EA0155601678
B1049464202597N00045086EA0155501677
B1049474202593N00045083EA0155501676
B1049484202590N00045081EA0155501676
B1049494202586N00045080EA0155401676
B1049504202582N00045080EA0155301676
B1049514202578N00045080EA0155301675
B1049524202574N00045081EA0155301675
B1049534202570N00045082EA0155401675
B1049544202566N00045084EA0155301676
B1049554202562N00045086EA0155501677
B1049564202558N00045088EA0155701678
B1049574202555N00045089EA0155601678
B1049584202551N00045090EA0155701679
B1049594202547N00045090EA0155801679
B1050004202543N00045091EA0155701680
B1050014202539N00045093EA0155801680
B1050024202535N00045094EA0155801680
B1050034202531N00045095EA0155801680
B1050044202526N00045096EA0155901680
B1050054202522N00045097EA0155801681
B1050064202517N00045098EA0155801681
B1050074202512N00045098EA0155901681
B1050084202506N00045099EA0155901681
B1050094202502N00045099EA0155901681
B1050104202497N00045099EA0155901681
B1050114202493N00045099EA0155901680
B1050124202489N00045099EA0155601678
B1050134202484N00045100EA0155301675
B1050144202478N00045101EA0155101674
B1050154202473N00045104EA0155001672
B1050164202468N00045109EA0154801670
B1050174202463N00045114EA0154601669
B1050184202459N00045119EA0154401667
B1050194202454N00045124EA0154201664
B1050204202449N00045129EA0153901661
B1050214202444N00045133EA0153701658
B1050224202438N00045137EA0153301655
B1050234202432N00045140EA0153101653
B1050244202426N00045144EA0153001652
B1050254202420N00045148EA0153101652
B1050264202416N00045153EA0152901651
B1050274202411N00045157EA0152801650
B1050284202407N00045161EA0152601647
B1050294202402N00045165EA0152401645
B1050304202396N00045169EA0152301643
B1050314202391N00045174EA0152201643
B1050324202386N00045178EA0152201642
B1050334202382N00045183EA0152101642
B1050344202378N00045189EA0152001641
B1050354202375N00045196EA0151801639
B1050364202371N00045204EA0151801638
B1050374202368N00045213EA0151601637
B1050384202366N00045223EA0151501636
B1050394202365N00045232EA0151501636
B1050404202363N00045241EA0151501636
B1050414202362N00045249EA0151401635
B1050424202361N00045257EA0151301634
B1050434202361N00045266EA0151201632
B1050444202361N00045276EA0151201632
B1050454202361N00045285EA0151301632
B1050464202361N00045294EA0151301633
B1050474202361N00045303EA0151401634
B1050484202361N00045311EA0151301634
B1050494202361N00045320EA0151301633
B1050504202361N00045329EA0151101632
B1050514202361N00045338EA0151201631
B1050524202360N00045348EA0151301631
B1050534202360N00045357EA0151201632
B1050544202359N00045366EA0151201632
B1050554202358N00045374EA0151101631
B1050564202358N00045382EA0150901629
B1050574202358N00045390EA0150601626
B1050584202357N00045399EA0150501624
B1050594202355N00045408EA0150101622
B1051004202354N00045418EA0150001619
B1051014202352N00045427EA0149901618
B1051024202351N00045436EA0149701616
B1051034202349N00045445EA0149601615
B1051044202348N00045454EA0149301613
B1051054202346N00045462EA0149301611
B1051064202343N00045471EA0149201610
B1051074202341N00045479EA0149101609
B1051084202338N00045488EA0149101609
B1051094202334N00045496EA0149301609
B1051104202331N00045503EA0149201611
B1051114202327N00045510EA0149401612
B1051124202324N00045516EA0149501613
B1051134202320N00045522EA0149501613
B1051144202316N00045527EA0149601614
B1051154202312N00045532EA0149701615
B1051164202307N00045535EA0149701616
B1051174202303N00045537EA0149901616
B1051184202297N00045538EA0149901616
B1051194202292N00045539EA0149801616
B1051204202287N00045540EA0149701616
B1051214202282N00045541EA0149501615
B1051224202278N00045543EA0149501613
B1051234202273N00045544EA0149101610
B1051244202268N00045546EA0148901607
B1051254202263N00045546EA0148601604
B1051264202257N00045546EA0148201601
B1051274202252N00045545EA0148101598
B1051284202246N00045545EA0147801597
B1051294202241N00045545EA0147801596
B1051304202236N00045545EA0147701595
B1051314202231N00045546EA0147401593
B1051324202226N00045547EA0147201591
B1051334202220N00045548EA0147101588
B1051344202214N00045551EA0146801586
B1051354202209N00045554EA0146801585
B1051364202203N00045557EA0146601584
B1051374202198N00045561EA0146501583
B1051384202193N00045565EA0146401581
B1051394202189N00045570EA0146301579
B1051404202184N00045575EA0146001577
B1051414202179N00045580EA0145801575
B1051424202173N00045584EA0145601574
B1051434202168N00045589EA0145401572
B1051444202163N00045594EA0145401571
B1051454202159N00045599EA0145201569
B1051464202154N00045604EA0145101567
B1051474202149N00045610EA0144801566
B1051484202144N00045615EA0144701564
B1051494202139N00045620EA0144701562
B1051504202134N00045625EA0144501560
B1051514202128N00045630EA0144201558
B1051524202123N00045635EA0144101556
B1051534202118N00045640EA0143901555
B1051544202113N00045645EA0143801553
B1051554202107N00045650EA0143601552
B1051564202102N00045654EA0143601551
B1051574202096N00045658EA0143501550
B1051584202091N00045662EA0143301549
B1051594202086N00045667EA0143101547
B1052004202080N00045671EA0143001545
B1052014202074N00045676EA0142901544
B1052024202069N00045680EA0142701543
B1052034202063N00045685EA0142701542
B1052044202058N00045690EA0142501541
B1052054202053N00045696EA0142601540
B1052064202048N00045701EA0142401539
B1052074202043N00045707EA0142301538
B1052084202038N00045713EA0142201536
B1052094202033N00045720EA0142101535
B1052104202028N00045726EA0142001535
B1052114202024N00045733EA0142001534
B1052124202020N00045740EA0141801533
B1052134202016N00045747EA0141801532
B1052144202012N00045755EA0141701531
B1052154202008N00045762EA0141601530
B1052164202004N00045770EA0141501529
B1052174202000N00045778EA0141501528
B1052184201996N00045786EA0141401528
B1052194201992N00045793EA0141501528
B1052204201988N00045800EA0141401528
B1052214201985N00045806EA0141501528
B1052224201981N00045812EA0141401528
B1052234201977N00045818EA0141601529
B1052244201974N00045825EA0141601529
B1052254201970N00045831EA0141601530
B1052264201967N00045837EA0141701530
B1052274201964N00045843EA0141501529
B1052284201960N00045849EA0141501528
B1052294201956N00045855EA0141201526
B1052304201953N00045860EA0141001525
B1052314201949N00045864EA0140801523
B1052324201944N00045866EA0140701521
B1052334201939N00045867EA0140701520
B1052344201934N00045867EA0140801520
B1052354201928N00045867EA0141001522
B1052364201923N00045866EA0141101524
B1052374201918N00045865EA0141201525
B1052384201914N00045865EA0141401526
B1052394201910N00045865EA0141501527
B1052404201906N00045866EA0141501528
B1052414201902N00045868EA0141401528
B1052424201897N00045871EA0141501528
B1052434201893N00045876EA0141501528
B1052444201889N00045880EA0141501529
B1052454201885N00045885EA0141601530
B1052464201883N00045890EA0141601530
B1052474201881N00045895EA0141601529
B1052484201880N00045901EA0141401528
B1052494201880N00045909EA0141201525
B1052504201880N00045917EA0141101524
B1052514201880N00045925EA0141001523
B1052524201880N00045933EA0141001523
B1052534201881N00045941EA0141101523
B1052544201882N00045949EA0141101523
B1052554201883N00045956EA0141001523
B1052564201884N00045964EA0141101523
B1052574201885N00045972EA0141001522
B1052584201887N00045981EA0140901522
B1052594201888N00045990EA0141001521
B1053004201888N00045999EA0140901521
B1053014201889N00046008EA0140801522
B1053024201890N00046016EA0141001523
B1053034201891N00046025EA0141101524
B1053044201892N00046033EA0141101525
B1053054201894N00046041EA0141101525
B1053064201896N00046048EA0141101524
B1053074201898N00046056EA0140901522
B1053084201900N00046065EA0140701521
B1053094201901N00046074EA0140501519
B1053104201901N00046083EA0140601518
B1053114201901N00046092EA0140401518
B1053124201901N00046100EA0140601519
B1053134201902N00046108EA0140501518
B1053144201902N00046117EA0140401517
B1053154201904N00046127EA0140501517
B1053164201907N00046137EA0140901519
B1053174201910N00046149EA0141001523
B1053184201912N00046158EA0141501528
B1053194201914N00046167EA0141901532
B1053204201916N00046173EA0142001534
B1053214201918N00046180EA0141901533
B1053224201920N00046186EA0141501531
B1053234201923N00046191EA0141501528
B1053244201928N00046196EA0141201526
B1053254201933N00046200EA0141001524
B1053264201938N00046203EA0140901523
B1053274201943N00046206EA0140601521
B1053284201948N00046207EA0140601519
B1053294201953N00046207EA0140401518
B1053304201957N00046206EA0140201516
B1053314201961N00046205EA0140101514
B1053324201964N00046202EA0139801512
B1053334201966N00046198EA0139801511
B1053344201966N00046194EA0139601509
B1053354201965N00046190EA0139501508
B1053364201962N00046187EA0139701509
B1053374201959N00046184EA0140001511
B1053384201957N00046181EA0140101512
B1053394201956N00046179EA0140201514
B1053404201954N00046177EA0140301515
B1053414201953N00046174EA0140501517
B1053424201951N00046172EA0140601518
B1053434201950N00046170EA0140501519
B1053444201948N00046167EA0140301518
B1053454201946N00046166EA0140401518
B1053464201944N00046163EA0140501517
B1053474201941N00046160EA0140501517
B1053484201938N00046157EA0140501518
B1053494201936N00046153EA0140601519
B1053504201934N00046150EA0140601519
B1053514201931N00046148EA0140501519
B1053524201929N00046145EA0140501518
B1053534201926N00046142EA0140301516
B1053544201924N00046139EA0140001513
B1053554201920N00046135EA0139901511
B1053564201917N00046130EA0139601509
B1053574201915N00046124EA0139701508
B1053584201912N00046118EA0139701508
B1053594201910N00046113EA0139901509
B1054004201908N00046108EA0140001511
B1054014201907N00046103EA0140101512
B1054024201906N00046099EA0140101512
B1054034201905N00046096EA0140101512
B1054044201904N00046092EA0139901511
B1054054201902N00046089EA0139901511
B1054064201901N00046085EA0140001511
B1054074201900N00046082EA0139801511
B1054084201898N00046079EA0139901510
B1054094201898N00046076EA0139601508
B1054104201896N00046072EA0139401506
B1054114201895N00046068EA0139101504
B1054124201894N00046064EA0139001501
B1054134201893N00046060EA0138601499
B1054144201892N00046055EA0138401496
B1054154201890N00046051EA0138301494
B1054164201889N00046046EA0138001492
B1054174201887N00046042EA0138001491
B1054184201886N00046037EA0137801489
B1054194201884N00046032EA0137901488
B1054204201882N00046028EA0137701487
B1054214201881N00046024EA0137501486
B1054224201880N00046019EA0137201484
B1054234201878N00046014EA0137101481
B1054244201877N00046009EA0136901480
B1054254201875N00046004EA0136801479
B1054264201874N00045999EA0136801478
B1054274201872N00045995EA0136701478
B1054284201871N00045991EA0136801477
B1054294201870N00045987EA0136601476
B1054304201869N00045982EA0136401474
B1054314201868N00045977EA0136201472
B1054324201867N00045972EA0136001470
B1054334201866N00045966EA0135901469
B1054344201865N00045961EA0135801468
B1054354201864N00045955EA0135801467
B1054364201864N00045950EA0135701466
B1054374201863N00045946EA0135401465
B1054384201863N00045941EA0135401463
B1054394201862N00045936EA0135301462
B1054404201861N00045931EA0135201461
B1054414201861N00045926EA0134901459
B1054424201860N00045920EA0134801457
B1054434201860N00045914EA0134601456
B1054444201859N00045909EA0134401454
B1054454201858N00045904EA0134401453
B1054464201856N00045899EA0134301452
B1054474201855N00045895EA0134201451
B1054484201854N00045890EA0134001449
B1054494201852N00045885EA0133901448
B1054504201851N00045880EA0133601446
B1054514201851N00045875EA0133701445
B1054524201850N00045870EA0133301443
B1054534201850N00045865EA0133201441
B1054544201850N00045859EA0133101440
B1054554201850N00045854EA0133101439
B1054564201849N00045849EA0133001438
B1054574201849N00045845EA0132701436
B1054584201849N00045840EA0132501434
B1054594201849N00045834EA0132401433
B1055004201850N00045829EA0132201431
B1055014201850N00045824EA0132201430
B1055024201851N00045819EA0132101429
B1055034201851N00045814EA0131901427
B1055044201851N00045810EA0131701426
B1055054201851N00045805EA0131601424
B1055064201851N00045799EA0131301422
B1055074201850N00045794EA0131301421
B1055084201849N00045789EA0131201420
B1055094201849N00045784EA0131201419
B1055104201848N00045779EA0131001418
B1055114201847N00045775EA0130701416
B1055124201846N00045769EA0130801414
B1055134201844N00045764EA0130501413
B1055144201843N00045759EA0130501412
B1055154201842N00045753EA0130401411
B1055164201841N00045748EA0130301410
B1055174201841N00045743EA0130201409
B1055184201840N00045737EA0130001408
B1055194201839N00045731EA0130001406
B1055204201838N00045726EA0129801406
B1055214201837N00045721EA0129801405
B1055224201836N00045716EA0129701405
B1055234201835N00045711EA0129701403
B1055244201834N00045705EA0129401401
B1055254201833N00045699EA0129201399
B1055264201832N00045694EA0129001397
B1055274201831N00045688EA0128901396
B1055284201829N00045683EA0128801395
B1055294201828N00045678EA0128701393
B1055304201828N00045673EA0128501392
B1055314201827N00045668EA0128401390
B1055324201828N00045663EA0128301389
B1055334201829N00045658EA0128101388
B1055344201830N00045653EA0128101387
B1055354201831N00045648EA0128001386
B1055364201832N00045643EA0127901385
B1055374201834N00045638EA0127801383
B1055384201835N00045632EA0127601382
B1055394201836N00045627EA0127501380
B1055404201838N00045621EA0127501379
B1055414201840N00045616EA0127201378
B1055424201841N00045611EA0127201378
B1055434201843N00045606EA0127101377
B1055444201844N00045601EA0127101377
B1055454201845N00045596EA0127101376
B1055464201845N00045591EA0127101376
B1055474201845N00045587EA0127001376
B1055484201844N00045584EA0127001375
B1055494201841N00045581EA0126801373
B1055504201838N00045580EA0126801372
B1055514201834N00045581EA0126601371
B1055524201830N00045584EA0126601371
B1055534201827N00045588EA0126601370
B1055544201824N00045593EA0126501370
B1055554201821N00045599EA0126501370
B1055564201820N00045606EA0126501370
B1055574201818N00045613EA0126501369
B1055584201817N00045620EA0126301368
B1055594201816N00045627EA0126301367
B1056004201814N00045635EA0125901365
B1056014201813N00045643EA0125801363
B1056024201811N00045652EA0125801362
B1056034201809N00045661EA0125701362
B1056044201808N00045669EA0125701362
B1056054201806N00045678EA0125801362
B1056064201805N00045686EA0125601361
B1056074201803N00045694EA0125601360
B1056084201802N00045703EA0125501359
B1056094201800N00045711EA0125401358
B1056104201799N00045720EA0125201357
B1056114201797N00045729EA0125301356
B1056124201796N00045737EA0125101356
B1056134201794N00045746EA0125101354
B1056144201793N00045755EA0125001353
B1056154201791N00045764EA0124901353
B1056164201790N00045772EA0124801353
B1056174201789N00045779EA0124801352
B1056184201788N00045787EA0124501351
B1056194201788N00045795EA0124501349
B1056204201787N00045803EA0124201347
B1056214201787N00045812EA0124201346
B1056224201786N00045821EA0124301345
B1056234201786N00045830EA0124401346
B1056244201787N00045840EA0124301347
B1056254201788N00045848EA0124401348
B1056264201789N00045857EA0124601349
B1056274201791N00045866EA0124701350
B1056284201793N00045874EA0124701351
B1056294201795N00045882EA0124701351
B1056304201797N00045890EA0124701350
B1056314201799N00045898EA0124701350
B1056324201801N00045907EA0124701351
B1056334201803N00045915EA0124701351
B1056344201804N00045923EA0124801352
B1056354201806N00045931EA0124701352
B1056364201807N00045938EA0124801351
B1056374201807N00045945EA0124601350
B1056384201808N00045952EA0124501349
B1056394201809N00045960EA0124301347
B1056404201811N00045967EA0124301346
B1056414201813N00045976EA0124101344
B1056424201814N00045984EA0124101343
B1056434201814N00045992EA0123801342
B1056444201814N00046000EA0123801342
B1056454201814N00046008EA0124001342
B1056464201814N00046016EA0123901342
B1056474201814N00046023EA0123801343
B1056484201815N00046030EA0124001343
B1056494201815N00046038EA0123901342
B1056504201816N00046045EA0123801341
B1056514201816N00046054EA0123801340
B1056524201817N00046061EA0123601339
B1056534201817N00046069EA0123401337
B1056544201817N00046076EA0123101335
B1056554201817N00046084EA0122801331
B1056564201817N00046093EA0122401327
B1056574201815N00046101EA0122201325
B1056584201812N00046110EA0122101323
B1056594201809N00046118EA0122301323
B1057004201805N00046127EA0122601326
B1057014201802N00046135EA0123001330
B1057024201799N00046141EA0123201333
B1057034201797N00046147EA0123401336
B1057044201796N00046153EA0123501337
B1057054201795N00046160EA0123601338
B1057064201796N00046168EA0123701339
B1057074201797N00046177EA0124101341
B1057084201799N00046184EA0124201345
B1057094201801N00046190EA0124501348
B1057104201803N00046196EA0124601349
B1057114201805N00046201EA0124701349
B1057124201805N00046208EA0124601348
B1057134201805N00046215EA0124501348
B1057144201804N00046221EA0124401348
B1057154201802N00046225EA0124501348
B1057164201799N00046227EA0124501347
B1057174201796N00046226EA0124501347
B1057184201793N00046222EA0124501347
B1057194201793N00046217EA0124601349
B1057204201796N00046213EA0124901350
B1057214201801N00046209EA0125101352
B1057224201807N00046207EA0125401355
B1057234201812N00046204EA0125801359
B1057244201816N00046202EA0125901361
B1057254201819N00046199EA0126001363
B1057264201821N00046195EA0126101364
B1057274201823N00046191EA0126101364
B1057284201824N00046187EA0126201365
B1057294201824N00046183EA0126301365
B1057304201823N00046179EA0126301366
B1057314201823N00046175EA0126501368
B1057324201823N00046170EA0126601369
B1057334201824N00046166EA0126901371
B1057344201826N00046162EA0127001373
B1057354201829N00046158EA0127101375
B1057364201832N00046154EA0127301376
B1057374201835N00046151EA0127201377
B1057384201837N00046146EA0127501378
B1057394201838N00046142EA0127401378
B1057404201837N00046136EA0127501379
B1057414201837N00046131EA0127901381
B1057424201836N00046127EA0128101384
B1057434201835N00046123EA0128601387
B1057444201835N00046120EA0128401389
B1057454201834N00046117EA0128401389
B1057464201833N00046114EA0128201386
B1057474201830N00046112EA0127801382
B1057484201825N00046112EA0127301378
B1057494201820N00046115EA0127301377
B1057504201816N00046121EA0127001376
B1057514201814N00046128EA0127001374
B1057524201815N00046136EA0126801372
B1057534201817N00046145EA0126401369
B1057544201819N00046154EA0126201366
B1057554201821N00046163EA0125901363
B1057564201822N00046173EA0125901363
B1057574201822N00046182EA0126001363
B1057584201821N00046191EA0126201365
B1057594201820N00046197EA0126201366
B1058004201817N00046202EA0126301366
B1058014201813N00046205EA0126201365
B1058024201809N00046206EA0126101363
B1058034201806N00046206EA0125801362
B1058044201803N00046205EA0125501360
B1058054201802N00046202EA0125201357
B1058064201802N00046198EA0125001355
B1058074201803N00046194EA0124601352
B1058084201804N00046191EA0124701350
B1058094201804N00046187EA0124401347
B1058104201803N00046184EA0124101345
B1058114201802N00046181EA0123901342
B1058124201800N00046177EA0123601340
B1058134201798N00046173EA0123501338
B1058144201797N00046169EA0123401336
B1058154201796N00046165EA0123201335
B1058164201795N00046161EA0123001333
B1058174201796N00046157EA0123101332
B1058184201796N00046153EA0122801331
B1058194201796N00046150EA0122901330
B1058204201795N00046147EA0122701329
B1058214201795N00046144EA0122501327
B1058224201794N00046141EA0122301325
B1058234201793N00046137EA0122001323
B1058244201792N00046132EA0122001321
B1058254201791N00046127EA0121801319
B1058264201790N00046123EA0121801319
B1058274201789N00046119EA0121601318
B1058284201788N00046115EA0121501317
B1058294201788N00046111EA0121501316
B1058304201787N00046107EA0121401315
B1058314201786N00046103EA0121201314
B1058324201786N00046099EA0121101313
B1058334201785N00046094EA0121101311
B1058344201785N00046090EA0120901310
B1058354201784N00046085EA0120901309
B1058364201783N00046080EA0120801308
B1058374201783N00046076EA0120601307
B1058384201782N00046071EA0120601307
B1058394201781N00046067EA0120601307
B1058404201780N00046062EA0120601307
B1058414201779N00046059EA0120501306
B1058424201778N00046055EA0120401305
B1058434201777N00046052EA0120401304
B1058444201775N00046048EA0120301303
B1058454201774N00046044EA0120301303
B1058464201772N00046040EA0120201303
B1058474201771N00046036EA0120101303
B1058484201770N00046033EA0120201303
B1058494201769N00046030EA0120101302
B1058504201767N00046027EA0119901300
B1058514201766N00046024EA0119901299
B1058524201764N00046020EA0119901299
B1058534201761N00046017EA0119801298
B1058544201759N00046013EA0119701297
B1058554201757N00046009EA0119601296
B1058564201755N00046005EA0119501295
B1058574201753N00046001EA0119601295
B1058584201751N00045998EA0119501295
B1058594201750N00045995EA0119301293
B1059004201748N00045992EA0119101291
B1059014201747N00045989EA0118901289
B1059024201745N00045985EA0118601287
B1059034201743N00045981EA0118701285
B1059044201741N00045977EA0118501283
B1059054201739N00045973EA0118401282
B1059064201737N00045970EA0118201281
B1059074201736N00045966EA0118001280
B1059084201734N00045963EA0118001279
B1059094201732N00045960EA0117901277
B1059104201731N00045956EA0117701276
B1059114201729N00045952EA0117601275
B1059124201727N00045948EA0117501274
B1059134201725N00045944EA0117501274
B1059144201724N00045940EA0117401273
B1059154201722N00045936EA0117301272
B1059164201721N00045932EA0117201270
B1059174201720N00045928EA0117101269
B1059184201718N00045924EA0116901268
B1059194201717N00045919EA0116801267
B1059204201715N00045914EA0116801266
B1059214201714N00045909EA0116601265
B1059224201713N00045904EA0116701264
B1059234201712N00045899EA0116401263
B1059244201711N00045895EA0116301261
B1059254201710N00045889EA0116201259
B1059264201710N00045884EA0116101258
B1059274201709N00045879EA0115901257
B1059284201709N00045874EA0115801255
B1059294201708N00045869EA0115701254
B1059304201708N00045864EA0115601253
B1059314201708N00045859EA0115401251
B1059324201707N00045854EA0115201250
B1059334201707N00045849EA0115001248
B1059344201706N00045845EA0114801246
B1059354201705N00045840EA0114601243
B1059364201705N00045835EA0114501242
B1059374201705N00045829EA0114501241
B1059384201705N00045823EA0114501242
B1059394201705N00045819EA0114601243
B1059404201706N00045815EA0114701244
B1059414201706N00045810EA0114901245
B1059424201706N00045806EA0114901247
B1059434201705N00045802EA0115301249
B1059444201705N00045798EA0115601251
B1059454201705N00045794EA0115801254
B1059464201707N00045791EA0115801256
B1059474201710N00045788EA0115801256
B1059484201711N00045784EA0115701255
B1059494201711N00045780EA0115701254
B1059504201711N00045776EA0115701254
B1059514201711N00045771EA0115701254
B1059524201711N00045766EA0115701255
B1059534201710N00045761EA0115901256
B1059544201710N00045757EA0115901257
B1059554201709N00045753EA0116001257
B1059564201708N00045749EA0116001257
B1059574201708N00045744EA0116001258
B1059584201707N00045740EA0116201259
B1059594201707N00045736EA0116201260
B1100004201708N00045733EA0116401261
B1100014201708N00045729EA0116601262
B1100024201708N00045726EA0116601263
B1100034201709N00045723EA0116601264
B1100044201709N00045719EA0116501264
B1100054201710N00045716EA0116601263
B1100064201710N00045712EA0116501263
B1100074201711N00045709EA0116401262
B1100084201710N00045705EA0116301261
B1100094201710N00045700EA0116201260
B1100104201710N00045696EA0116101259
B1100114201710N00045692EA0116001258
B1100124201710N00045687EA0116001257
B1100134201710N00045683EA0116001257
B1100144201710N00045678EA0116001257
B1100154201710N00045674EA0115901258
B1100164201709N00045671EA0116001258
B1100174201708N00045667EA0115901257
B1100184201708N00045663EA0115701256
B1100194201708N00045659EA0115701255
B1100204201709N00045655EA0115701254
B1100214201710N00045651EA0115701254
B1100224201711N00045647EA0115901255
B1100234201711N00045643EA0116001256
B1100244201711N00045640EA0115901257
B1100254201712N00045637EA0115901257
B1100264201712N00045634EA0115901257
B1100274201713N00045630EA0115801256
B1100284201713N00045625EA0115801255
B1100294201713N00045621EA0115801255
B1100304201713N00045618EA0115901256
B1100314201714N00045614EA0115901256
B1100324201715N00045612EA0115801256
B1100334201716N00045609EA0115801256
B1100344201717N00045605EA0115701255
B1100354201718N00045601EA0115701255
B1100364201719N00045597EA0115701255
B1100374201721N00045594EA0115701255
B1100384201722N00045590EA0115701255
B1100394201724N00045587EA0115701255
B1100404201725N00045583EA0115701255
B1100414201727N00045580EA0115601254
B1100424201729N00045576EA0115601254
B1100434201731N00045573EA0115401253
B1100444201733N00045569EA0115401252
B1100454201735N00045565EA0115401251
B1100464201738N00045561EA0115301250
B1100474201739N00045557EA0115301250
B1100484201741N00045554EA0115301250
B1100494201743N00045550EA0115301249
B1100504201744N00045546EA0115001249
B1100514201745N00045542EA0115001248
B1100524201746N00045537EA0114801247
B1100534201748N00045532EA0114801246
B1100544201751N00045527EA0114701246
B1100554201754N00045523EA0114801245
B1100564201756N00045520EA0114701244
B1100574201758N00045516EA0114501243
B1100584201760N00045512EA0114401242
B1100594201762N00045508EA0114301241
B1101004201763N00045504EA0114101240
B1101014201764N00045499EA0114101239
B1101024201765N00045494EA0114001238
B1101034201766N00045489EA0113901236
B1101044201767N00045483EA0113901235
B1101054201769N00045478EA0113701234
B1101064201770N00045473EA0113601233
B1101074201772N00045468EA0113501232
B1101084201773N00045463EA0113501231
B1101094201774N00045458EA0113301230
B1101104201774N00045453EA0113301230
B1101114201772N00045448EA0113201229
B1101124201770N00045445EA0113001227
B1101134201766N00045443EA0112901226
B1101144201762N00045442EA0112701224
B1101154201757N00045443EA0112701223
B1101164201753N00045446EA0112501221
B1101174201749N00045451EA0112201219
B1101184201747N00045457EA0112001217
B1101194201745N00045464EA0111901215
B1101204201743N00045472EA0111801214
B1101214201741N00045479EA0111701212
B1101224201739N00045486EA0111601212
B1101234201737N00045493EA0111501211
B1101244201734N00045498EA0111501210
B1101254201731N00045503EA0111401210
B1101264201728N00045507EA0111201208
B1101274201724N00045511EA0111001207
B1101284201720N00045513EA0110901205
B1101294201715N00045513EA0110801203
B1101304201711N00045511EA0110701202
B1101314201707N00045508EA0110701201
B1101324201705N00045505EA0110401200
B1101334201702N00045501EA0110301199
B1101344201700N00045497EA0110201197
B1101354201698N00045493EA0110101196
B1101364201696N00045489EA0109801194
B1101374201694N00045484EA0109601191
B1101384201692N00045478EA0109501189
B1101394201690N00045473EA0109301188
B1101404201687N00045468EA0109201187
B1101414201684N00045465EA0109201186
B1101424201682N00045462EA0109101185
B1101434201678N00045459EA0108801183
B1101444201674N00045457EA0108601180
B1101454201669N00045455EA0108401178
B1101464201664N00045452EA0108301177
B1101474201660N00045450EA0108301176
B1101484201655N00045448EA0108001175
B1101494201651N00045447EA0107801173
B1101504201647N00045445EA0107601171
B1101514201643N00045443EA0107401168
B1101524201638N00045441EA0107101165
B1101534201633N00045439EA0107001163
B1101544201629N00045437EA0106901162
B1101554201624N00045436EA0106701160
B1101564201619N00045434EA0106601159
B1101574201614N00045432EA0106501158
B1101584201610N00045430EA0106501157
B1101594201605N00045428EA0106301156
B1102004201601N00045427EA0106201154
B1102014201596N00045424EA0105901152
B1102024201591N00045421EA0105801150
B1102034201586N00045419EA0105701149
B1102044201582N00045417EA0105601148
B1102054201578N00045414EA0105401146
B1102064201573N00045412EA0105201144
B1102074201569N00045409EA0105101142
B1102084201565N00045407EA0104901140
B1102094201561N00045404EA0104701138
B1102104201557N00045401EA0104501137
B1102114201553N00045398EA0104301135
B1102124201550N00045395EA0104201133
B1102134201546N00045392EA0104101132
B1102144201543N00045389EA0104101131
B1102154201541N00045386EA0103901130
B1102164201538N00045384EA0103601128
B1102174201535N00045381EA0103401125
B1102184201532N00045376EA0103001121
B1102194201530N00045371EA0102801119
B1102204201528N00045366EA0102801117
B1102214201525N00045361EA0102701117
B1102224201523N00045357EA0102701117
B1102234201522N00045353EA0102601116
B1102244201521N00045349EA0102401115
B1102254201521N00045345EA0102301113
B1102264201521N00045341EA0102201112
B1102274201520N00045336EA0102101111
B1102284201519N00045331EA0102101110
B1102294201518N00045326EA0102201111
B1102304201517N00045322EA0102101111
B1102314201516N00045319EA0102201111
B1102324201515N00045316EA0101901109
B1102334201514N00045312EA0101801108
B1102344201513N00045307EA0101801107
B1102354201512N00045302EA0101801107
B1102364201512N00045298EA0101701107
B1102374201512N00045294EA0101701106
B1102384201512N00045290EA0101501105
B1102394201512N00045287EA0101401102
B1102404201513N00045283EA0101001100
B1102414201513N00045279EA0100801097
B1102424201513N00045274EA0100801096
B1102434201512N00045270EA0100601095
B1102444201511N00045265EA0100501094
B1102454201511N00045261EA0100401093
B1102464201510N00045257EA0100201091
B1102474201510N00045252EA0100101090
B1102484201510N00045246EA0100001089
B1102494201509N00045241EA0099901088
B1102504201509N00045236EA0099901088
B1102514201508N00045230EA0099901088
B1102524201507N00045225EA0100101088
B1102534201507N00045219EA0099901088
B1102544201507N00045214EA0099901087
B1102554201506N00045209EA0099701086
B1102564201505N00045203EA0099601085
B1102574201504N00045198EA0099501083
B1102584201504N00045192EA0099401082
B1102594201503N00045187EA0099401081
B1103004201503N00045182EA0099101079
B1103014201503N00045176EA0098901076
B1103024201502N00045170EA0098601075
B1103034201502N00045164EA0098601074
B1103044201502N00045159EA0098501073
B1103054201502N00045154EA0098401072
B1103064201502N00045151EA0098201071
B1103074201501N00045147EA0098001068
B1103084201501N00045143EA0097701065
B1103094201500N00045139EA0097401062
B1103104201499N00045134EA0097201059
B1103114201497N00045129EA0097001057
B1103124201495N00045123EA0096901056
B1103134201493N00045118EA0096701054
B1103144201492N00045113EA0096501053
B1103154201490N00045107EA0096501051
B1103164201488N00045102EA0096401050
B1103174201486N00045097EA0096301049
B1103184201484N00045092EA0096201048
B1103194201482N00045088EA0095901046
B1103204201479N00045083EA0096001045
B1103214201477N00045079EA0095601043
B1103224201474N00045074EA0095701041
B1103234201472N00045068EA0095401040
B1103244201470N00045063EA0095401040
B1103254201467N00045058EA0095501041
B1103264201465N00045054EA0095601041
B1103274201463N00045050EA0095601041
B1103284201461N00045045EA0095501040
B1103294201460N00045040EA0095601040
B1103304201457N00045036EA0095601040
B1103314201454N00045032EA0095601041
B1103324201451N00045029EA0095601041
B1103334201449N00045025EA0095501040
B1103344201446N00045022EA0095401039
B1103354201442N00045019EA0095001037
B1103364201438N00045017EA0094901034
B1103374201434N00045015EA0094901033
B1103384201429N00045013EA0094701031
B1103394201424N00045012EA0094601030
B1103404201419N00045010EA0094401028
B1103414201414N00045009EA0094201027
B1103424201409N00045007EA0094101025
B1103434201405N00045005EA0093901023
B1103444201400N00045003EA0093801022
B1103454201396N00045000EA0093601020
B1103464201391N00044998EA0093601019
B1103474201386N00044997EA0093501019
B1103484201382N00044995EA0093501018
B1103494201377N00044994EA0093501018
B1103504201372N00044993EA0093401018
B1103514201367N00044992EA0093401018
B1103524201362N00044990EA0093301017
B1103534201358N00044987EA0093301016
B1103544201353N00044984EA0093101015
B1103554201349N00044981EA0093001014
B1103564201345N00044978EA0092901013
B1103574201341N00044976EA0092701011
B1103584201337N00044974EA0092401008
B1103594201332N00044972EA0092201005
B1104004201328N00044971EA0091901002
B1104014201323N00044969EA0091701000
B1104024201318N00044968EA0091400998
B1104034201314N00044966EA0091300996
B1104044201309N00044964EA0091100993
B1104054201305N00044963EA0090800991
B1104064201300N00044962EA0090600988
B1104074201295N00044960EA0090400986
B1104084201290N00044958EA0090200984
B1104094201285N00044957EA0090100983
B1104104201280N00044956EA0090100982
B1104114201276N00044954EA0089800980
B1104124201271N00044953EA0089800978
B1104134201267N00044951EA0089400976
B1104144201262N00044950EA0089200974
B1104154201257N00044948EA0089100972
B1104164201253N00044946EA0089000971
B1104174201249N00044944EA0088900969
B1104184201244N00044942EA0088700968
B1104194201240N00044939EA0088400966
B1104204201236N00044937EA0088400964
B1104214201231N00044934EA0088100962
B1104224201227N00044931EA0088000960
B1104234201223N00044928EA0087800958
B1104244201219N00044925EA0087600957
B1104254201215N00044922EA0087400955
B1104264201211N00044919EA0087300953
B1104274201207N00044915EA0087100951
B1104284201203N00044912EA0086900949
B1104294201199N00044908EA0086600947
B1104304201196N00044905EA0086500945
B1104314201192N00044901EA0086400943
B1104324201188N00044897EA0086200941
B1104334201184N00044893EA0085900939
B1104344201181N00044889EA0085800937
B1104354201177N00044885EA0085600936
B1104364201173N00044881EA0085400934
B1104374201169N00044877EA0085300932
B1104384201166N00044873EA0085100930
B1104394201162N00044869EA0084900928
B1104404201159N00044865EA0084800926
B1104414201156N00044860EA0084500924
B1104424201153N00044855EA0084500922
B1104434201150N00044851EA0084200920
B1104444201148N00044846EA0084100919
B1104454201146N00044841EA0083900917
B1104464201144N00044836EA0083700915
B1104474201142N00044831EA0083500913
B1104484201140N00044826EA0083400911
B1104494201139N00044821EA0083200909
B1104504201137N00044816EA0082900906
B1104514201135N00044810EA0082800905
B1104524201133N00044805EA0082500903
B1104534201130N00044800EA0082500902
B1104544201128N00044794EA0082400900
B1104554201125N00044790EA0082200898
B1104564201124N00044784EA0082000896
B1104574201122N00044779EA0081700894
B1104584201120N00044774EA0081400891
B1104594201118N00044768EA0081300889
B1105004201116N00044762EA0081100887
B1105014201114N00044757EA0081000885
B1105024201112N00044751EA0080700883
B1105034201111N00044744EA0080500881
B1105044201110N00044737EA0080500880
B1105054201108N00044729EA0080500879
B1105064201107N00044723EA0080700881
B1105074201107N00044717EA0080700882
B1105084201107N00044712EA0080800883
B1105094201107N00044708EA0080700883
B1105104201108N00044703EA0080700883
B1105114201109N00044699EA0080500881
B1105124201110N00044694EA0080600880
B1105134201111N00044690EA0080300878
B1105144201112N00044685EA0080100876
B1105154201112N00044680EA0080100874
B1105164201113N00044675EA0079700872
B1105174201113N00044670EA0079600870
B1105184201113N00044665EA0079400868
B1105194201113N00044660EA0079100866
B1105204201112N00044656EA0078800863
B1105214201110N00044652EA0078600860
B1105224201108N00044647EA0078400857
B1105234201104N00044643EA0078100855
B1105244201100N00044640EA0077900853
B1105254201096N00044637EA0077700851
B1105264201092N00044635EA0077500848
B1105274201088N00044633EA0077200845
B1105284201083N00044631EA0076900843
B1105294201078N00044629EA0076600840
B1105304201073N00044628EA0076400837
B1105314201068N00044628EA0076000834
B1105324201062N00044629EA0075900831
B1105334201057N00044630EA0075600828
B1105344201052N00044631EA0075300825
B1105354201048N00044631EA0074900822
B1105364201043N00044630EA0074500817
B1105374201038N00044628EA0074200813
B1105384201032N00044626EA0074000810
B1105394201027N00044625EA0073900809
B1105404201021N00044625EA0073800809
B1105414201017N00044627EA0073600807
B1105424201012N00044632EA0073500805
B1105434201010N00044639EA0073400803
B1105444201009N00044646EA0073200802
B1105454201011N00044652EA0073000801
B1105464201015N00044656EA0072800799
B1105474201018N00044657EA0072500797
B1105484201022N00044657EA0072400794
B1105494201025N00044654EA0072100791
B1105504201028N00044650EA0071800788
B1105514201029N00044645EA0071500786
B1105524201029N00044639EA0071400784
B1105534201027N00044633EA0071100781
B1105544201023N00044627EA0071000779
B1105554201020N00044622EA0070900778
B1105564201016N00044616EA0070700777
B1105574201014N00044610EA0070700776
B1105584201012N00044605EA0070600776
B1105594201011N00044599EA0070700775
B1106004201010N00044594EA0070500775
B1106014201010N00044590EA0070400774
B1106024201011N00044586EA0070300773
B1106034201013N00044583EA0070000770
B1106044201016N00044579EA0070000769
B1106054201018N00044575EA0069900768
B1106064201020N00044570EA0069900767
B1106074201020N00044565EA0069900766
B1106084201019N00044559EA0069600765
B1106094201018N00044553EA0069500764
B1106104201016N00044547EA0069600763
B1106114201012N00044542EA0069300762
B1106124201007N00044540EA0069200761
B1106134201001N00044540EA0069100759
B1106144200996N00044544EA0069000758
B1106154200993N00044550EA0069100758
B1106164200992N00044557EA0068900756
B1106174200993N00044563EA0068600755
B1106184200996N00044568EA0068500753
B1106194201000N00044570EA0068100751
B1106204201004N00044569EA0068000748
B1106214201008N00044567EA0068000747
B1106224201011N00044563EA0068000746
B1106234201014N00044561EA0067900746
B1106244201017N00044560EA0067900746
B1106254201020N00044560EA0067700744
B1106264201023N00044561EA0067500742
B1106274201027N00044562EA0067200739
B1106284201031N00044563EA0067000738
B1106294201034N00044566EA0067000737
B1106304201037N00044569EA0066800736
B1106314201039N00044572EA0066700735
B1106324201042N00044575EA0066600733
B1106334201043N00044575EA0066800733
B1106344201044N00044575EA0066700733
B1106354201043N00044575EA0066700733
B1106364201043N00044575EA0066700733
B1106374201043N00044575EA0066600733
B1106384201043N00044575EA0066700733
B1106394201043N00044575EA0066700733
B1106404201043N00044575EA0066800733
B1106414201043N00044575EA0066800733
B1106424201043N00044575EA0066700733
B1106434201043N00044575EA0066700732
B1106444201043N00044574EA0066700732
B1106454201043N00044574EA0066600732
B1106464201043N00044574EA0066700732
B1106474201043N00044574EA0066600732
B1106484201043N00044574EA0066700732
B1106494201043N00044574EA0066700732
B1106504201043N00044574EA0066700732
GWe9Qiqh/C77Ld/OaBFhzZzrBNlAO0DdobV8KGsLSso0+wpBoEcVF+JlT0WG5WTznwwigVqqXWYy
GelZcP3ffKnfsTYbDoObphFOLsU0spwt7+5r7B9q3yxNKEyET8A1pxVmmkM1ABh0z22r8T0G/uXs
G/wljNKBz6kmv/EzpMYYLo=
