AXSFwn
HFDTEDATE:070826
HFPLTPILOTINCHARGE:Mateu Bendicho
HFCM2CREW2:NIL
HFGTYGLIDERTYPE:MacPara Verve 
HFGIDGLIDERID:NIL
HFDTMGPSDATUM:WGS84
HFRFWFIRMWAREVERSION:EU_2.00V
HFRHWHARDWAREVERSION:4.5
HFFTYFRTYPE:alfapilot,Voolaris Tracker
HFGPSRECEIVER:UBLOX,M10,72,50000,GPS,GLO,GAL
HFPRSPRESSALTSENSOR:ST,LPS22HB,10000
HFALGALTGPS:GEO
HFALPALTPRESSURE:ISA
HFTZNTIMEZONE:0
B1031224202755N00044780EA0145001566
B1031234202755N00044780EA0144901566
B1031244202755N00044780EA0144901565
B1031254202755N00044780EA0145001566
B1031264202756N00044781EA0145001566
B1031274202757N00044781EA0145001567
B1031284202757N00044781EA0145001567
B1031294202757N00044781EA0145001567
B1031304202757N00044781EA0145101567
B1031314202757N00044780EA0144901567
B1031324202757N00044780EA0144901567
B1031334202757N00044780EA0145001567
B1031344202756N00044781EA0145001567
B1031354202756N00044781EA0145001567
B1031364202755N00044781EA0144801567
B1031374202754N00044781EA0144301566
B1031384202752N00044779EA0144701566
B1031394202751N00044778EA0145001566
B1031404202749N00044777EA0145101567
B1031414202747N00044778EA0145001567
B1031424202744N00044781EA0144901565
B1031434202740N00044785EA0144301563
B1031444202736N00044790EA0144001562
B1031454202731N00044794EA0144401563
B1031464202726N00044798EA0145101565
B1031474202722N00044802EA0145601567
B1031484202718N00044805EA0145201569
B1031494202715N00044807EA0145101569
B1031504202711N00044810EA0145201569
B1031514202706N00044815EA0145301570
B1031524202701N00044820EA0145501572
B1031534202697N00044825EA0145901575
B1031544202693N00044829EA0145801577
B1031554202690N00044831EA0146001579
B1031564202687N00044833EA0146301580
B1031574202683N00044835EA0146001579
B1031584202679N00044836EA0146001578
B1031594202674N00044838EA0146101579
B1032004202670N00044841EA0146001579
B1032014202666N00044845EA0146101580
B1032024202661N00044847EA0146301580
B1032034202656N00044849EA0146001580
B1032044202650N00044850EA0146101580
B1032054202645N00044852EA0146301582
B1032064202640N00044856EA0146601585
B1032074202638N00044863EA0146901588
B1032084202638N00044870EA0147001590
B1032094202640N00044877EA0147401593
B1032104202641N00044883EA0147401594
B1032114202641N00044890EA0147501595
B1032124202641N00044896EA0147501595
B1032134202639N00044903EA0147601595
B1032144202637N00044908EA0147501596
B1032154202634N00044914EA0147601596
B1032164202632N00044919EA0147701597
B1032174202630N00044925EA0147601599
B1032184202627N00044930EA0148001600
B1032194202625N00044933EA0147801600
B1032204202620N00044936EA0148001601
B1032214202616N00044941EA0148201604
B1032224202614N00044946EA0148801608
B1032234202613N00044952EA0149401612
B1032244202613N00044957EA0149601616
B1032254202612N00044962EA0149801617
B1032264202610N00044967EA0149801619
B1032274202608N00044971EA0149901620
B1032284202605N00044973EA0150301623
B1032294202602N00044974EA0150601626
B1032304202599N00044974EA0150901629
B1032314202596N00044974EA0150901631
B1032324202593N00044973EA0151001633
B1032334202590N00044973EA0151301635
B1032344202586N00044974EA0151601638
B1032354202583N00044975EA0152101641
B1032364202579N00044976EA0152101644
B1032374202576N00044979EA0152401646
B1032384202572N00044981EA0152401648
B1032394202569N00044985EA0152801651
B1032404202566N00044988EA0153101653
B1032414202562N00044992EA0153101654
B1032424202559N00044996EA0153301656
B1032434202555N00045001EA0153401657
B1032444202553N00045008EA0153501659
B1032454202551N00045017EA0153701661
B1032464202551N00045027EA0154001664
B1032474202552N00045036EA0154501668
B1032484202556N00045044EA0155001672
B1032494202562N00045048EA0155101675
B1032504202568N00045051EA0155201676
B1032514202575N00045051EA0155101676
B1032524202583N00045051EA0155301677
B1032534202589N00045048EA0155301678
B1032544202595N00045043EA0155401680
B1032554202598N00045037EA0155701682
B1032564202600N00045032EA0156001685
B1032574202602N00045027EA0156601688
B1032584202604N00045023EA0156701690
B1032594202607N00045019EA0156701692
B1033004202609N00045015EA0156901693
B1033014202613N00045010EA0156901694
B1033024202616N00045004EA0157001695
B1033034202619N00044998EA0157401699
B1033044202620N00044991EA0157901704
B1033054202621N00044985EA0158001708
B1033064202621N00044979EA0158401711
B1033074202622N00044974EA0158801714
B1033084202623N00044969EA0159101717
B1033094202623N00044963EA0159401719
B1033104202623N00044957EA0159401720
B1033114202623N00044952EA0159401721
B1033124202622N00044946EA0159501722
B1033134202621N00044940EA0159501722
B1033144202622N00044934EA0159601723
B1033154202622N00044927EA0159701724
B1033164202624N00044920EA0159601724
B1033174202625N00044914EA0159801725
B1033184202627N00044907EA0159701725
B1033194202628N00044899EA0159801725
B1033204202628N00044892EA0160001725
B1033214202628N00044886EA0159801725
B1033224202628N00044881EA0159601724
B1033234202629N00044875EA0159301722
B1033244202630N00044868EA0159201720
B1033254202631N00044860EA0159101718
B1033264202632N00044852EA0158701717
B1033274202633N00044843EA0159001716
B1033284202634N00044835EA0158701716
B1033294202635N00044827EA0158801717
B1033304202636N00044821EA0159001717
B1033314202638N00044816EA0159001717
B1033324202639N00044812EA0158601715
B1033334202642N00044807EA0158401712
B1033344202645N00044801EA0157901708
B1033354202648N00044794EA0157501704
B1033364202651N00044787EA0157001702
B1033374202653N00044780EA0157401701
B1033384202655N00044773EA0157201700
B1033394202656N00044767EA0157301699
B1033404202658N00044762EA0157101698
B1033414202660N00044758EA0156901696
B1033424202663N00044753EA0156701694
B1033434202665N00044748EA0156501691
B1033444202667N00044743EA0156301688
B1033454202669N00044737EA0156001685
B1033464202671N00044732EA0155601682
B1033474202673N00044725EA0155401680
B1033484202674N00044719EA0155201678
B1033494202676N00044713EA0155301677
B1033504202677N00044707EA0155001676
B1033514202679N00044702EA0155001674
B1033524202680N00044696EA0154901674
B1033534202682N00044691EA0155201675
B1033544202683N00044687EA0155101676
B1033554202684N00044683EA0155201676
B1033564202685N00044680EA0155201675
B1033574202686N00044677EA0155001674
B1033584202687N00044673EA0154601672
B1033594202688N00044668EA0154601671
B1034004202689N00044663EA0154601671
B1034014202690N00044658EA0154801670
B1034024202692N00044653EA0154701670
B1034034202693N00044649EA0154701670
B1034044202694N00044644EA0154501669
B1034054202695N00044638EA0154401668
B1034064202696N00044633EA0154401668
B1034074202697N00044627EA0154501668
B1034084202698N00044623EA0154401668
B1034094202700N00044619EA0154301667
B1034104202702N00044615EA0154001665
B1034114202705N00044610EA0153901662
B1034124202707N00044604EA0153201658
B1034134202710N00044598EA0153201657
B1034144202713N00044591EA0153401657
B1034154202716N00044585EA0153601659
B1034164202718N00044580EA0153901661
B1034174202719N00044577EA0154001662
B1034184202720N00044574EA0153901662
B1034194202722N00044570EA0153901662
B1034204202723N00044566EA0153801661
B1034214202725N00044560EA0153901661
B1034224202727N00044555EA0154001662
B1034234202728N00044550EA0154201664
B1034244202730N00044547EA0154301665
B1034254202731N00044543EA0154301666
B1034264202733N00044540EA0154101665
B1034274202734N00044535EA0154101664
B1034284202736N00044530EA0154001663
B1034294202738N00044525EA0153901663
B1034304202740N00044520EA0153901663
B1034314202741N00044515EA0153801662
B1034324202742N00044510EA0153901662
B1034334202744N00044504EA0153901662
B1034344202744N00044498EA0154001663
B1034354202745N00044492EA0154401666
B1034364202745N00044488EA0154901670
B1034374202746N00044484EA0154901672
B1034384202747N00044481EA0155201674
B1034394202749N00044477EA0155001674
B1034404202751N00044472EA0155201675
B1034414202754N00044468EA0155201676
B1034424202757N00044465EA0155501677
B1034434202762N00044463EA0155401678
B1034444202767N00044462EA0155401678
B1034454202771N00044462EA0155301677
B1034464202775N00044462EA0155001674
B1034474202779N00044465EA0154501671
B1034484202783N00044470EA0154101666
B1034494202787N00044477EA0154101663
B1034504202788N00044485EA0153901662
B1034514202789N00044493EA0153901662
B1034524202788N00044501EA0154101663
B1034534202788N00044508EA0154001664
B1034544202786N00044515EA0154101664
B1034554202784N00044521EA0154101664
B1034564202781N00044526EA0153901664
B1034574202778N00044531EA0154301664
B1034584202774N00044535EA0154301666
B1034594202770N00044537EA0154501667
B1035004202765N00044540EA0154401667
B1035014202760N00044541EA0154201668
B1035024202755N00044542EA0154401669
B1035034202750N00044543EA0154601670
B1035044202744N00044543EA0154901672
B1035054202739N00044544EA0154901674
B1035064202734N00044545EA0155101676
B1035074202729N00044547EA0155501678
B1035084202725N00044549EA0155601679
B1035094202721N00044550EA0155601680
B1035104202717N00044550EA0155701680
B1035114202713N00044549EA0155601681
B1035124202710N00044546EA0155501680
B1035134202709N00044542EA0155501680
B1035144202709N00044537EA0155601680
B1035154202710N00044532EA0155801681
B1035164202711N00044527EA0155901681
B1035174202712N00044522EA0155901683
B1035184202712N00044518EA0155801683
B1035194202712N00044513EA0155801683
B1035204202712N00044508EA0155901683
B1035214202712N00044503EA0155901683
B1035224202712N00044497EA0155801683
B1035234202712N00044492EA0156001683
B1035244202712N00044487EA0156001683
B1035254202712N00044482EA0155901683
B1035264202712N00044476EA0155901683
B1035274202712N00044471EA0156201685
B1035284202711N00044466EA0156301687
B1035294202711N00044462EA0156901691
B1035304202710N00044459EA0157101693
B1035314202709N00044456EA0157201695
B1035324202708N00044452EA0157301696
B1035334202707N00044449EA0157401697
B1035344202705N00044445EA0157301698
B1035354202704N00044442EA0157601699
B1035364202703N00044440EA0157601700
B1035374202703N00044438EA0157401699
B1035384202703N00044434EA0157301698
B1035394202705N00044430EA0157301697
B1035404202708N00044426EA0157201698
B1035414202711N00044424EA0157401698
B1035424202716N00044423EA0157301698
B1035434202720N00044424EA0157101697
B1035444202725N00044426EA0157101695
B1035454202730N00044430EA0156901693
B1035464202736N00044434EA0156701692
B1035474202740N00044440EA0156601691
B1035484202744N00044448EA0156401691
B1035494202746N00044457EA0156801693
B1035504202746N00044465EA0157101696
B1035514202745N00044472EA0157601699
B1035524202744N00044477EA0157701701
B1035534202742N00044482EA0157701702
B1035544202741N00044488EA0157801703
B1035554202739N00044494EA0157701703
B1035564202737N00044501EA0157701703
B1035574202735N00044508EA0157601704
B1035584202732N00044514EA0157901704
B1035594202729N00044518EA0158001705
B1036004202725N00044522EA0158201706
B1036014202721N00044525EA0158201707
B1036024202716N00044528EA0158301707
B1036034202712N00044531EA0158101707
B1036044202707N00044533EA0158201707
B1036054202701N00044536EA0158301708
B1036064202696N00044539EA0158501709
B1036074202691N00044543EA0158501711
B1036084202686N00044547EA0158701712
B1036094202680N00044550EA0158801713
B1036104202676N00044553EA0159001714
B1036114202671N00044556EA0159101715
B1036124202668N00044560EA0159201716
B1036134202663N00044564EA0159301717
B1036144202659N00044568EA0159201718
B1036154202655N00044574EA0159301719
B1036164202652N00044581EA0159301719
B1036174202650N00044589EA0159301719
B1036184202648N00044599EA0159301719
B1036194202646N00044608EA0159301720
B1036204202644N00044617EA0159601721
B1036214202642N00044625EA0159501721
B1036224202640N00044633EA0159401721
B1036234202637N00044641EA0159401720
B1036244202635N00044649EA0159201720
B1036254202633N00044656EA0159501720
B1036264202630N00044661EA0159301720
B1036274202627N00044665EA0159201718
B1036284202623N00044667EA0159001715
B1036294202619N00044669EA0158401712
B1036304202614N00044670EA0158201708
B1036314202608N00044671EA0157801706
B1036324202603N00044672EA0157601704
B1036334202597N00044672EA0157501702
B1036344202592N00044673EA0157301699
B1036354202587N00044675EA0157101697
B1036364202581N00044678EA0156801694
B1036374202576N00044681EA0156701693
B1036384202571N00044684EA0156701692
B1036394202568N00044687EA0156701691
B1036404202565N00044691EA0156301687
B1036414202562N00044697EA0155801683
B1036424202560N00044704EA0155301679
B1036434202557N00044712EA0154801675
B1036444202555N00044721EA0154601673
B1036454202552N00044730EA0154401670
B1036464202549N00044739EA0154201668
B1036474202546N00044747EA0154101666
B1036484202544N00044756EA0153901665
B1036494202541N00044764EA0153701663
B1036504202539N00044773EA0153801662
B1036514202537N00044782EA0153601660
B1036524202535N00044791EA0153301659
B1036534202533N00044800EA0153501658
B1036544202531N00044808EA0153701660
B1036554202528N00044816EA0153901661
B1036564202526N00044822EA0154001662
B1036574202524N00044829EA0154001663
B1036584202522N00044836EA0154101664
B1036594202519N00044843EA0154301666
B1037004202517N00044849EA0154801669
B1037014202516N00044855EA0154901672
B1037024202514N00044860EA0155201674
B1037034202512N00044864EA0155201676
B1037044202509N00044869EA0155201677
B1037054202508N00044875EA0155601678
B1037064202508N00044881EA0155701679
B1037074202508N00044888EA0155701680
B1037084202510N00044895EA0155701681
B1037094202513N00044902EA0155901682
B1037104202518N00044907EA0155901683
B1037114202523N00044910EA0156201685
B1037124202529N00044911EA0156301687
B1037134202534N00044912EA0156601690
B1037144202539N00044912EA0156801692
B1037154202545N00044911EA0157101695
B1037164202550N00044910EA0157201697
B1037174202555N00044907EA0157701700
B1037184202559N00044904EA0157801703
B1037194202562N00044901EA0158201705
B1037204202565N00044898EA0158101706
B1037214202567N00044894EA0158001706
B1037224202568N00044888EA0158001706
B1037234202568N00044883EA0157901706
B1037244202567N00044877EA0158101706
B1037254202565N00044873EA0157901707
B1037264202562N00044870EA0157901707
B1037274202559N00044867EA0158101707
B1037284202555N00044864EA0158101707
B1037294202552N00044863EA0158001707
B1037304202548N00044861EA0158101707
B1037314202543N00044861EA0158001707
B1037324202539N00044860EA0158101706
B1037334202534N00044859EA0158001706
B1037344202529N00044858EA0158001706
B1037354202524N00044858EA0158001706
B1037364202519N00044859EA0157901705
B1037374202513N00044860EA0158101706
B1037384202507N00044861EA0158001706
B1037394202501N00044862EA0158001707
B1037404202496N00044864EA0158101707
B1037414202491N00044866EA0158301708
B1037424202486N00044868EA0158401710
B1037434202481N00044872EA0158501711
B1037444202476N00044876EA0158601712
B1037454202471N00044881EA0158601712
B1037464202466N00044886EA0158601712
B1037474202462N00044892EA0158501713
B1037484202457N00044898EA0158501713
B1037494202453N00044905EA0158701713
B1037504202449N00044911EA0158701714
B1037514202445N00044917EA0158601713
B1037524202442N00044923EA0158601712
B1037534202438N00044929EA0158301711
B1037544202434N00044936EA0158101709
B1037554202430N00044943EA0157901707
B1037564202426N00044950EA0157901705
B1037574202422N00044958EA0157801704
B1037584202419N00044966EA0157701704
B1037594202416N00044975EA0157701703
B1038004202414N00044983EA0157601703
B1038014202411N00044992EA0157701703
B1038024202409N00045002EA0157701704
B1038034202407N00045011EA0157901704
B1038044202405N00045020EA0158101706
B1038054202403N00045029EA0158201708
B1038064202400N00045038EA0158401709
B1038074202398N00045047EA0158501711
B1038084202396N00045056EA0158701713
B1038094202396N00045065EA0158901716
B1038104202398N00045074EA0159301718
B1038114202401N00045081EA0159501721
B1038124202405N00045088EA0159901723
B1038134202409N00045094EA0159901725
B1038144202413N00045100EA0160001727
B1038154202417N00045105EA0160101728
B1038164202422N00045110EA0160401730
B1038174202427N00045114EA0160601732
B1038184202433N00045116EA0160501733
B1038194202439N00045117EA0160701735
B1038204202445N00045117EA0161101737
B1038214202450N00045117EA0161301739
B1038224202456N00045116EA0161301741
B1038234202462N00045115EA0161801743
B1038244202467N00045113EA0161801745
B1038254202472N00045111EA0162001747
B1038264202476N00045108EA0162101749
B1038274202480N00045104EA0162101750
B1038284202484N00045099EA0162201751
B1038294202488N00045095EA0162801753
B1038304202492N00045091EA0162701756
B1038314202496N00045088EA0163001759
B1038324202500N00045086EA0163301760
B1038334202504N00045084EA0163101761
B1038344202507N00045080EA0163301762
B1038354202510N00045075EA0163201762
B1038364202512N00045070EA0163501764
B1038374202514N00045065EA0163601765
B1038384202516N00045061EA0163701766
B1038394202519N00045056EA0163701765
B1038404202521N00045052EA0163401765
B1038414202524N00045048EA0163401764
B1038424202528N00045044EA0163301763
B1038434202532N00045039EA0163101761
B1038444202536N00045032EA0162801759
B1038454202539N00045025EA0162901759
B1038464202543N00045017EA0163101761
B1038474202546N00045011EA0163501763
B1038484202549N00045005EA0163601766
B1038494202551N00044999EA0164201769
B1038504202552N00044995EA0164601773
B1038514202551N00044991EA0164801775
B1038524202549N00044988EA0164801776
B1038534202546N00044986EA0164701776
B1038544202543N00044982EA0164501776
B1038554202539N00044978EA0164601776
B1038564202535N00044975EA0164901777
B1038574202531N00044971EA0165001779
B1038584202527N00044970EA0165301781
B1038594202522N00044969EA0165301782
B1039004202518N00044969EA0165401783
B1039014202513N00044969EA0165501783
B1039024202507N00044970EA0165301783
B1039034202502N00044972EA0165401783
B1039044202496N00044976EA0165401784
B1039054202492N00044982EA0165401784
B1039064202489N00044990EA0165501784
B1039074202487N00044998EA0165301784
B1039084202486N00045008EA0165501785
B1039094202487N00045016EA0165701787
B1039104202489N00045022EA0165701787
B1039114202492N00045026EA0165601786
B1039124202496N00045030EA0165501785
B1039134202501N00045032EA0165201783
B1039144202506N00045034EA0165401783
B1039154202512N00045035EA0165501784
B1039164202516N00045035EA0165301784
B1039174202520N00045033EA0165101782
B1039184202523N00045029EA0164901781
B1039194202526N00045025EA0164901779
B1039204202530N00045020EA0164801779
B1039214202534N00045015EA0164801779
B1039224202538N00045010EA0165401782
B1039234202542N00045006EA0165601785
B1039244202545N00045003EA0165701787
B1039254202547N00044999EA0165801788
B1039264202548N00044995EA0165801788
B1039274202550N00044990EA0165701787
B1039284202552N00044986EA0165601787
B1039294202553N00044981EA0165701786
B1039304202554N00044976EA0165501785
B1039314202554N00044971EA0165201783
B1039324202554N00044966EA0165001781
B1039334202553N00044960EA0164601778
B1039344202552N00044954EA0164601777
B1039354202550N00044948EA0164601776
B1039364202549N00044944EA0164601776
B1039374202547N00044940EA0164501775
B1039384202546N00044937EA0164201773
B1039394202544N00044933EA0163801770
B1039404202541N00044929EA0163901769
B1039414202538N00044926EA0163901768
B1039424202534N00044924EA0163701767
B1039434202530N00044924EA0163601766
B1039444202525N00044925EA0163401765
B1039454202520N00044926EA0163401764
B1039464202516N00044928EA0163601764
B1039474202512N00044929EA0163401763
B1039484202508N00044931EA0163301763
B1039494202504N00044934EA0163101761
B1039504202500N00044937EA0163001760
B1039514202496N00044940EA0163201761
B1039524202491N00044944EA0163201762
B1039534202488N00044947EA0163301763
B1039544202484N00044949EA0163301762
B1039554202480N00044952EA0163301762
B1039564202476N00044953EA0163401762
B1039574202471N00044954EA0163301761
B1039584202467N00044955EA0163101761
B1039594202462N00044955EA0163301761
B1040004202457N00044956EA0163301762
B1040014202452N00044956EA0163401763
B1040024202446N00044957EA0163601764
B1040034202442N00044958EA0163701766
B1040044202437N00044960EA0163901768
B1040054202433N00044963EA0164201769
B1040064202429N00044966EA0164301770
B1040074202424N00044970EA0164401772
B1040084202420N00044975EA0164601775
B1040094202417N00044981EA0164801777
B1040104202414N00044986EA0165001779
B1040114202411N00044992EA0165101781
B1040124202407N00044998EA0165301781
B1040134202404N00045003EA0165301782
B1040144202399N00045009EA0165401784
B1040154202396N00045014EA0165701785
B1040164202392N00045019EA0165701786
B1040174202388N00045024EA0165601786
B1040184202384N00045028EA0165501785
B1040194202380N00045033EA0165301784
B1040204202376N00045037EA0165501784
B1040214202372N00045042EA0165401784
B1040224202369N00045048EA0165401783
B1040234202367N00045055EA0165301782
B1040244202365N00045063EA0165201781
B1040254202365N00045071EA0165101780
B1040264202365N00045079EA0165001779
B1040274202366N00045088EA0164901779
B1040284202368N00045095EA0164901778
B1040294202371N00045102EA0164701777
B1040304202374N00045109EA0164701777
B1040314202377N00045115EA0164601776
B1040324202381N00045122EA0164801776
B1040334202386N00045127EA0164601776
B1040344202390N00045130EA0164801776
B1040354202395N00045132EA0164601776
B1040364202399N00045134EA0164701775
B1040374202404N00045135EA0164501775
B1040384202409N00045136EA0164701775
B1040394202414N00045138EA0164601775
B1040404202418N00045139EA0164601775
B1040414202422N00045140EA0164501774
B1040424202426N00045140EA0164401774
B1040434202431N00045139EA0164301773
B1040444202435N00045137EA0164301773
B1040454202439N00045135EA0164401773
B1040464202444N00045132EA0164301772
B1040474202448N00045130EA0164501772
B1040484202452N00045128EA0164301773
B1040494202457N00045126EA0164301773
B1040504202461N00045123EA0164601775
B1040514202466N00045120EA0165201778
B1040524202470N00045118EA0165101781
B1040534202473N00045116EA0165501783
B1040544202476N00045113EA0165601784
B1040554202479N00045110EA0165501784
B1040564202482N00045107EA0165401784
B1040574202486N00045103EA0165301784
B1040584202490N00045099EA0165501785
B1040594202493N00045095EA0165701786
B1041004202495N00045090EA0165901787
B1041014202496N00045086EA0166001789
B1041024202496N00045081EA0166001790
B1041034202496N00045076EA0166101790
B1041044202496N00045071EA0166101792
B1041054202495N00045067EA0166201793
B1041064202494N00045062EA0166401794
B1041074202492N00045057EA0166501795
B1041084202490N00045053EA0166601796
B1041094202488N00045049EA0166801797
B1041104202485N00045045EA0166801798
B1041114202482N00045041EA0166801798
B1041124202478N00045037EA0166801799
B1041134202474N00045033EA0167101801
B1041144202470N00045029EA0167101802
B1041154202466N00045026EA0167301803
B1041164202463N00045023EA0167301804
B1041174202459N00045020EA0167301804
B1041184202454N00045017EA0167301804
B1041194202450N00045014EA0167301804
B1041204202446N00045011EA0167301804
B1041214202443N00045007EA0167601804
B1041224202439N00045002EA0167501805
B1041234202436N00044998EA0167501806
B1041244202432N00044994EA0167601806
B1041254202428N00044992EA0167501806
B1041264202423N00044990EA0167401804
B1041274202418N00044989EA0167001802
B1041284202412N00044988EA0166801799
B1041294202407N00044987EA0166501797
B1041304202401N00044986EA0166301795
B1041314202396N00044986EA0166101792
B1041324202390N00044987EA0165801789
B1041334202384N00044987EA0165601786
B1041344202377N00044989EA0165201785
B1041354202370N00044991EA0165401785
B1041364202364N00044992EA0165601785
B1041374202358N00044994EA0165201785
B1041384202352N00044997EA0165501785
B1041394202346N00045001EA0165701786
B1041404202342N00045006EA0166001789
B1041414202338N00045011EA0166201791
B1041424202334N00045015EA0166401793
B1041434202331N00045018EA0166301792
B1041444202327N00045022EA0166101791
B1041454202322N00045026EA0165801789
B1041464202317N00045030EA0165801789
B1041474202312N00045036EA0165901790
B1041484202308N00045042EA0166201791
B1041494202306N00045048EA0166101792
B1041504202304N00045054EA0166301792
B1041514202302N00045060EA0166401791
B1041524202300N00045067EA0165801789
B1041534202298N00045073EA0165701787
B1041544202296N00045081EA0165501785
B1041554202294N00045089EA0165201783
B1041564202294N00045097EA0165101782
B1041574202294N00045105EA0165101781
B1041584202295N00045113EA0165101781
B1041594202297N00045121EA0165001780
B1042004202299N00045128EA0164901778
B1042014202302N00045135EA0164801777
B1042024202305N00045143EA0164701776
B1042034202308N00045150EA0164601776
B1042044202311N00045157EA0164801777
B1042054202314N00045163EA0165001778
B1042064202318N00045169EA0165201778
B1042074202321N00045175EA0164801778
B1042084202323N00045181EA0165001778
B1042094202325N00045189EA0164801777
B1042104202326N00045198EA0164701776
B1042114202327N00045207EA0164701776
B1042124202328N00045216EA0164901777
B1042134202328N00045225EA0164901777
B1042144202329N00045233EA0165001778
B1042154202331N00045241EA0164701777
B1042164202333N00045249EA0164701777
B1042174202337N00045256EA0164801777
B1042184202340N00045263EA0164901778
B1042194202344N00045269EA0164901778
B1042204202348N00045274EA0164801778
B1042214202353N00045279EA0164701777
B1042224202358N00045283EA0164601776
B1042234202363N00045287EA0164301774
B1042244202368N00045291EA0164301773
B1042254202374N00045293EA0164301772
B1042264202380N00045296EA0164501772
B1042274202385N00045298EA0164301772
B1042284202391N00045300EA0164401772
B1042294202396N00045302EA0164401772
B1042304202402N00045302EA0164401772
B1042314202407N00045302EA0164401773
B1042324202413N00045302EA0164501775
B1042334202417N00045302EA0164801777
B1042344202422N00045302EA0165201778
B1042354202426N00045301EA0165201780
B1042364202430N00045300EA0165401781
B1042374202433N00045299EA0165501782
B1042384202437N00045298EA0165501783
B1042394202440N00045295EA0165601784
B1042404202444N00045292EA0165801786
B1042414202446N00045288EA0166001789
B1042424202448N00045285EA0166501792
B1042434202450N00045283EA0166501794
B1042444202451N00045280EA0166501795
B1042454202452N00045277EA0166701796
B1042464202451N00045274EA0166501797
B1042474202449N00045271EA0166501798
B1042484202447N00045269EA0167001800
B1042494202444N00045267EA0167401802
B1042504202442N00045266EA0167301803
B1042514202440N00045265EA0167401804
B1042524202436N00045263EA0167401804
B1042534202433N00045262EA0167301804
B1042544202428N00045261EA0167401804
B1042554202424N00045260EA0167501806
B1042564202419N00045260EA0167801807
B1042574202416N00045259EA0167901807
B1042584202412N00045258EA0167601807
B1042594202409N00045256EA0167501805
B1043004202405N00045254EA0167401803
B1043014202400N00045251EA0167001802
B1043024202395N00045249EA0166901800
B1043034202391N00045246EA0166701799
B1043044202387N00045243EA0166901798
B1043054202383N00045240EA0166701797
B1043064202379N00045237EA0166501796
B1043074202375N00045236EA0166401795
B1043084202370N00045235EA0166301793
B1043094202366N00045234EA0166201792
B1043104202361N00045234EA0165901789
B1043114202356N00045235EA0165701788
B1043124202351N00045237EA0165601787
B1043134202346N00045238EA0165601786
B1043144202341N00045240EA0165501785
B1043154202336N00045241EA0165501784
B1043164202330N00045243EA0165301783
B1043174202325N00045247EA0165301783
B1043184202320N00045251EA0165301783
B1043194202316N00045255EA0165101782
B1043204202311N00045258EA0165101781
B1043214202307N00045261EA0164901779
B1043224202302N00045264EA0164701778
B1043234202298N00045268EA0164601776
B1043244202294N00045273EA0164501774
B1043254202290N00045279EA0164201773
B1043264202286N00045285EA0164101772
B1043274202283N00045293EA0164101771
B1043284202280N00045300EA0164001770
B1043294202278N00045307EA0164001769
B1043304202276N00045315EA0164001768
B1043314202274N00045322EA0163801768
B1043324202273N00045330EA0163701766
B1043334202271N00045337EA0163601765
B1043344202270N00045346EA0163401764
B1043354202269N00045354EA0163301763
B1043364202268N00045361EA0163401762
B1043374202267N00045369EA0163401762
B1043384202267N00045377EA0163101761
B1043394202268N00045384EA0163101759
B1043404202269N00045393EA0162801757
B1043414202271N00045401EA0162701756
B1043424202273N00045409EA0162601755
B1043434202276N00045417EA0162701755
B1043444202279N00045424EA0162701755
B1043454202281N00045430EA0162801755
B1043464202284N00045437EA0162601754
B1043474202287N00045443EA0162401752
B1043484202290N00045450EA0162301751
B1043494202294N00045457EA0162201749
B1043504202298N00045463EA0161901748
B1043514202302N00045469EA0161901747
B1043524202306N00045475EA0161901747
B1043534202311N00045480EA0161901747
B1043544202315N00045486EA0162001747
B1043554202319N00045491EA0161801746
B1043564202324N00045496EA0161401744
B1043574202329N00045501EA0161401742
B1043584202333N00045506EA0161401742
B1043594202338N00045511EA0161301740
B1044004202343N00045514EA0161001739
B1044014202348N00045517EA0160901737
B1044024202353N00045519EA0160601735
B1044034202359N00045522EA0160601734
B1044044202364N00045523EA0160401732
B1044054202369N00045525EA0160301731
B1044064202374N00045526EA0160101728
B1044074202379N00045526EA0159501725
B1044084202385N00045525EA0159601723
B1044094202390N00045523EA0159501721
B1044104202395N00045522EA0159301719
B1044114202399N00045519EA0158801716
B1044124202404N00045516EA0158701714
B1044134202409N00045512EA0158601713
B1044144202414N00045508EA0158701713
B1044154202419N00045505EA0158601713
B1044164202423N00045502EA0158701713
B1044174202428N00045499EA0158601712
B1044184202433N00045496EA0158401711
B1044194202438N00045492EA0158301711
B1044204202442N00045488EA0158401711
B1044214202447N00045484EA0158401711
B1044224202451N00045479EA0158601711
B1044234202454N00045475EA0158501711
B1044244202457N00045470EA0158401710
B1044254202460N00045465EA0158201710
B1044264202463N00045460EA0158401709
B1044274202465N00045456EA0158301709
B1044284202468N00045451EA0158301710
B1044294202470N00045447EA0158401710
B1044304202473N00045444EA0158701711
B1044314202475N00045441EA0158701711
B1044324202477N00045439EA0158601711
B1044334202479N00045435EA0158401710
B1044344202482N00045432EA0158201709
B1044354202484N00045428EA0158201707
B1044364202487N00045423EA0158001706
B1044374202490N00045418EA0158101706
B1044384202493N00045412EA0157901706
B1044394202497N00045406EA0158001706
B1044404202500N00045400EA0158301708
B1044414202503N00045395EA0158401710
B1044424202505N00045390EA0158601712
B1044434202507N00045386EA0158801714
B1044444202509N00045382EA0159001714
B1044454202510N00045378EA0158801714
B1044464202511N00045374EA0158901715
B1044474202514N00045369EA0158901715
B1044484202517N00045365EA0158901715
B1044494202519N00045361EA0158901715
B1044504202522N00045356EA0159101715
B1044514202525N00045351EA0159101715
B1044524202528N00045346EA0159101716
B1044534202531N00045341EA0159001716
B1044544202534N00045336EA0159001716
B1044554202537N00045329EA0158901716
B1044564202541N00045323EA0159301718
B1044574202544N00045317EA0159601720
B1044584202546N00045312EA0159601722
B1044594202549N00045307EA0159801724
B1045004202552N00045304EA0160001726
B1045014202555N00045300EA0160301727
B1045024202557N00045297EA0160201728
B1045034202560N00045294EA0160101728
B1045044202563N00045290EA0160001727
B1045054202566N00045286EA0160001727
B1045064202569N00045281EA0159801726
B1045074202571N00045277EA0159901726
B1045084202574N00045272EA0159901726
B1045094202576N00045267EA0159901725
B1045104202578N00045261EA0159701724
B1045114202580N00045255EA0159601724
B1045124202582N00045249EA0159901724
B1045134202584N00045244EA0159801724
B1045144202586N00045238EA0159901724
B1045154202588N00045233EA0159601723
B1045164202590N00045227EA0159801723
B1045174202592N00045222EA0159501723
B1045184202593N00045217EA0159601722
B1045194202593N00045212EA0159201720
B1045204202593N00045206EA0159101718
B1045214202593N00045200EA0158901715
B1045224202592N00045192EA0158501713
B1045234202591N00045185EA0158401712
B1045244202589N00045178EA0158401711
B1045254202587N00045172EA0158501711
B1045264202586N00045167EA0158401710
B1045274202584N00045161EA0158401710
B1045284202583N00045156EA0158301708
B1045294202581N00045150EA0158101706
B1045304202579N00045144EA0158001705
B1045314202578N00045137EA0157601704
B1045324202578N00045130EA0158001705
B1045334202578N00045123EA0158301707
B1045344202578N00045117EA0158501709
B1045354202579N00045112EA0158401709
B1045364202579N00045107EA0158601709
B1045374202580N00045102EA0158301709
B1045384202580N00045096EA0158401710
B1045394202580N00045092EA0158801710
B1045404202580N00045088EA0158601710
B1045414202580N00045084EA0158501710
B1045424202580N00045079EA0158301709
B1045434202581N00045073EA0158301708
B1045444202580N00045068EA0158201707
B1045454202580N00045062EA0158101707
B1045464202578N00045057EA0158301707
B1045474202576N00045053EA0158501707
B1045484202574N00045049EA0158301707
B1045494202572N00045045EA0158301707
B1045504202569N00045041EA0158201707
B1045514202568N00045035EA0158201706
B1045524202566N00045030EA0158001706
B1045534202566N00045024EA0158001705
B1045544202565N00045018EA0158001704
B1045554202563N00045012EA0157801705
B1045564202562N00045006EA0158501707
B1045574202560N00045000EA0158801711
B1045584202558N00044996EA0159001714
B1045594202556N00044994EA0159201716
B1046004202553N00044991EA0159101717
B1046014202550N00044987EA0159201717
B1046024202547N00044983EA0159301717
B1046034202543N00044979EA0159301717
B1046044202538N00044975EA0159301718
B1046054202534N00044972EA0159301719
B1046064202529N00044970EA0159301718
B1046074202525N00044968EA0159101718
B1046084202519N00044966EA0159101717
B1046094202514N00044965EA0159201716
B1046104202508N00044964EA0159101716
B1046114202502N00044965EA0158901716
B1046124202497N00044966EA0158901715
B1046134202493N00044968EA0158701713
B1046144202488N00044970EA0158201709
B1046154202484N00044975EA0158001705
B1046164202479N00044980EA0157301701
B1046174202475N00044987EA0157401698
B1046184202472N00044995EA0157201697
B1046194202470N00045003EA0156901695
B1046204202469N00045011EA0156701692
B1046214202469N00045020EA0156201688
B1046224202470N00045029EA0155801684
B1046234202471N00045038EA0155701682
B1046244202473N00045045EA0155501680
B1046254202477N00045052EA0155501679
B1046264202481N00045056EA0155401678
B1046274202485N00045060EA0155301677
B1046284202490N00045064EA0155401676
B1046294202495N00045067EA0155301676
B1046304202501N00045069EA0155101675
B1046314202507N00045070EA0155101674
B1046324202513N00045072EA0155101674
B1046334202520N00045072EA0155001675
B1046344202526N00045072EA0155101675
B1046354202531N00045071EA0155401677
B1046364202536N00045069EA0155601680
B1046374202541N00045068EA0155901683
B1046384202546N00045068EA0156101685
B1046394202551N00045068EA0156201686
B1046404202557N00045068EA0156301688
B1046414202562N00045067EA0156701690
B1046424202566N00045065EA0156701691
B1046434202570N00045062EA0156801693
B1046444202574N00045058EA0157101694
B1046454202576N00045054EA0157101695
B1046464202578N00045049EA0157001695
B1046474202579N00045045EA0156901693
B1046484202579N00045042EA0156601690
B1046494202579N00045037EA0156201687
B1046504202579N00045031EA0155701683
B1046514202579N00045025EA0155301679
B1046524202579N00045019EA0154901675
B1046534202578N00045013EA0154701672
B1046544202575N00045008EA0154401670
B1046554202572N00045005EA0154301668
B1046564202569N00045004EA0153901666
B1046574202565N00045004EA0154001666
B1046584202561N00045004EA0154201665
B1046594202558N00045004EA0154201665
B1047004202555N00045005EA0154301664
B1047014202551N00045006EA0153901663
B1047024202548N00045006EA0153501663
B1047034202544N00045004EA0153801662
B1047044202540N00045002EA0153701662
B1047054202536N00045001EA0153901661
B1047064202533N00045001EA0153801661
B1047074202529N00045000EA0153601660
B1047084202525N00044999EA0153901661
B1047094202522N00044997EA0153901662
B1047104202518N00044996EA0154001663
B1047114202514N00044995EA0154301665
B1047124202510N00044993EA0154601668
B1047134202507N00044992EA0154901670
B1047144202504N00044990EA0154901672
B1047154202502N00044987EA0155001674
B1047164202499N00044983EA0155201675
B1047174202497N00044979EA0155401678
B1047184202495N00044974EA0155701681
B1047194202494N00044969EA0156001684
B1047204202494N00044963EA0156201686
B1047214202494N00044958EA0156401689
B1047224202493N00044953EA0156801692
B1047234202490N00044949EA0157301696
B1047244202488N00044947EA0157401698
B1047254202484N00044946EA0157401700
B1047264202481N00044946EA0157701702
B1047274202477N00044947EA0157701703
B1047284202472N00044949EA0157801704
B1047294202468N00044953EA0158001705
B1047304202464N00044958EA0158101706
B1047314202461N00044965EA0158001708
B1047324202459N00044972EA0158401710
B1047334202459N00044979EA0158701713
B1047344202460N00044986EA0158901715
B1047354202462N00044993EA0158901716
B1047364202465N00044999EA0159101717
B1047374202469N00045006EA0159201718
B1047384202473N00045012EA0159301720
B1047394202477N00045017EA0159501722
B1047404202483N00045020EA0159601724
B1047414202489N00045023EA0159701725
B1047424202495N00045024EA0159801727
B1047434202501N00045024EA0160101729
B1047444202507N00045023EA0160301732
B1047454202511N00045021EA0160601734
B1047464202513N00045018EA0160601735
B1047474202515N00045014EA0160701736
B1047484202517N00045009EA0160801737
B1047494202518N00045004EA0160701738
B1047504202518N00044999EA0161001739
B1047514202518N00044994EA0161101740
B1047524202516N00044989EA0161301742
B1047534202514N00044986EA0161501743
B1047544202511N00044983EA0161601745
B1047554202507N00044981EA0161901747
B1047564202504N00044980EA0162001748
B1047574202500N00044979EA0162001749
B1047584202495N00044977EA0162501750
B1047594202490N00044977EA0162301752
B1048004202485N00044978EA0162501754
B1048014202480N00044979EA0162701755
B1048024202475N00044982EA0162801755
B1048034202470N00044987EA0162601756
B1048044202465N00044993EA0162701757
B1048054202461N00044999EA0162901759
B1048064202458N00045005EA0163201760
B1048074202457N00045012EA0163101761
B1048084202456N00045018EA0163101760
B1048094202456N00045025EA0162901759
B1048104202457N00045032EA0162801757
B1048114202459N00045038EA0162601756
B1048124202463N00045044EA0162601756
B1048134202468N00045050EA0162801757
B1048144202473N00045055EA0162901758
B1048154202478N00045059EA0163001759
B1048164202483N00045062EA0163001760
B1048174202489N00045064EA0163201761
B1048184202495N00045065EA0163201762
B1048194202501N00045064EA0163301762
B1048204202506N00045062EA0163301763
B1048214202511N00045059EA0163401763
B1048224202515N00045056EA0163501763
B1048234202517N00045052EA0163301763
B1048244202520N00045048EA0163201762
B1048254202521N00045043EA0163001760
B1048264202521N00045038EA0162801759
B1048274202520N00045032EA0162901760
B1048284202518N00045028EA0163301762
B1048294202516N00045024EA0163401763
B1048304202514N00045021EA0163401764
B1048314202512N00045017EA0163401765
B1048324202509N00045014EA0163501766
B1048334202506N00045010EA0163601767
B1048344202503N00045008EA0163601767
B1048354202499N00045005EA0163601767
B1048364202496N00045004EA0163801768
B1048374202492N00045003EA0163801767
B1048384202487N00045002EA0163601767
B1048394202482N00045002EA0163601767
B1048404202477N00045001EA0163401766
B1048414202471N00045000EA0163501766
B1048424202466N00045000EA0163401765
B1048434202460N00045002EA0163501765
B1048444202454N00045005EA0163301763
B1048454202448N00045009EA0163101761
B1048464202443N00045015EA0162801760
B1048474202438N00045022EA0162801759
B1048484202434N00045030EA0162801759
B1048494202431N00045038EA0162901760
B1048504202430N00045045EA0163001760
B1048514202430N00045052EA0162901759
B1048524202430N00045059EA0163501758
B1048534202430N00045067EA0162501756
B1048544202431N00045075EA0162501754
B1048554202433N00045083EA0162201753
B1048564202435N00045090EA0162201751
B1048574202438N00045096EA0162201750
B1048584202442N00045102EA0161701748
B1048594202446N00045106EA0161601746
B1049004202451N00045111EA0161401744
B1049014202456N00045115EA0161301742
B1049024202461N00045118EA0161301742
B1049034202466N00045120EA0161401741
B1049044202471N00045122EA0161601741
B1049054202476N00045123EA0161201741
B1049064202481N00045123EA0161101740
B1049074202486N00045123EA0161101739
B1049084202491N00045122EA0161001738
B1049094202495N00045120EA0161001738
B1049104202500N00045118EA0160801737
B1049114202505N00045116EA0160801736
B1049124202510N00045114EA0160701737
B1049134202515N00045112EA0161201738
B1049144202518N00045110EA0161201740
B1049154202521N00045108EA0161501742
B1049164202524N00045107EA0161501742
B1049174202527N00045104EA0161401742
B1049184202531N00045101EA0161001741
B1049194202534N00045098EA0161201741
B1049204202537N00045094EA0161201741
B1049214202539N00045089EA0161401741
B1049224202541N00045084EA0161201740
B1049234202542N00045079EA0161201740
B1049244202543N00045074EA0161001739
B1049254202544N00045068EA0161101739
B1049264202545N00045064EA0161201739
B1049274202545N00045059EA0161301738
B1049284202546N00045055EA0161001738
B1049294202547N00045050EA0161201739
B1049304202548N00045047EA0161301740
B1049314202550N00045043EA0161301741
B1049324202552N00045040EA0161301740
B1049334202554N00045036EA0161101739
B1049344202555N00045031EA0161001737
B1049354202557N00045026EA0160701736
B1049364202558N00045021EA0160601735
B1049374202560N00045015EA0160501733
B1049384202561N00045010EA0160401732
B1049394202560N00045004EA0160101730
B1049404202559N00044999EA0160001728
B1049414202556N00044993EA0159901727
B1049424202553N00044988EA0159801726
B1049434202549N00044984EA0159901726
B1049444202545N00044980EA0159901726
B1049454202541N00044977EA0159901726
B1049464202537N00044974EA0159701725
B1049474202532N00044972EA0159501724
B1049484202526N00044970EA0159501722
B1049494202521N00044970EA0159301721
B1049504202516N00044971EA0159201720
B1049514202512N00044972EA0159201718
B1049524202509N00044974EA0158601715
B1049534202505N00044976EA0158401712
B1049544202499N00044978EA0158201710
B1049554202494N00044980EA0158001709
B1049564202488N00044983EA0158101710
B1049574202483N00044985EA0158301710
B1049584202478N00044988EA0158301710
B1049594202473N00044992EA0158301710
B1050004202467N00044996EA0158401710
B1050014202462N00045000EA0158301710
B1050024202458N00045004EA0158201709
B1050034202453N00045009EA0157901707
B1050044202449N00045013EA0157601704
B1050054202444N00045018EA0157601702
B1050064202439N00045023EA0157401701
B1050074202435N00045028EA0157201700
B1050084202432N00045034EA0157301699
B1050094202430N00045041EA0157101697
B1050104202429N00045048EA0157001695
B1050114202428N00045056EA0156701693
B1050124202428N00045064EA0156401690
B1050134202429N00045072EA0156001687
B1050144202431N00045080EA0155601684
B1050154202435N00045086EA0155401682
B1050164202440N00045090EA0155301680
B1050174202445N00045091EA0155201678
B1050184202449N00045090EA0155201677
B1050194202453N00045089EA0154901674
B1050204202456N00045087EA0154601672
B1050214202459N00045084EA0154401669
B1050224202463N00045082EA0154001665
B1050234202466N00045079EA0154001662
B1050244202470N00045077EA0153601660
B1050254202474N00045075EA0153501658
B1050264202477N00045072EA0153401657
B1050274202480N00045069EA0153001655
B1050284202483N00045065EA0152801652
B1050294202487N00045061EA0152701650
B1050304202490N00045056EA0152601649
B1050314202494N00045052EA0152801649
B1050324202497N00045047EA0152601649
B1050334202500N00045043EA0152701650
B1050344202503N00045037EA0152601650
B1050354202505N00045032EA0152701650
B1050364202508N00045025EA0152701650
B1050374202510N00045019EA0152701650
B1050384202513N00045014EA0152801651
B1050394202516N00045008EA0152901652
B1050404202520N00045002EA0153201653
B1050414202523N00044997EA0153201654
B1050424202526N00044993EA0153301655
B1050434202530N00044989EA0153301656
B1050444202534N00044986EA0153301656
B1050454202538N00044982EA0153201655
B1050464202541N00044979EA0153001654
B1050474202545N00044975EA0152901653
B1050484202549N00044971EA0152801652
B1050494202552N00044966EA0152801651
B1050504202555N00044961EA0152701651
B1050514202558N00044956EA0152801651
B1050524202560N00044950EA0152701651
B1050534202561N00044945EA0152901651
B1050544202563N00044939EA0152801652
B1050554202564N00044934EA0152901652
B1050564202566N00044928EA0153001653
B1050574202567N00044923EA0153001653
B1050584202568N00044918EA0152901653
B1050594202569N00044912EA0152901654
B1051004202570N00044907EA0153201655
B1051014202570N00044901EA0153401656
B1051024202569N00044896EA0153301657
B1051034202568N00044892EA0153601658
B1051044202568N00044888EA0153801660
B1051054202567N00044884EA0154001662
B1051064202566N00044881EA0153901663
B1051074202565N00044879EA0154201664
B1051084202564N00044877EA0154101666
B1051094202562N00044875EA0154401667
B1051104202560N00044872EA0154401668
B1051114202558N00044870EA0154501669
B1051124202554N00044868EA0154701672
B1051134202551N00044867EA0155001675
B1051144202548N00044866EA0155501678
B1051154202546N00044865EA0155801681
B1051164202544N00044863EA0155901683
B1051174202542N00044861EA0155901684
B1051184202541N00044857EA0155901685
B1051194202540N00044852EA0156201687
B1051204202538N00044849EA0156501689
B1051214202535N00044848EA0156801690
B1051224202531N00044850EA0156401691
B1051234202527N00044852EA0156701692
B1051244202523N00044855EA0156901694
B1051254202519N00044859EA0157001695
B1051264202516N00044864EA0157001695
B1051274202513N00044871EA0157001697
B1051284202511N00044879EA0157301698
B1051294202510N00044887EA0157601700
B1051304202510N00044895EA0157501701
B1051314202511N00044904EA0157401701
B1051324202514N00044913EA0157301700
B1051334202518N00044921EA0157501699
B1051344202523N00044928EA0157401700
B1051354202528N00044933EA0157501700
B1051364202534N00044937EA0157501700
B1051374202540N00044939EA0157401700
B1051384202545N00044939EA0157401699
B1051394202551N00044939EA0157101699
B1051404202556N00044937EA0157201700
B1051414202561N00044935EA0157501701
B1051424202565N00044933EA0157801702
B1051434202567N00044929EA0157601703
B1051444202569N00044926EA0157901704
B1051454202571N00044923EA0157801706
B1051464202573N00044920EA0158001706
B1051474202576N00044917EA0158301707
B1051484202578N00044913EA0158501709
B1051494202579N00044908EA0158201711
B1051504202581N00044904EA0158701714
B1051514202582N00044899EA0159501718
B1051524202583N00044895EA0159601722
B1051534202584N00044892EA0159901725
B1051544202586N00044888EA0160101727
B1051554202588N00044884EA0159901728
B1051564202589N00044880EA0160301730
B1051574202589N00044875EA0160501732
B1051584202588N00044870EA0160801735
B1051594202588N00044867EA0161501739
B1052004202587N00044863EA0161501742
B1052014202587N00044860EA0161701745
B1052024202587N00044858EA0161901748
B1052034202585N00044856EA0162201749
B1052044202584N00044855EA0162401750
B1052054202581N00044854EA0162201750
B1052064202579N00044852EA0162101750
B1052074202576N00044851EA0162201750
B1052084202573N00044851EA0162101750
B1052094202569N00044852EA0162101750
B1052104202565N00044853EA0162401751
B1052114202561N00044855EA0162301753
B1052124202557N00044859EA0162801756
B1052134202554N00044864EA0163101759
B1052144202552N00044869EA0163401761
B1052154202550N00044875EA0163401762
B1052164202549N00044881EA0163301762
B1052174202548N00044888EA0163301761
B1052184202548N00044896EA0163201761
B1052194202547N00044904EA0163301761
B1052204202548N00044913EA0163201762
B1052214202549N00044922EA0163301762
B1052224202552N00044932EA0163401763
B1052234202555N00044941EA0163601764
B1052244202560N00044949EA0163701766
B1052254202566N00044956EA0163901767
B1052264202572N00044961EA0164001768
B1052274202579N00044965EA0164201770
B1052284202586N00044969EA0164101771
B1052294202592N00044971EA0164201772
B1052304202599N00044972EA0164801772
B1052314202605N00044971EA0164501773
B1052324202609N00044969EA0164301774
B1052334202613N00044967EA0164501774
B1052344202617N00044965EA0164701775
B1052354202620N00044962EA0164601775
B1052364202622N00044959EA0164701776
B1052374202625N00044955EA0164901777
B1052384202626N00044951EA0164801779
B1052394202628N00044948EA0165001780
B1052404202628N00044944EA0165301782
B1052414202628N00044940EA0165201783
B1052424202627N00044936EA0165201785
B1052434202626N00044932EA0165801787
B1052444202625N00044928EA0166001791
B1052454202624N00044925EA0166401794
B1052464202623N00044923EA0166701796
B1052474202622N00044920EA0166801798
B1052484202620N00044918EA0166901799
B1052494202617N00044917EA0166801800
B1052504202613N00044915EA0167001802
B1052514202609N00044915EA0167501804
B1052524202605N00044915EA0167601807
B1052534202602N00044917EA0168001809
B1052544202598N00044919EA0168101811
B1052554202595N00044922EA0168001812
B1052564202591N00044926EA0168101813
B1052574202587N00044933EA0168301815
B1052584202584N00044941EA0168901819
B1052594202583N00044948EA0169301824
B1053004202584N00044955EA0169501827
B1053014202585N00044961EA0169601828
B1053024202587N00044968EA0169601827
B1053034202591N00044976EA0169401825
B1053044202596N00044984EA0169001823
B1053054202601N00044991EA0169201823
B1053064202608N00044995EA0169101823
B1053074202614N00044999EA0169201825
B1053084202620N00045002EA0169701828
B1053094202626N00045005EA0170101830
B1053104202631N00045008EA0170001832
B1053114202637N00045009EA0170101833
B1053124202643N00045009EA0169701833
B1053134202648N00045007EA0170101834
B1053144202653N00045003EA0170201835
B1053154202656N00044999EA0170201836
B1053164202657N00044995EA0170501838
B1053174202658N00044992EA0170601840
B1053184202658N00044989EA0170701841
B1053194202658N00044986EA0170701841
B1053204202657N00044984EA0170601841
B1053214202656N00044980EA0170501841
B1053224202654N00044975EA0170701841
B1053234202652N00044970EA0171001843
B1053244202650N00044966EA0171201845
B1053254202648N00044961EA0171401848
B1053264202646N00044957EA0171901850
B1053274202643N00044954EA0171901853
B1053284202639N00044953EA0172501856
B1053294202635N00044952EA0172301858
B1053304202632N00044952EA0172701861
B1053314202628N00044951EA0172801863
B1053324202625N00044949EA0173301864
B1053334202621N00044948EA0173101866
B1053344202616N00044949EA0173201867
B1053354202611N00044950EA0173401869
B1053364202605N00044953EA0173901871
B1053374202600N00044955EA0173901873
B1053384202596N00044957EA0174301876
B1053394202592N00044960EA0174201878
B1053404202588N00044963EA0174501879
B1053414202583N00044967EA0174501880
B1053424202579N00044971EA0174401880
B1053434202575N00044976EA0174601880
B1053444202570N00044980EA0174501881
B1053454202565N00044984EA0174401881
B1053464202560N00044988EA0174501881
B1053474202556N00044992EA0174501881
B1053484202551N00044996EA0174501881
B1053494202546N00045000EA0174401880
B1053504202541N00045005EA0174401880
B1053514202536N00045010EA0174301879
B1053524202531N00045016EA0174401879
B1053534202526N00045021EA0174401879
B1053544202520N00045026EA0174301879
B1053554202514N00045031EA0174401879
B1053564202508N00045036EA0174501879
B1053574202503N00045042EA0174601881
B1053584202498N00045047EA0174801882
B1053594202494N00045052EA0174701882
B1054004202490N00045058EA0174501880
B1054014202485N00045064EA0174301878
B1054024202481N00045070EA0173901876
B1054034202476N00045076EA0173801874
B1054044202470N00045082EA0173501872
B1054054202465N00045087EA0173601872
B1054064202459N00045093EA0173701873
B1054074202455N00045099EA0173901874
B1054084202450N00045104EA0174001876
B1054094202446N00045109EA0174101877
B1054104202441N00045113EA0174201878
B1054114202436N00045118EA0174101878
B1054124202432N00045122EA0174301878
B1054134202426N00045127EA0174101877
B1054144202421N00045132EA0174101876
B1054154202415N00045138EA0174001876
B1054164202410N00045144EA0174601877
B1054174202406N00045149EA0174301879
B1054184202402N00045154EA0174701881
B1054194202398N00045159EA0174601881
B1054204202395N00045164EA0174501880
B1054214202390N00045169EA0174401879
B1054224202386N00045175EA0174101878
B1054234202380N00045181EA0174001876
B1054244202375N00045187EA0173901874
B1054254202369N00045192EA0173701872
B1054264202363N00045198EA0173401871
B1054274202357N00045205EA0173401870
B1054284202352N00045211EA0173301870
B1054294202347N00045217EA0173501870
B1054304202342N00045222EA0173301869
B1054314202336N00045227EA0173201868
B1054324202331N00045233EA0173001866
B1054334202325N00045238EA0172901865
B1054344202319N00045244EA0172801864
B1054354202314N00045249EA0172801864
B1054364202308N00045254EA0172701863
B1054374202303N00045259EA0172801863
B1054384202298N00045264EA0172801862
B1054394202292N00045269EA0172501860
B1054404202287N00045275EA0172301859
B1054414202281N00045281EA0172101857
B1054424202275N00045286EA0172001856
B1054434202269N00045291EA0171901854
B1054444202263N00045296EA0171701853
B1054454202257N00045302EA0171601851
B1054464202252N00045308EA0171501850
B1054474202246N00045313EA0171401849
B1054484202240N00045319EA0171301848
B1054494202235N00045324EA0171101846
B1054504202229N00045329EA0171001845
B1054514202223N00045335EA0170901843
B1054524202218N00045340EA0170701842
B1054534202212N00045345EA0170601841
B1054544202206N00045351EA0170501839
B1054554202201N00045356EA0170401838
B1054564202195N00045361EA0170301837
B1054574202190N00045366EA0170101836
B1054584202184N00045371EA0169901835
B1054594202178N00045377EA0169801834
B1055004202172N00045382EA0169801833
B1055014202167N00045387EA0169801832
B1055024202161N00045392EA0169701830
B1055034202156N00045398EA0169601829
B1055044202150N00045403EA0169401828
B1055054202144N00045408EA0169301827
B1055064202139N00045413EA0169101826
B1055074202133N00045418EA0169001825
B1055084202127N00045423EA0169101824
B1055094202122N00045428EA0168801823
B1055104202116N00045433EA0168801822
B1055114202110N00045438EA0168701821
B1055124202104N00045443EA0168701820
B1055134202098N00045448EA0168501819
B1055144202093N00045453EA0168401818
B1055154202087N00045458EA0168301817
B1055164202081N00045463EA0168301816
B1055174202076N00045468EA0168201815
B1055184202070N00045473EA0168001813
B1055194202064N00045477EA0167901812
B1055204202059N00045482EA0167801811
B1055214202053N00045487EA0167601810
B1055224202047N00045492EA0167501809
B1055234202041N00045497EA0167501808
B1055244202036N00045501EA0167401807
B1055254202030N00045506EA0167301806
B1055264202024N00045511EA0167101804
B1055274202018N00045516EA0166901803
B1055284202013N00045521EA0166801802
B1055294202007N00045526EA0166601801
B1055304202001N00045531EA0166701800
B1055314201995N00045536EA0166601799
B1055324201989N00045541EA0166501798
B1055334201984N00045546EA0166301796
B1055344201978N00045551EA0166201795
B1055354201972N00045555EA0166301794
B1055364201966N00045560EA0165901793
B1055374201960N00045565EA0165901791
B1055384201955N00045570EA0165701790
B1055394201949N00045575EA0165501789
B1055404201943N00045579EA0165601788
B1055414201937N00045583EA0165401787
B1055424201932N00045588EA0165301785
B1055434201926N00045592EA0165101784
B1055444201920N00045596EA0165101783
B1055454201914N00045599EA0165101782
B1055464201908N00045603EA0165101782
B1055474201903N00045607EA0165001781
B1055484201897N00045611EA0164801779
B1055494201891N00045614EA0164701778
B1055504201885N00045618EA0164601777
B1055514201879N00045621EA0164501776
B1055524201873N00045625EA0164601776
B1055534201868N00045628EA0164501775
B1055544201862N00045631EA0164401774
B1055554201856N00045634EA0164201773
B1055564201851N00045637EA0164201771
B1055574201845N00045640EA0164001770
B1055584201839N00045644EA0163801768
B1055594201833N00045647EA0163601767
B1056004201827N00045650EA0163501766
B1056014201821N00045652EA0163501765
B1056024201815N00045655EA0163501764
B1056034201809N00045658EA0163201763
B1056044201803N00045660EA0163201762
B1056054201797N00045663EA0163001760
B1056064201790N00045665EA0162901759
B1056074201784N00045667EA0162801758
B1056084201778N00045669EA0162701757
B1056094201772N00045671EA0162401756
B1056104201766N00045674EA0162501755
B1056114201760N00045676EA0162301753
B1056124201754N00045679EA0162201752
B1056134201748N00045681EA0162101751
B1056144201742N00045684EA0161901750
B1056154201736N00045687EA0161901749
B1056164201730N00045690EA0161901748
B1056174201724N00045693EA0161701747
B1056184201717N00045697EA0161701746
B1056194201711N00045700EA0161601745
B1056204201705N00045703EA0161501744
B1056214201699N00045705EA0161401743
B1056224201693N00045708EA0161301742
B1056234201687N00045710EA0161301742
B1056244201681N00045711EA0161301741
B1056254201675N00045712EA0161101740
B1056264201669N00045713EA0160801739
B1056274201664N00045714EA0160801737
B1056284201658N00045714EA0160701736
B1056294201652N00045716EA0160701735
B1056304201645N00045717EA0160701735
B1056314201640N00045719EA0160501734
B1056324201634N00045720EA0160401733
B1056334201628N00045722EA0160401732
B1056344201622N00045723EA0160201731
B1056354201616N00045725EA0160101730
B1056364201610N00045726EA0160001729
B1056374201604N00045727EA0159901728
B1056384201598N00045728EA0159901727
B1056394201593N00045729EA0159701726
B1056404201587N00045730EA0159801725
B1056414201581N00045731EA0159501724
B1056424201575N00045732EA0159601723
B1056434201569N00045733EA0159401723
B1056444201563N00045734EA0159401722
B1056454201558N00045735EA0159201721
B1056464201552N00045736EA0159201720
B1056474201547N00045736EA0159201719
B1056484201541N00045737EA0158901717
B1056494201535N00045738EA0158801716
B1056504201530N00045738EA0158601715
B1056514201524N00045739EA0158701714
B1056524201518N00045739EA0158501713
B1056534201513N00045740EA0158501712
B1056544201507N00045741EA0158501711
B1056554201501N00045741EA0158201710
B1056564201496N00045741EA0158101708
B1056574201490N00045742EA0158001707
B1056584201484N00045743EA0157901706
B1056594201479N00045744EA0157801705
B1057004201473N00045745EA0157701704
B1057014201467N00045745EA0157601703
B1057024201462N00045746EA0157501702
B1057034201456N00045747EA0157301700
B1057044201450N00045748EA0157101699
B1057054201444N00045749EA0157101698
B1057064201438N00045750EA0157001697
B1057074201433N00045750EA0156801696
B1057084201427N00045750EA0156801695
B1057094201422N00045751EA0156801694
B1057104201416N00045751EA0156601692
B1057114201410N00045751EA0156601691
B1057124201405N00045752EA0156401689
B1057134201399N00045753EA0156201688
B1057144201393N00045754EA0156101687
B1057154201387N00045755EA0156001685
B1057164201381N00045756EA0155801684
B1057174201375N00045757EA0155801683
B1057184201368N00045758EA0155601682
B1057194201362N00045758EA0155601680
B1057204201356N00045759EA0155401679
B1057214201350N00045760EA0155301678
B1057224201344N00045761EA0155201676
B1057234201338N00045761EA0154901675
B1057244201332N00045762EA0154901673
B1057254201326N00045762EA0154701672
B1057264201319N00045762EA0154601671
B1057274201313N00045762EA0154501669
B1057284201307N00045763EA0154401668
B1057294201301N00045763EA0154301667
B1057304201295N00045762EA0154301666
B1057314201289N00045762EA0154201665
B1057324201283N00045762EA0154001664
B1057334201278N00045762EA0153601663
B1057344201272N00045762EA0153601661
B1057354201266N00045761EA0153401659
B1057364201260N00045761EA0153301658
B1057374201254N00045761EA0153201657
B1057384201248N00045761EA0153301657
B1057394201243N00045761EA0153201656
B1057404201237N00045762EA0153201655
B1057414201232N00045763EA0153101654
B1057424201226N00045763EA0152901653
B1057434201220N00045764EA0152801652
B1057444201214N00045764EA0152801652
B1057454201208N00045765EA0152701651
B1057464201202N00045766EA0152701650
B1057474201196N00045767EA0152601649
B1057484201190N00045768EA0152401648
B1057494201184N00045768EA0152401647
B1057504201178N00045769EA0152101645
B1057514201172N00045769EA0152101644
B1057524201166N00045770EA0151801643
B1057534201160N00045771EA0151801642
B1057544201154N00045771EA0151701640
B1057554201148N00045772EA0151601639
B1057564201142N00045773EA0151401637
B1057574201136N00045774EA0151301636
B1057584201130N00045775EA0151101634
B1057594201124N00045776EA0151001632
B1058004201117N00045777EA0150801631
B1058014201111N00045778EA0150701630
B1058024201105N00045779EA0150701629
B1058034201099N00045779EA0150701629
B1058044201093N00045780EA0150501628
B1058054201087N00045781EA0150401627
B1058064201081N00045781EA0150201626
B1058074201076N00045781EA0150101625
B1058084201070N00045781EA0150101624
B1058094201064N00045781EA0150201624
B1058104201058N00045781EA0150101624
B1058114201052N00045781EA0150101624
B1058124201047N00045780EA0150101623
B1058134201041N00045780EA0150001622
B1058144201036N00045780EA0149901621
B1058154201030N00045779EA0149601621
B1058164201025N00045779EA0149901621
B1058174201019N00045779EA0149801621
B1058184201014N00045779EA0149801620
B1058194201009N00045779EA0149801620
B1058204201004N00045780EA0149601618
B1058214200999N00045781EA0149401617
B1058224200993N00045781EA0149301615
B1058234200988N00045781EA0149301614
B1058244200983N00045781EA0149301614
B1058254200978N00045782EA0149201614
B1058264200973N00045782EA0149101613
B1058274200968N00045783EA0149001612
B1058284200963N00045783EA0148801611
B1058294200958N00045783EA0148801609
B1058304200953N00045783EA0148701608
B1058314200947N00045784EA0148501607
B1058324200942N00045784EA0148501606
B1058334200937N00045785EA0148301605
B1058344200931N00045786EA0148301604
B1058354200926N00045787EA0148201603
B1058364200921N00045789EA0148101602
B1058374200915N00045790EA0147901601
B1058384200910N00045790EA0147701599
B1058394200904N00045791EA0147501597
B1058404200899N00045792EA0147301596
B1058414200893N00045793EA0147201594
B1058424200888N00045794EA0147201593
B1058434200883N00045794EA0147201592
B1058444200878N00045795EA0147001590
B1058454200872N00045796EA0146801589
B1058464200867N00045796EA0146701588
B1058474200862N00045797EA0146601587
B1058484200857N00045796EA0146501586
B1058494200852N00045796EA0146401585
B1058504200847N00045796EA0146201584
B1058514200842N00045795EA0145901582
B1058524200837N00045794EA0146001581
B1058534200832N00045793EA0146101581
B1058544200828N00045792EA0146101581
B1058554200824N00045792EA0146101580
B1058564200820N00045792EA0146001580
B1058574200815N00045793EA0145901579
B1058584200811N00045793EA0145901579
B1058594200807N00045793EA0145801578
B1059004200803N00045792EA0145701578
B1059014200798N00045792EA0145701577
B1059024200794N00045792EA0145601576
B1059034200790N00045793EA0145401574
B1059044200785N00045792EA0145301573
B1059054200781N00045792EA0145101571
B1059064200776N00045791EA0145001570
B1059074200771N00045791EA0144901569
B1059084200766N00045792EA0144801569
B1059094200761N00045792EA0144801568
B1059104200756N00045793EA0144701567
B1059114200752N00045793EA0144701567
B1059124200747N00045793EA0144501566
B1059134200742N00045794EA0144401565
B1059144200738N00045795EA0144301563
B1059154200733N00045796EA0144301563
B1059164200728N00045798EA0144001562
B1059174200723N00045799EA0144301563
B1059184200718N00045800EA0144401563
B1059194200714N00045802EA0144501563
B1059204200710N00045805EA0144401563
B1059214200707N00045807EA0144501563
B1059224200704N00045809EA0144601563
B1059234200701N00045811EA0144401563
B1059244200698N00045812EA0144501562
B1059254200695N00045813EA0144401561
B1059264200692N00045812EA0144101560
B1059274200689N00045810EA0144001559
B1059284200687N00045807EA0144001558
B1059294200685N00045803EA0144001557
B1059304200684N00045800EA0144001557
B1059314200682N00045797EA0143901557
B1059324200681N00045794EA0143801556
B1059334200680N00045791EA0143701555
B1059344200680N00045787EA0143601554
B1059354200679N00045782EA0143401552
B1059364200679N00045778EA0143301552
B1059374200679N00045774EA0143501551
B1059384200680N00045769EA0143401550
B1059394200681N00045765EA0143301549
B1059404200682N00045760EA0143101549
B1059414200683N00045754EA0143101548
B1059424200684N00045749EA0143201548
B1059434200684N00045744EA0143101548
B1059444200685N00045738EA0143201549
B1059454200686N00045733EA0143301549
B1059464200687N00045728EA0143501550
B1059474200687N00045724EA0143401550
B1059484200687N00045721EA0143301549
B1059494200687N00045717EA0143101548
B1059504200687N00045713EA0143001547
B1059514200687N00045708EA0142701546
B1059524200687N00045703EA0142901546
B1059534200687N00045698EA0143001546
B1059544200688N00045694EA0143201547
B1059554200688N00045690EA0143201547
B1059564200690N00045685EA0143201547
B1059574200691N00045681EA0143101547
B1059584200693N00045677EA0143201547
B1059594200694N00045673EA0143001546
B1100004200696N00045669EA0143001545
B1100014200697N00045665EA0142701545
B1100024200699N00045661EA0142801545
B1100034200702N00045657EA0142801544
B1100044200706N00045653EA0142901542
B1100054200710N00045647EA0142301540
B1100064200713N00045641EA0142301540
B1100074200717N00045635EA0142501540
B1100084200721N00045629EA0142501541
B1100094200725N00045625EA0142401541
B1100104200729N00045620EA0142401542
B1100114200733N00045616EA0142401541
B1100124200738N00045612EA0142301541
B1100134200742N00045608EA0142101539
B1100144200747N00045603EA0142001538
B1100154200752N00045599EA0141701536
B1100164200757N00045595EA0141801534
B1100174200763N00045591EA0141601533
B1100184200768N00045588EA0141701533
B1100194200773N00045585EA0141601532
B1100204200778N00045582EA0141301530
B1100214200784N00045578EA0141101528
B1100224200791N00045574EA0140901527
B1100234200797N00045569EA0141001526
B1100244200803N00045565EA0141201526
B1100254200808N00045560EA0141001526
B1100264200814N00045556EA0140901526
B1100274200819N00045552EA0140901525
B1100284200825N00045548EA0140701523
B1100294200831N00045544EA0140601522
B1100304200837N00045540EA0140701522
B1100314200842N00045535EA0140701522
B1100324200848N00045531EA0140801522
B1100334200853N00045527EA0140701522
B1100344200859N00045523EA0140401521
B1100354200864N00045519EA0140301520
B1100364200870N00045515EA0140301519
B1100374200876N00045511EA0140101518
B1100384200882N00045507EA0140001517
B1100394200888N00045503EA0140001517
B1100404200894N00045499EA0140101516
B1100414200899N00045494EA0139801515
B1100424200904N00045490EA0139801513
B1100434200910N00045486EA0139701512
B1100444200916N00045481EA0139501511
B1100454200922N00045477EA0139401510
B1100464200927N00045473EA0139201509
B1100474200933N00045469EA0139201508
B1100484200938N00045464EA0139001506
B1100494200944N00045460EA0138801505
B1100504200949N00045455EA0138701504
B1100514200955N00045451EA0138701503
B1100524200960N00045446EA0138701502
B1100534200965N00045442EA0138601501
B1100544200971N00045437EA0138601500
B1100554200976N00045433EA0138301499
B1100564200982N00045429EA0138201497
B1100574200987N00045424EA0138101496
B1100584200993N00045420EA0138101495
B1100594200998N00045416EA0137901494
B1101004201004N00045412EA0137901492
B1101014201009N00045407EA0137601491
B1101024201014N00045403EA0137501489
B1101034201020N00045399EA0137401488
B1101044201025N00045394EA0137301486
B1101054201030N00045389EA0137101485
B1101064201035N00045385EA0136901483
B1101074201041N00045380EA0136601481
B1101084201046N00045376EA0136601480
B1101094201051N00045371EA0136501478
B1101104201056N00045365EA0136201477
B1101114201061N00045360EA0136001475
B1101124201066N00045355EA0136001474
B1101134201071N00045351EA0135701472
B1101144201077N00045346EA0135701470
B1101154201082N00045341EA0135601468
B1101164201088N00045336EA0135401467
B1101174201093N00045332EA0135201466
B1101184201099N00045327EA0135201465
B1101194201104N00045323EA0135001463
B1101204201110N00045319EA0134901462
B1101214201115N00045315EA0134801461
B1101224201121N00045310EA0134601459
B1101234201127N00045305EA0134501458
B1101244201132N00045301EA0134501458
B1101254201138N00045297EA0134401457
B1101264201143N00045292EA0134301456
B1101274201149N00045288EA0134301455
B1101284201154N00045284EA0134101454
B1101294201160N00045280EA0134001453
B1101304201166N00045276EA0134001452
B1101314201172N00045273EA0133901452
B1101324201177N00045269EA0133901451
B1101334201183N00045265EA0133801451
B1101344201189N00045262EA0133701450
B1101354201194N00045258EA0133601449
B1101364201199N00045254EA0133501448
B1101374201205N00045250EA0133501447
B1101384201210N00045245EA0133501447
B1101394201215N00045241EA0133301446
B1101404201220N00045237EA0133301446
B1101414201225N00045233EA0133201445
B1101424201230N00045229EA0133201445
B1101434201235N00045224EA0133101444
B1101444201240N00045220EA0132901444
B1101454201244N00045216EA0132801443
B1101464201249N00045211EA0132801443
B1101474201252N00045206EA0132901442
B1101484201256N00045202EA0132501440
B1101494201260N00045197EA0132601439
B1101504201264N00045193EA0132501438
B1101514201268N00045189EA0132301437
B1101524201272N00045185EA0132201435
B1101534201275N00045181EA0131901432
B1101544201279N00045176EA0131701429
B1101554201284N00045172EA0131301426
B1101564201288N00045167EA0131201424
B1101574201292N00045163EA0131101422
B1101584201296N00045158EA0130801420
B1101594201300N00045154EA0130601417
B1102004201304N00045150EA0130201415
B1102014201308N00045145EA0130101412
B1102024201312N00045141EA0129701409
B1102034201317N00045136EA0129601407
B1102044201321N00045132EA0129501405
B1102054201326N00045128EA0129301403
B1102064201330N00045124EA0129101401
B1102074201335N00045120EA0128801399
B1102084201339N00045115EA0128301397
B1102094201344N00045110EA0128701396
B1102104201348N00045106EA0128701397
B1102114201352N00045102EA0128801397
B1102124201356N00045098EA0128701397
B1102134201360N00045094EA0128601396
B1102144201364N00045090EA0128501395
B1102154201368N00045086EA0128401394
B1102164201371N00045082EA0128101393
B1102174201375N00045077EA0128101392
B1102184201379N00045072EA0128001390
B1102194201383N00045068EA0128001390
B1102204201387N00045063EA0127901389
B1102214201390N00045058EA0128001388
B1102224201394N00045052EA0127701388
B1102234201397N00045047EA0127801387
B1102244201400N00045042EA0127801387
B1102254201403N00045037EA0127601386
B1102264201405N00045033EA0127401384
B1102274201407N00045027EA0127101382
B1102284201411N00045021EA0126701378
B1102294201414N00045015EA0126501376
B1102304201417N00045008EA0126401374
B1102314201420N00045001EA0126401373
B1102324201423N00044995EA0126201371
B1102334201426N00044989EA0125901369
B1102344201430N00044983EA0125801367
B1102354201434N00044978EA0125401364
B1102364201437N00044973EA0125101361
B1102374201441N00044967EA0125001358
B1102384201445N00044961EA0124501355
B1102394201449N00044955EA0124301353
B1102404201453N00044950EA0124201350
B1102414201458N00044946EA0123901348
B1102424201462N00044941EA0123601345
B1102434201466N00044937EA0123501342
B1102444201471N00044931EA0123201338
B1102454201475N00044926EA0122601335
B1102464201480N00044921EA0122501332
B1102474201484N00044915EA0122201330
B1102484201489N00044910EA0122201328
B1102494201493N00044906EA0122001327
B1102504201496N00044901EA0121901325
B1102514201500N00044896EA0121701323
B1102524201503N00044891EA0121401321
B1102534201507N00044885EA0121201319
B1102544201510N00044880EA0121001316
B1102554201514N00044875EA0120801314
B1102564201518N00044869EA0120501311
B1102574201522N00044864EA0120101309
B1102584201525N00044859EA0120001306
B1102594201529N00044854EA0119901303
B1103004201533N00044848EA0119501300
B1103014201537N00044844EA0119301297
B1103024201542N00044839EA0119001294
B1103034201546N00044834EA0118901292
B1103044201551N00044829EA0118601291
B1103054201555N00044826EA0118701290
B1103064201559N00044822EA0118301289
B1103074201564N00044819EA0118001286
B1103084201568N00044815EA0117701283
B1103094201572N00044811EA0117301280
B1103104201576N00044806EA0117401277
B1103114201580N00044800EA0117201276
B1103124201583N00044796EA0117001274
B1103134201587N00044791EA0117001273
B1103144201590N00044787EA0116701271
B1103154201593N00044783EA0116501269
B1103164201597N00044779EA0116201265
B1103174201601N00044774EA0115901262
B1103184201605N00044769EA0115601260
B1103194201609N00044764EA0115601259
B1103204201612N00044759EA0115601258
B1103214201616N00044756EA0115501257
B1103224201620N00044752EA0115401255
B1103234201623N00044748EA0115001252
B1103244201627N00044744EA0114701249
B1103254201631N00044739EA0114601246
B1103264201635N00044734EA0114401244
B1103274201639N00044729EA0114201243
B1103284201644N00044725EA0114001241
B1103294201649N00044721EA0113801239
B1103304201653N00044716EA0113501237
B1103314201658N00044711EA0113301235
B1103324201662N00044706EA0113001232
B1103334201667N00044701EA0113001230
B1103344201671N00044696EA0112801229
B1103354201676N00044691EA0112501227
B1103364201680N00044686EA0112401225
B1103374201685N00044682EA0112201223
B1103384201690N00044677EA0111901221
B1103394201695N00044673EA0111801219
B1103404201699N00044669EA0111701218
B1103414201704N00044664EA0111701217
B1103424201708N00044660EA0111501216
B1103434201712N00044656EA0111501215
B1103444201715N00044651EA0111301213
B1103454201719N00044647EA0111301212
B1103464201723N00044642EA0110801211
B1103474201727N00044637EA0110901210
B1103484201730N00044631EA0111101210
B1103494201732N00044627EA0111001210
B1103504201735N00044623EA0111001210
B1103514201738N00044619EA0110801208
B1103524201741N00044615EA0110601206
B1103534201744N00044610EA0110601205
B1103544201747N00044604EA0110401204
B1103554201749N00044598EA0110501204
B1103564201751N00044593EA0110601204
B1103574201753N00044589EA0110501203
B1103584201756N00044585EA0110301202
B1103594201759N00044580EA0110101200
B1104004201762N00044576EA0110001199
B1104014201766N00044571EA0109701199
B1104024201770N00044566EA0110001199
B1104034201773N00044561EA0110001199
B1104044201776N00044557EA0110201200
B1104054201779N00044552EA0110101199
B1104064201782N00044548EA0109901198
B1104074201786N00044544EA0109501196
B1104084201790N00044539EA0109201194
B1104094201794N00044534EA0109301192
B1104104201797N00044530EA0109201190
B1104114201801N00044525EA0109001189
B1104124201804N00044521EA0108801187
B1104134201807N00044516EA0108401184
B1104144201811N00044510EA0108401182
B1104154201814N00044505EA0108101180
B1104164201817N00044499EA0108001178
B1104174201820N00044494EA0108001177
B1104184201823N00044488EA0107701175
B1104194201827N00044483EA0107601173
B1104204201830N00044478EA0107401171
B1104214201834N00044472EA0106801169
B1104224201839N00044466EA0106701167
B1104234201844N00044461EA0107001167
B1104244201849N00044456EA0107101168
B1104254201854N00044452EA0107201168
B1104264201857N00044448EA0106801167
B1104274201861N00044444EA0106901165
B1104284201864N00044439EA0106501162
B1104294201869N00044433EA0106201159
B1104304201873N00044427EA0106101158
B1104314201877N00044422EA0105901157
B1104324201881N00044419EA0106101157
B1104334201884N00044416EA0106101156
B1104344201887N00044412EA0106001156
B1104354201889N00044409EA0105801155
B1104364201891N00044405EA0105801154
B1104374201893N00044401EA0105601151
B1104384201895N00044395EA0105601150
B1104394201897N00044390EA0105501150
B1104404201898N00044385EA0105501151
B1104414201900N00044381EA0105601150
B1104424201901N00044377EA0105501149
B1104434201902N00044373EA0105401148
B1104444201904N00044368EA0105401148
B1104454201906N00044363EA0105301147
B1104464201908N00044357EA0105401148
B1104474201909N00044352EA0105501148
B1104484201909N00044348EA0105601150
B1104494201909N00044343EA0105801151
B1104504201909N00044339EA0105901153
B1104514201908N00044335EA0106001154
B1104524201907N00044331EA0106101156
B1104534201905N00044326EA0106401158
B1104544201904N00044322EA0106701160
B1104554201903N00044319EA0106801162
B1104564201901N00044316EA0106801162
B1104574201898N00044312EA0106701162
B1104584201895N00044307EA0106501162
B1104594201891N00044302EA0106701162
B1105004201888N00044298EA0106801164
B1105014201884N00044294EA0107201166
B1105024201881N00044291EA0107601169
B1105034201878N00044288EA0108001172
B1105044201876N00044287EA0107901173
B1105054201873N00044285EA0107701173
B1105064201869N00044283EA0107601172
B1105074201864N00044281EA0107201170
B1105084201859N00044279EA0107201168
B1105094201854N00044276EA0107101169
B1105104201849N00044273EA0107501170
B1105114201846N00044269EA0107601171
B1105124201843N00044266EA0107801172
B1105134201841N00044262EA0107501171
B1105144201838N00044258EA0107401170
B1105154201835N00044255EA0107201169
B1105164201831N00044251EA0107301169
B1105174201827N00044250EA0107301168
B1105184201823N00044249EA0107201168
B1105194201818N00044249EA0107101167
B1105204201813N00044248EA0107001166
B1105214201808N00044247EA0107001166
B1105224201803N00044245EA0107201167
B1105234201799N00044244EA0107301168
B1105244201796N00044243EA0107301168
B1105254201793N00044243EA0107101167
B1105264201790N00044243EA0106801165
B1105274201786N00044242EA0106801163
B1105284201782N00044241EA0107001164
B1105294201778N00044241EA0107001165
B1105304201774N00044241EA0107001165
B1105314201769N00044240EA0106801164
B1105324201765N00044238EA0106801163
B1105334201762N00044235EA0106701162
B1105344201760N00044231EA0106401160
B1105354201760N00044225EA0106201158
B1105364201761N00044219EA0106001156
B1105374201762N00044214EA0106301156
B1105384201764N00044210EA0106301157
B1105394201766N00044207EA0106301156
B1105404201768N00044205EA0106001155
B1105414201773N00044202EA0105901153
B1105424201777N00044198EA0106001154
B1105434201781N00044195EA0106101156
B1105444201783N00044191EA0106201157
B1105454201784N00044187EA0106201157
B1105464201785N00044182EA0106201157
B1105474201785N00044176EA0106201157
B1105484201785N00044171EA0106701158
B1105494201785N00044165EA0106601159
B1105504201784N00044159EA0106601161
B1105514201784N00044155EA0106801162
B1105524201783N00044150EA0106801162
B1105534201782N00044144EA0106701162
B1105544201781N00044139EA0106901161
B1105554201781N00044134EA0106501160
B1105564201781N00044128EA0106401158
B1105574201783N00044122EA0106201157
B1105584201787N00044117EA0106101155
B1105594201791N00044114EA0106101154
B1106004201797N00044113EA0105901152
B1106014201802N00044116EA0105501149
B1106024201807N00044122EA0105301146
B1106034201811N00044129EA0105001144
B1106044201813N00044137EA0104901142
B1106054201813N00044144EA0104801141
B1106064201812N00044152EA0104601140
B1106074201811N00044160EA0104701140
B1106084201811N00044167EA0104701139
B1106094201811N00044174EA0104701139
B1106104201813N00044182EA0104501138
B1106114201814N00044191EA0104701138
B1106124201815N00044200EA0104701140
B1106134201817N00044209EA0105001141
B1106144201819N00044217EA0104901142
B1106154201821N00044226EA0105201144
B1106164201822N00044233EA0105501146
B1106174201824N00044240EA0105601148
B1106184201824N00044247EA0105601149
B1106194201823N00044253EA0105501148
B1106204201821N00044259EA0105301147
B1106214201817N00044265EA0105401147
B1106224201812N00044269EA0105501147
B1106234201807N00044270EA0105501148
B1106244201804N00044268EA0105501148
B1106254201801N00044264EA0105701149
B1106264201801N00044259EA0105801149
B1106274201802N00044254EA0105801151
B1106284201804N00044250EA0105901152
B1106294201808N00044247EA0106101154
B1106304201811N00044245EA0106301154
B1106314201816N00044245EA0106301155
B1106324201821N00044246EA0106301155
B1106334201826N00044249EA0106301156
B1106344201831N00044254EA0106501157
B1106354201835N00044261EA0106601159
B1106364201838N00044267EA0106901160
B1106374201840N00044274EA0106701160
B1106384201840N00044282EA0106701160
B1106394201840N00044290EA0106601160
B1106404201838N00044298EA0106701160
B1106414201835N00044304EA0106501160
B1106424201830N00044307EA0106701160
B1106434201825N00044308EA0106701160
B1106444201821N00044307EA0106701160
B1106454201819N00044304EA0106701160
B1106464201818N00044300EA0106701160
B1106474201819N00044295EA0106801161
B1106484201822N00044291EA0106901161
B1106494201827N00044289EA0106801161
B1106504201832N00044290EA0106901161
B1106514201837N00044294EA0106901162
B1106524201842N00044300EA0107001163
B1106534201844N00044307EA0107001164
B1106544201845N00044315EA0107001164
B1106554201844N00044323EA0107001163
B1106564201841N00044329EA0107001163
B1106574201838N00044335EA0107001163
B1106584201834N00044340EA0107001163
B1106594201830N00044344EA0106801163
B1107004201825N00044346EA0106901163
B1107014201820N00044350EA0106901163
B1107024201816N00044354EA0106901164
B1107034201812N00044359EA0107101166
B1107044201809N00044365EA0107501167
B1107054201807N00044371EA0107501168
B1107064201805N00044377EA0107501168
B1107074201803N00044384EA0107301167
B1107084201802N00044391EA0107001164
B1107094201800N00044399EA0106701162
B1107104201797N00044407EA0106601161
B1107114201792N00044412EA0106701160
B1107124201787N00044415EA0106801160
B1107134201782N00044417EA0106701160
B1107144201778N00044420EA0106501159
B1107154201774N00044424EA0106401157
B1107164201769N00044429EA0106001156
B1107174201765N00044436EA0106001155
B1107184201760N00044445EA0105701154
B1107194201756N00044454EA0106201156
B1107204201753N00044462EA0106501159
B1107214201750N00044470EA0106701161
B1107224201748N00044477EA0106901162
B1107234201745N00044484EA0107101164
B1107244201743N00044491EA0107301166
B1107254201740N00044495EA0107301167
B1107264201736N00044499EA0107301167
B1107274201732N00044502EA0107501168
B1107284201728N00044504EA0107501169
B1107294201723N00044505EA0107601169
B1107304201719N00044505EA0107601170
B1107314201716N00044503EA0107601170
B1107324201714N00044500EA0107501170
B1107334201712N00044495EA0107701170
B1107344201713N00044490EA0107601171
B1107354201714N00044486EA0107701171
B1107364201717N00044482EA0107801172
B1107374201721N00044480EA0107801173
B1107384201726N00044479EA0108101173
B1107394201731N00044480EA0107901174
B1107404201736N00044484EA0107901174
B1107414201741N00044489EA0108201175
B1107424201745N00044495EA0108201177
B1107434201747N00044502EA0108501179
B1107444201748N00044510EA0108501180
B1107454201748N00044516EA0108601180
B1107464201749N00044523EA0108701180
B1107474201750N00044529EA0108501180
B1107484201750N00044536EA0108401180
B1107494201749N00044543EA0108601180
B1107504201746N00044548EA0108701181
B1107514201742N00044552EA0108801183
B1107524201737N00044553EA0108901184
B1107534201733N00044550EA0108801184
B1107544201731N00044545EA0108901184
B1107554201730N00044539EA0109101186
B1107564201731N00044535EA0109301188
B1107574201734N00044533EA0109601189
B1107584201736N00044531EA0109501190
B1107594201740N00044529EA0109701191
B1108004201743N00044527EA0109801191
B1108014201747N00044526EA0109701191
B1108024201752N00044527EA0109601192
B1108034201757N00044528EA0109601191
B1108044201761N00044530EA0109701191
B1108054201766N00044533EA0109401190
B1108064201770N00044536EA0109401189
B1108074201775N00044542EA0109401189
B1108084201779N00044548EA0109501190
B1108094201782N00044556EA0109601191
B1108104201783N00044563EA0109801193
B1108114201784N00044569EA0110001195
B1108124201784N00044574EA0110101195
B1108134201783N00044579EA0110101196
B1108144201781N00044584EA0110201196
B1108154201779N00044589EA0110101196
B1108164201775N00044594EA0110301198
B1108174201772N00044597EA0110301199
B1108184201768N00044598EA0110301200
B1108194201763N00044599EA0110401200
B1108204201759N00044599EA0110401201
B1108214201755N00044597EA0110601201
B1108224201752N00044595EA0110501201
B1108234201749N00044592EA0110601201
B1108244201747N00044588EA0110401201
B1108254201744N00044584EA0110501201
B1108264201742N00044579EA0110701202
B1108274201740N00044575EA0110601203
B1108284201737N00044572EA0110801203
B1108294201733N00044569EA0110901204
B1108304201729N00044567EA0110601204
B1108314201724N00044567EA0110701205
B1108324201719N00044568EA0111001206
B1108334201715N00044567EA0111301207
B1108344201712N00044567EA0111101208
B1108354201708N00044566EA0111101207
B1108364201704N00044565EA0110901206
B1108374201699N00044564EA0111001206
B1108384201694N00044563EA0111101206
B1108394201689N00044561EA0111101206
B1108404201685N00044558EA0111001206
B1108414201683N00044554EA0111001206
B1108424201681N00044549EA0110901204
B1108434201680N00044543EA0110801203
B1108444201680N00044536EA0110601202
B1108454201683N00044530EA0110501201
B1108464201687N00044524EA0110401200
B1108474201692N00044520EA0110001199
B1108484201698N00044518EA0110201199
B1108494201704N00044519EA0110401199
B1108504201709N00044523EA0110301199
B1108514201713N00044528EA0110201198
B1108524201717N00044535EA0110201198
B1108534201719N00044543EA0110301199
B1108544201719N00044550EA0110501200
B1108554201719N00044558EA0110501200
B1108564201718N00044565EA0110801200
B1108574201716N00044573EA0110301200
B1108584201714N00044580EA0110501201
B1108594201712N00044586EA0110501200
B1109004201708N00044592EA0110201200
B1109014201704N00044597EA0110201199
B1109024201700N00044602EA0110201198
B1109034201695N00044606EA0110201198
B1109044201690N00044608EA0110101198
B1109054201685N00044609EA0110101198
B1109064201681N00044609EA0110201197
B1109074201676N00044608EA0110101196
B1109084201672N00044609EA0110001195
B1109094201667N00044610EA0109801194
B1109104201663N00044612EA0109701193
B1109114201658N00044613EA0109801192
B1109124201654N00044614EA0109701193
B1109134201650N00044614EA0109801193
B1109144201646N00044613EA0109601191
B1109154201642N00044611EA0109601191
B1109164201639N00044609EA0109401190
B1109174201636N00044607EA0109301189
B1109184201633N00044606EA0109201187
B1109194201629N00044606EA0109001185
B1109204201625N00044605EA0108601182
B1109214201620N00044604EA0108101178
B1109224201614N00044601EA0107901175
B1109234201609N00044599EA0107801173
B1109244201604N00044596EA0107701172
B1109254201600N00044594EA0107701171
B1109264201596N00044592EA0107501169
B1109274201593N00044590EA0107201167
B1109284201590N00044587EA0106901164
B1109294201587N00044583EA0106301160
B1109304201584N00044576EA0106201157
B1109314201581N00044569EA0105801157
B1109324201579N00044563EA0106201157
B1109334201576N00044558EA0106301157
B1109344201574N00044553EA0106201156
B1109354201572N00044547EA0105801154
B1109364201571N00044541EA0105601151
B1109374201570N00044533EA0105401149
B1109384201570N00044526EA0105501149
B1109394201570N00044520EA0105701148
B1109404201570N00044514EA0105401147
B1109414201571N00044508EA0105201145
B1109424201571N00044502EA0105001143
B1109434201572N00044495EA0104801141
B1109444201573N00044489EA0104601139
B1109454201574N00044484EA0104501138
B1109464201576N00044479EA0104601136
B1109474201578N00044474EA0104001133
B1109484201580N00044467EA0103501128
B1109494201581N00044459EA0103401125
B1109504201581N00044450EA0103201125
B1109514201582N00044443EA0103501125
B1109524201583N00044437EA0103601126
B1109534201584N00044431EA0103501126
B1109544201585N00044426EA0103301125
B1109554201586N00044421EA0103001122
B1109564201587N00044414EA0102501119
B1109574201588N00044406EA0102401116
B1109584201589N00044398EA0102301115
B1109594201590N00044390EA0102301115
B1110004201591N00044383EA0102301115
B1110014201591N00044377EA0102201114
B1110024201592N00044370EA0101901112
B1110034201592N00044363EA0101801110
B1110044201593N00044356EA0101501108
B1110054201594N00044348EA0101501107
B1110064201595N00044341EA0101401106
B1110074201596N00044334EA0101501106
B1110084201598N00044328EA0101401105
B1110094201599N00044321EA0101301104
B1110104201600N00044315EA0101101102
B1110114201601N00044308EA0100701099
B1110124201602N00044300EA0100601097
B1110134201604N00044293EA0100401096
B1110144201607N00044286EA0100401095
B1110154201609N00044280EA0100301093
B1110164201612N00044274EA0100001092
B1110174201614N00044269EA0099801090
B1110184201617N00044262EA0099501088
B1110194201619N00044255EA0099301085
B1110204201621N00044248EA0099401082
B1110214201624N00044241EA0099001080
B1110224201627N00044235EA0098701079
B1110234201630N00044228EA0098701077
B1110244201633N00044222EA0098501075
B1110254201635N00044215EA0098201073
B1110264201637N00044209EA0098001071
B1110274201640N00044202EA0097901069
B1110284201642N00044195EA0097601067
B1110294201644N00044188EA0097401065
B1110304201647N00044181EA0097401063
B1110314201650N00044175EA0097301062
B1110324201653N00044168EA0097201061
B1110334201655N00044162EA0097001060
B1110344201657N00044155EA0096901059
B1110354201660N00044148EA0096901058
B1110364201662N00044141EA0096901056
B1110374201664N00044134EA0096701055
B1110384201666N00044128EA0096601054
B1110394201669N00044121EA0096401052
B1110404201671N00044114EA0096101050
B1110414201673N00044108EA0095401047
B1110424201676N00044101EA0095601045
B1110434201678N00044094EA0095501043
B1110444201682N00044087EA0095401042
B1110454201685N00044082EA0095301041
B1110464201688N00044076EA0095201040
B1110474201690N00044070EA0095101038
B1110484201693N00044065EA0094901036
B1110494201695N00044058EA0094601033
B1110504201698N00044052EA0094301030
B1110514201701N00044046EA0094001028
B1110524201705N00044039EA0093901026
B1110534201709N00044033EA0093801024
B1110544201713N00044027EA0093601023
B1110554201717N00044022EA0093601021
B1110564201721N00044016EA0093301020
B1110574201725N00044010EA0093201019
B1110584201730N00044004EA0093201018
B1110594201734N00043999EA0093101018
B1111004201739N00043994EA0093101018
B1111014201744N00043989EA0093401018
B1111024201749N00043984EA0093401018
B1111034201753N00043979EA0093301019
B1111044201755N00043975EA0093401019
B1111054201756N00043971EA0093001018
B1111064201756N00043966EA0093001016
B1111074201756N00043960EA0092801014
B1111084201757N00043954EA0092701012
B1111094201758N00043947EA0092801011
B1111104201760N00043941EA0092701011
B1111114201762N00043936EA0092701010
B1111124201765N00043931EA0092501009
B1111134201769N00043926EA0092201008
B1111144201773N00043921EA0092101006
B1111154201777N00043914EA0091801004
B1111164201781N00043907EA0092001004
B1111174201784N00043900EA0092101004
B1111184201785N00043893EA0092201004
B1111194201784N00043887EA0092001004
B1111204201782N00043882EA0091901003
B1111214201778N00043878EA0091701001
B1111224201773N00043876EA0091200999
B1111234201767N00043876EA0091200997
B1111244201761N00043878EA0090900997
B1111254201755N00043881EA0091100997
B1111264201750N00043883EA0091200996
B1111274201744N00043886EA0091000994
B1111284201739N00043889EA0090400991
B1111294201733N00043893EA0090400989
B1111304201727N00043898EA0090200987
B1111314201723N00043905EA0090200986
B1111324201719N00043912EA0090200987
B1111334201716N00043918EA0090300987
B1111344201712N00043924EA0090200986
B1111354201709N00043930EA0089800983
B1111364201705N00043936EA0089500981
B1111374201702N00043944EA0089500979
B1111384201698N00043952EA0089600978
B1111394201696N00043960EA0089500978
B1111404201693N00043968EA0089200977
B1111414201691N00043976EA0088900975
B1111424201688N00043983EA0088800972
B1111434201685N00043991EA0088400969
B1111444201683N00043999EA0088600968
B1111454201680N00044007EA0088600968
B1111464201678N00044014EA0088400968
B1111474201675N00044020EA0088500967
B1111484201673N00044026EA0088400967
B1111494201671N00044032EA0088100965
B1111504201668N00044038EA0088100964
B1111514201664N00044045EA0088100964
B1111524201661N00044052EA0088000963
B1111534201657N00044059EA0088200963
B1111544201654N00044066EA0088100963
B1111554201651N00044073EA0088300963
B1111564201647N00044080EA0087800961
B1111574201643N00044087EA0087600959
B1111584201639N00044094EA0087400957
B1111594201635N00044101EA0087100954
B1112004201631N00044108EA0086900951
B1112014201627N00044116EA0086600949
B1112024201623N00044124EA0086400947
B1112034201619N00044131EA0086300945
B1112044201615N00044139EA0086400943
B1112054201612N00044146EA0086000941
B1112064201609N00044154EA0085500938
B1112074201606N00044163EA0085400936
B1112084201602N00044171EA0085300933
B1112094201599N00044179EA0085000932
B1112104201596N00044187EA0084800930
B1112114201593N00044195EA0084600928
B1112124201591N00044204EA0084500926
B1112134201588N00044212EA0084300924
B1112144201584N00044220EA0084000922
B1112154201580N00044229EA0083700919
B1112164201576N00044237EA0083900918
B1112174201571N00044245EA0083800919
B1112184201566N00044253EA0083800919
B1112194201562N00044260EA0084000919
B1112204201559N00044267EA0083800918
B1112214201556N00044274EA0083500917
B1112224201552N00044282EA0083000914
B1112234201549N00044291EA0083000912
B1112244201547N00044300EA0082900910
B1112254201544N00044309EA0083100910
B1112264201542N00044319EA0083200911
B1112274201540N00044327EA0083200912
B1112284201538N00044336EA0083200912
B1112294201536N00044345EA0083300912
B1112304201534N00044354EA0083400913
B1112314201531N00044361EA0083300913
B1112324201527N00044366EA0083400913
B1112334201522N00044368EA0083400914
B1112344201518N00044369EA0083700915
B1112354201515N00044367EA0083700915
B1112364201513N00044364EA0083400915
B1112374201512N00044360EA0083500915
B1112384201512N00044355EA0083700916
B1112394201513N00044350EA0084000917
B1112404201515N00044346EA0083900918
B1112414201519N00044343EA0083900918
B1112424201523N00044341EA0084000917
B1112434201527N00044339EA0083500916
B1112444201532N00044336EA0083500916
B1112454201537N00044333EA0084100919
B1112464201540N00044331EA0084400922
B1112474201542N00044330EA0084500924
B1112484201544N00044328EA0084300923
B1112494201546N00044326EA0084100920
B1112504201550N00044322EA0083700918
B1112514201554N00044318EA0083500916
B1112524201559N00044315EA0083800917
B1112534201563N00044313EA0084000919
B1112544201567N00044312EA0084000920
B1112554201570N00044313EA0084100919
B1112564201574N00044312EA0083300916
B1112574201579N00044311EA0082900914
B1112584201584N00044309EA0083200913
B1112594201588N00044306EA0083700914
B1113004201591N00044304EA0083600914
B1113014201594N00044302EA0083300914
B1113024201597N00044301EA0083000912
B1113034201601N00044299EA0082500909
B1113044201606N00044298EA0082400906
B1113054201611N00044295EA0082900903
B1113064201616N00044291EA0082100902
B1113074201620N00044287EA0082300903
B1113084201622N00044284EA0082200902
B1113094201623N00044281EA0081800899
B1113104201622N00044277EA0081700896
B1113114201620N00044273EA0081300893
B1113124201616N00044269EA0080700889
B1113134201610N00044267EA0080300886
B1113144201604N00044266EA0080400885
B1113154201598N00044265EA0080300884
B1113164201593N00044265EA0080300883
B1113174201588N00044266EA0080200880
B1113184201583N00044266EA0079900878
B1113194201577N00044267EA0079600876
B1113204201570N00044268EA0079300875
B1113214201564N00044271EA0079600878
B1113224201558N00044275EA0080600883
B1113234201555N00044278EA0081000886
B1113244201552N00044282EA0080900887
B1113254201549N00044287EA0080600886
B1113264201545N00044292EA0080400882
B1113274201541N00044296EA0079800879
B1113284201535N00044300EA0079700877
B1113294201530N00044304EA0079400874
B1113304201525N00044309EA0079100872
B1113314201519N00044314EA0079200871
B1113324201515N00044319EA0079300871
B1113334201510N00044324EA0079300870
B1113344201505N00044328EA0079100868
B1113354201501N00044334EA0078600866
B1113364201495N00044340EA0078500864
B1113374201490N00044346EA0078500863
B1113384201485N00044353EA0078600864
B1113394201480N00044358EA0078500864
B1113404201475N00044363EA0079000865
B1113414201470N00044367EA0078900865
B1113424201465N00044372EA0078700865
B1113434201461N00044378EA0078600863
B1113444201455N00044384EA0078300861
B1113454201450N00044391EA0078200861
B1113464201445N00044398EA0078400862
B1113474201440N00044406EA0078500862
B1113484201437N00044413EA0078500861
B1113494201434N00044420EA0078400859
B1113504201431N00044428EA0077800857
B1113514201427N00044436EA0077400853
B1113524201422N00044444EA0077100850
B1113534201417N00044453EA0076900848
B1113544201412N00044460EA0076900847
B1113554201407N00044467EA0077000847
B1113564201402N00044473EA0077000847
B1113574201399N00044481EA0077000846
B1113584201395N00044489EA0076900845
B1113594201393N00044497EA0076900845
B1114004201390N00044506EA0077100846
B1114014201389N00044515EA0077300848
B1114024201389N00044523EA0077500850
B1114034201389N00044531EA0077400850
B1114044201390N00044539EA0077300849
B1114054201390N00044548EA0077200847
B1114064201390N00044557EA0077000846
B1114074201388N00044566EA0076900845
B1114084201384N00044572EA0076700844
B1114094201380N00044576EA0076700842
B1114104201376N00044578EA0076400840
B1114114201372N00044578EA0076100837
B1114124201368N00044576EA0075800834
B1114134201365N00044573EA0075500831
B1114144201363N00044568EA0075100827
B1114154201363N00044562EA0074900824
B1114164201363N00044554EA0074700822
B1114174201362N00044548EA0074900823
B1114184201361N00044543EA0075000823
B1114194201361N00044539EA0075000823
B1114204201361N00044535EA0074700821
B1114214201362N00044530EA0074400818
B1114224201364N00044523EA0074100816
B1114234201365N00044517EA0074100816
B1114244201367N00044511EA0074600817
B1114254201369N00044507EA0074800819
B1114264201371N00044503EA0074600819
B1114274201372N00044500EA0074300817
B1114284201373N00044495EA0074300815
B1114294201374N00044490EA0073900814
B1114304201374N00044484EA0074100813
B1114314201372N00044479EA0073900813
B1114324201369N00044475EA0074100812
B1114334201365N00044471EA0074100812
B1114344201360N00044470EA0074000811
B1114354201355N00044471EA0073900810
B1114364201349N00044474EA0073400808
B1114374201344N00044480EA0073100806
B1114384201339N00044488EA0073100806
B1114394201336N00044496EA0073300807
B1114404201334N00044505EA0073500808
B1114414201334N00044514EA0073400809
B1114424201333N00044522EA0073400810
B1114434201333N00044531EA0073500809
B1114444201331N00044539EA0073700809
B1114454201329N00044546EA0073400810
B1114464201325N00044550EA0073500809
B1114474201321N00044551EA0073100806
B1114484201317N00044548EA0073200805
B1114494201316N00044542EA0073300805
B1114504201317N00044536EA0073300804
B1114514201320N00044531EA0073200803
B1114524201323N00044527EA0073000804
B1114534201325N00044524EA0073300805
B1114544201326N00044520EA0073500806
B1114554201327N00044517EA0073300806
B1114564201329N00044514EA0073300805
B1114574201330N00044511EA0073000803
B1114584201331N00044506EA0073000802
B1114594201329N00044502EA0073100802
B1115004201326N00044498EA0073400803
B1115014201323N00044495EA0073200804
B1115024201322N00044492EA0073400806
B1115034201321N00044490EA0073200806
B1115044201320N00044486EA0073200804
B1115054201320N00044481EA0073100803
B1115064201321N00044476EA0073100802
B1115074201322N00044471EA0073100801
B1115084201322N00044467EA0072800800
B1115094201319N00044463EA0072500797
B1115104201315N00044463EA0072300793
B1115114201310N00044467EA0072100791
B1115124201307N00044475EA0071900790
B1115134201307N00044484EA0072000790
B1115144201309N00044491EA0072200791
B1115154201309N00044498EA0072000791
B1115164201308N00044504EA0071600789
B1115174201305N00044510EA0071300785
B1115184201301N00044515EA0071000783
B1115194201296N00044520EA0070900782
B1115204201291N00044524EA0071000782
B1115214201286N00044527EA0071200782
B1115224201281N00044530EA0070900781
B1115234201277N00044533EA0070900780
B1115244201272N00044536EA0070900779
B1115254201267N00044538EA0070800779
B1115264201262N00044540EA0070600778
B1115274201258N00044543EA0070600778
B1115284201253N00044546EA0070600777
B1115294201248N00044550EA0070200775
B1115304201243N00044554EA0070300773
B1115314201239N00044557EA0070100771
B1115324201234N00044560EA0070000769
B1115334201229N00044562EA0069800767
B1115344201223N00044563EA0069600765
B1115354201218N00044564EA0069400763
B1115364201212N00044565EA0069300761
B1115374201207N00044567EA0069000760
B1115384201201N00044569EA0069000759
B1115394201196N00044570EA0068800758
B1115404201190N00044571EA0068900757
B1115414201185N00044572EA0068900756
B1115424201181N00044572EA0068600755
B1115434201177N00044572EA0068800754
B1115444201174N00044572EA0068700753
B1115454201173N00044572EA0068700753
B1115464201171N00044572EA0068600752
B1115474201170N00044573EA0068800752
B1115484201168N00044573EA0068500752
B1115494201166N00044574EA0068500752
B1115504201164N00044575EA0068400752
B1115514201161N00044575EA0068600753
B1115524201159N00044576EA0068500752
B1115534201157N00044577EA0068600752
B1115544201155N00044577EA0068400752
B1115554201153N00044578EA0068400751
B1115564201152N00044578EA0068300751
B1115574201150N00044579EA0068300750
B1115584201148N00044579EA0068500750
B1115594201148N00044580EA0068300750
B1116004201147N00044580EA0068400750
B1116014201147N00044581EA0068400750
B1116024201147N00044581EA0068300750
B1116034201147N00044581EA0068400750
B1116044201147N00044581EA0068300750
B1116054201147N00044582EA0068300750
B1116064201147N00044581EA0068300750
B1116074201147N00044582EA0068400750
B1116084201147N00044582EA0068400750
B1116094201147N00044582EA0068400750
B1116104201147N00044582EA0068300750
B1116114201147N00044582EA0068400750
B1116124201147N00044582EA0068400750
B1116134201147N00044582EA0068300750
B1116144201146N00044583EA0068300750
B1116154201145N00044583EA0068300750
GhLSOpkk1bVxW0d9k0j2D6SD6oB9WdvDjo9gId2MQiNkvYyWNBTWrOrt8bFFYlF0LJqZVal0JWNx
G4JhCJEWcc/Y6pjAEOw0K6+GDQX9zWA8q46JkjC+1JJhlXJ2ntKwgMVl9WwKuDGTEKSzFNee/8kZ
G7DNLZp14QLJiL36oD4UNY=
