AXSFwn
HFDTEDATE:070826
HFPLTPILOTINCHARGE:oscar
HFCM2CREW2:NIL
HFGTYGLIDERTYPE:coche 
HFGIDGLIDERID:NIL
HFDTMGPSDATUM:WGS84
HFRFWFIRMWAREVERSION:EU_2.00V
HFRHWHARDWAREVERSION:4.5
HFFTYFRTYPE:alfapilot,Voolaris Tracker
HFGPSRECEIVER:UBLOX,M10,72,50000,GPS,GLO,GAL
HFPRSPRESSALTSENSOR:ST,LPS22HB,10000
HFALGALTGPS:GEO
HFALPALTPRESSURE:ISA
HFTZNTIMEZONE:0
B1726234135713N00133766EA0037500413
B1726244135713N00133766EA0037600413
B1726254135713N00133765EA0037500413
B1726264135713N00133763EA0037600413
B1726274135713N00133760EA0037500413
B1726284135713N00133758EA0037600413
B1726294135713N00133755EA0037600413
B1726304135714N00133752EA0037600413
B1726314135714N00133749EA0037600413
B1726324135714N00133747EA0037600413
B1726334135714N00133744EA0037600413
B1726344135714N00133743EA0037500413
B1726354135714N00133741EA0037600413
B1726364135714N00133740EA0037600413
B1726374135714N00133740EA0037600413
B1726384135714N00133739EA0037700413
B1726394135714N00133738EA0037700413
B1726404135714N00133737EA0037600414
B1726414135714N00133736EA0037600414
B1726424135714N00133735EA0037700414
B1726434135714N00133734EA0037600414
B1726444135714N00133734EA0037600414
B1726454135715N00133733EA0037600414
B1726464135715N00133732EA0037600414
B1726474135715N00133731EA0037600415
B1726484135715N00133729EA0037700415
B1726494135715N00133728EA0037700415
B1726504135715N00133726EA0037600415
B1726514135715N00133725EA0037700415
B1726524135715N00133723EA0037700415
B1726534135715N00133722EA0037600415
B1726544135715N00133720EA0037700415
B1726554135715N00133718EA0037700415
B1726564135715N00133717EA0037600415
B1726574135715N00133716EA0037700415
B1726584135715N00133715EA0037700415
B1726594135715N00133715EA0037700415
B1727004135715N00133714EA0037600415
B1727014135715N00133713EA0037800416
B1727024135715N00133712EA0037700416
B1727034135715N00133710EA0037800416
B1727044135716N00133708EA0037700416
B1727054135716N00133706EA0037700417
B1727064135716N00133704EA0037700417
B1727074135716N00133701EA0037700417
B1727084135716N00133699EA0037600417
B1727094135716N00133697EA0037800417
B1727104135716N00133694EA0037800417
B1727114135717N00133692EA0037700417
B1727124135717N00133689EA0037800417
B1727134135717N00133686EA0037800417
B1727144135717N00133683EA0037800418
B1727154135717N00133679EA0037700418
B1727164135718N00133676EA0037800418
B1727174135718N00133672EA0037800418
B1727184135718N00133669EA0037800418
B1727194135718N00133666EA0037800418
B1727204135719N00133663EA0037700418
B1727214135719N00133660EA0037800417
B1727224135719N00133657EA0037900417
B1727234135720N00133654EA0037800417
B1727244135720N00133651EA0037900417
B1727254135720N00133648EA0037900417
B1727264135721N00133644EA0037800417
B1727274135721N00133641EA0037800417
B1727284135722N00133636EA0037900417
B1727294135722N00133632EA0037900418
B1727304135723N00133627EA0037900418
B1727314135723N00133623EA0037900418
B1727324135724N00133618EA0037900417
B1727334135725N00133614EA0037900417
B1727344135725N00133609EA0037900417
B1727354135726N00133605EA0037900417
B1727364135726N00133600EA0037900417
B1727374135727N00133596EA0037900416
B1727384135727N00133592EA0037900416
B1727394135728N00133588EA0037900416
B1727404135729N00133583EA0038000416
B1727414135729N00133579EA0037900416
B1727424135730N00133574EA0037900416
B1727434135731N00133569EA0037900416
B1727444135732N00133564EA0037900415
B1727454135732N00133559EA0037900415
B1727464135733N00133554EA0037900415
B1727474135734N00133549EA0038000415
B1727484135735N00133543EA0038000415
B1727494135736N00133538EA0037900415
B1727504135737N00133532EA0038000415
B1727514135738N00133526EA0037900415
B1727524135739N00133520EA0038000415
B1727534135740N00133514EA0037900415
B1727544135741N00133508EA0038000415
B1727554135743N00133502EA0038000415
B1727564135744N00133496EA0038100415
B1727574135746N00133489EA0038000415
B1727584135748N00133482EA0038000414
B1727594135749N00133474EA0038000414
B1728004135751N00133467EA0038100414
B1728014135753N00133459EA0038100414
B1728024135755N00133452EA0038100413
B1728034135757N00133445EA0038000413
B1728044135759N00133437EA0038000413
B1728054135762N00133430EA0038100413
B1728064135764N00133423EA0038100413
B1728074135766N00133416EA0038000412
B1728084135768N00133408EA0038000412
B1728094135771N00133401EA0037900412
B1728104135773N00133394EA0038000412
B1728114135775N00133388EA0037900412
B1728124135777N00133381EA0037900412
B1728134135779N00133375EA0037900412
B1728144135782N00133368EA0037900412
B1728154135784N00133362EA0037800411
B1728164135786N00133356EA0038000411
B1728174135788N00133350EA0037900411
B1728184135791N00133344EA0037900411
B1728194135793N00133338EA0037800411
B1728204135795N00133332EA0037800411
B1728214135798N00133325EA0037900411
B1728224135801N00133318EA0037800411
B1728234135803N00133311EA0037800410
B1728244135806N00133305EA0037800410
B1728254135809N00133298EA0037700410
B1728264135812N00133291EA0037700409
B1728274135815N00133284EA0037800409
B1728284135818N00133278EA0037800409
B1728294135820N00133272EA0037800409
B1728304135823N00133265EA0037800408
B1728314135825N00133259EA0037700408
B1728324135828N00133253EA0037800408
B1728334135831N00133247EA0037700407
B1728344135833N00133242EA0037800407
B1728354135836N00133236EA0037700407
B1728364135838N00133230EA0037700406
B1728374135841N00133224EA0037700406
B1728384135843N00133219EA0037600405
B1728394135846N00133213EA0037800405
B1728404135848N00133208EA0037700405
B1728414135850N00133202EA0037700405
B1728424135852N00133196EA0037600404
B1728434135855N00133191EA0037800404
B1728444135857N00133185EA0037600404
B1728454135860N00133179EA0037700404
B1728464135862N00133172EA0037600403
B1728474135864N00133166EA0037600403
B1728484135867N00133159EA0037400403
B1728494135869N00133152EA0037300403
B1728504135872N00133146EA0037400403
B1728514135874N00133139EA0037200402
B1728524135876N00133132EA0037300402
B1728534135878N00133125EA0037200402
B1728544135881N00133117EA0037200402
B1728554135883N00133110EA0037200401
B1728564135885N00133102EA0037100401
B1728574135887N00133095EA0037100401
B1728584135889N00133087EA0037100401
B1728594135890N00133079EA0037100401
B1729004135892N00133072EA0037000400
B1729014135894N00133064EA0037000400
B1729024135895N00133057EA0036900400
B1729034135896N00133050EA0036900400
B1729044135898N00133042EA0036900400
B1729054135899N00133035EA0036900400
B1729064135900N00133029EA0036900400
B1729074135901N00133022EA0036900400
B1729084135902N00133016EA0036800399
B1729094135903N00133010EA0036800399
B1729104135903N00133004EA0036800398
B1729114135904N00132999EA0036700398
B1729124135904N00132994EA0036700397
B1729134135905N00132989EA0036700397
B1729144135905N00132984EA0036500396
B1729154135906N00132980EA0036600395
B1729164135906N00132975EA0036500395
B1729174135906N00132971EA0036500395
B1729184135907N00132966EA0036500395
B1729194135907N00132961EA0036500395
B1729204135907N00132956EA0036500394
B1729214135907N00132951EA0036500394
B1729224135908N00132946EA0036500394
B1729234135908N00132940EA0036300393
B1729244135908N00132933EA0036400393
B1729254135908N00132927EA0036400393
B1729264135908N00132920EA0036300392
B1729274135908N00132913EA0036300392
B1729284135909N00132905EA0036300392
B1729294135909N00132896EA0036300391
B1729304135909N00132887EA0036200391
B1729314135909N00132878EA0036200391
B1729324135908N00132869EA0036100390
B1729334135908N00132859EA0036100390
B1729344135908N00132850EA0036100389
B1729354135908N00132840EA0036100389
B1729364135908N00132830EA0036000388
B1729374135908N00132819EA0035900388
B1729384135908N00132809EA0035800387
B1729394135908N00132799EA0035800387
B1729404135908N00132789EA0035800386
B1729414135908N00132778EA0035800385
B1729424135908N00132767EA0035700385
B1729434135909N00132757EA0035700384
B1729444135909N00132746EA0035600384
B1729454135910N00132735EA0035600383
B1729464135911N00132724EA0035500382
B1729474135912N00132712EA0035500382
B1729484135913N00132701EA0035400381
B1729494135915N00132690EA0035400381
B1729504135917N00132678EA0035400380
B1729514135919N00132666EA0035400380
B1729524135921N00132654EA0035300379
B1729534135924N00132643EA0035300379
B1729544135927N00132631EA0035200378
B1729554135930N00132620EA0035100378
B1729564135933N00132610EA0035000378
B1729574135937N00132600EA0035100377
B1729584135940N00132590EA0034900377
B1729594135943N00132582EA0035000376
B1730004135947N00132573EA0034900376
B1730014135950N00132565EA0035000376
B1730024135953N00132557EA0034900376
B1730034135957N00132550EA0035000376
B1730044135960N00132543EA0034800377
B1730054135962N00132538EA0034800377
B1730064135965N00132533EA0034800377
B1730074135967N00132529EA0034800377
B1730084135969N00132525EA0034800377
B1730094135970N00132523EA0034800377
B1730104135971N00132521EA0034800378
B1730114135971N00132520EA0034800378
B1730124135972N00132519EA0034800378
B1730134135972N00132519EA0034800379
B1730144135972N00132519EA0034800378
B1730154135971N00132519EA0034700379
B1730164135971N00132519EA0034800379
B1730174135971N00132519EA0034700379
B1730184135971N00132519EA0034800379
B1730194135971N00132519EA0034800379
B1730204135971N00132519EA0034800379
B1730214135971N00132519EA0034800379
B1730224135971N00132519EA0034800379
B1730234135972N00132518EA0034800379
B1730244135972N00132517EA0034800379
B1730254135973N00132516EA0034800379
B1730264135974N00132514EA0034800379
B1730274135975N00132512EA0034700379
B1730284135976N00132510EA0034800380
B1730294135978N00132507EA0034800380
B1730304135979N00132505EA0034700380
B1730314135980N00132503EA0034900380
B1730324135982N00132501EA0034700380
B1730334135983N00132499EA0034800380
B1730344135985N00132497EA0034900379
B1730354135986N00132495EA0034700379
B1730364135987N00132493EA0034800379
B1730374135989N00132491EA0034800379
B1730384135990N00132489EA0034700378
B1730394135992N00132487EA0034800378
B1730404135993N00132485EA0034700378
B1730414135995N00132482EA0034700378
B1730424135997N00132480EA0034700378
B1730434135998N00132478EA0034800378
B1730444136000N00132475EA0034800378
B1730454136002N00132473EA0034800378
B1730464136004N00132470EA0034800378
B1730474136006N00132468EA0034700378
B1730484136007N00132466EA0034700378
B1730494136009N00132464EA0034800378
B1730504136011N00132462EA0034700377
B1730514136012N00132460EA0034800377
B1730524136014N00132458EA0034700377
B1730534136015N00132457EA0034800377
B1730544136017N00132455EA0034800377
B1730554136019N00132452EA0034700377
B1730564136021N00132450EA0034700377
B1730574136022N00132448EA0034700377
B1730584136024N00132446EA0034800377
B1730594136026N00132444EA0034800377
B1731004136028N00132442EA0034800377
B1731014136030N00132440EA0034700376
B1731024136031N00132439EA0034800376
B1731034136033N00132437EA0034700376
B1731044136035N00132435EA0034800376
B1731054136037N00132433EA0034800376
B1731064136039N00132432EA0034800376
B1731074136040N00132430EA0034800376
B1731084136042N00132428EA0034800376
B1731094136044N00132427EA0034800376
B1731104136046N00132425EA0034800376
B1731114136047N00132423EA0034800376
B1731124136049N00132422EA0034800375
B1731134136051N00132420EA0034800375
B1731144136053N00132418EA0034800375
B1731154136055N00132417EA0034800375
B1731164136056N00132415EA0034800375
B1731174136058N00132414EA0034800376
B1731184136059N00132413EA0034800376
B1731194136060N00132412EA0034700376
B1731204136062N00132411EA0034900376
B1731214136063N00132410EA0034800376
B1731224136064N00132410EA0034800376
B1731234136064N00132409EA0034800375
B1731244136066N00132408EA0034900375
B1731254136067N00132407EA0034900375
B1731264136068N00132406EA0034800375
B1731274136070N00132405EA0034800375
B1731284136071N00132404EA0034800376
B1731294136072N00132403EA0034800376
B1731304136074N00132402EA0034800377
B1731314136076N00132401EA0034800377
B1731324136077N00132400EA0034800377
B1731334136079N00132399EA0034800377
B1731344136080N00132398EA0034900378
B1731354136081N00132397EA0034900378
B1731364136083N00132396EA0034900378
B1731374136084N00132396EA0034900379
B1731384136085N00132395EA0034800379
B1731394136086N00132394EA0034900379
B1731404136087N00132393EA0034900380
B1731414136088N00132393EA0034900380
B1731424136089N00132392EA0034900381
B1731434136090N00132392EA0034900381
B1731444136091N00132391EA0034900381
B1731454136092N00132390EA0034900382
B1731464136093N00132389EA0034800382
B1731474136094N00132389EA0034900382
B1731484136095N00132388EA0035000381
B1731494136095N00132388EA0034900382
B1731504136096N00132388EA0034900382
B1731514136097N00132387EA0034900382
B1731524136097N00132387EA0034900382
B1731534136097N00132387EA0034900382
B1731544136097N00132387EA0034900382
B1731554136097N00132388EA0034900382
B1731564136097N00132388EA0034800382
B1731574136097N00132388EA0034900382
B1731584136097N00132388EA0034900382
B1731594136097N00132388EA0034900382
B1732004136097N00132388EA0034800382
B1732014136097N00132388EA0034900382
B1732024136097N00132388EA0034900382
Gkm9gGGEjZ1uE6X73k56NqCJ3vPJGxREPUMtTeC+nXJb7DOi8+QSbs+mDjbmD4cotKgoDhr2GgbA
GQjX0YayCDHDfqH1chNlzNE5KTY63zLHf+jPfx04DsXBK6LckR7GBf8IhXzBPPj0uBi3qmKRkS1T
GhDN9XTuLDwL/k0PPZhKOA=
