AXSFwn
HFDTEDATE:070826
HFPLTPILOTINCHARGE:Paco Navarro Gonzalez
HFCM2CREW2:NIL
HFGTYGLIDERTYPE: GIN GTO 3
HFGIDGLIDERID:NIL
HFDTMGPSDATUM:WGS84
HFRFWFIRMWAREVERSION:EU_2.00V
HFRHWHARDWAREVERSION:4.5
HFFTYFRTYPE:alfapilot,Voolaris Tracker
HFGPSRECEIVER:UBLOX,M10,72,50000,GPS,GLO,GAL
HFPRSPRESSALTSENSOR:ST,LPS22HB,10000
HFALGALTGPS:GEO
HFALPALTPRESSURE:ISA
HFTZNTIMEZONE:0
B1514504155234N00111477EA0032900361
B1514514155234N00111477EA0033000361
B1514524155234N00111477EA0033000361
B1514534155234N00111477EA0032900361
B1514544155232N00111476EA0033000361
B1514554155231N00111475EA0033000361
B1514564155229N00111473EA0033000361
B1514574155227N00111472EA0033000361
B1514584155224N00111470EA0033000361
B1514594155222N00111467EA0033000361
B1515004155219N00111464EA0032900362
B1515014155216N00111460EA0033000361
B1515024155213N00111456EA0033000361
B1515034155209N00111452EA0033000361
B1515044155206N00111448EA0033000362
B1515054155202N00111444EA0032900362
B1515064155198N00111439EA0033000362
B1515074155194N00111435EA0033100362
B1515084155190N00111430EA0033000362
B1515094155186N00111424EA0033000362
B1515104155181N00111419EA0033100362
B1515114155176N00111413EA0033100362
B1515124155171N00111407EA0033100362
B1515134155166N00111401EA0033100362
B1515144155161N00111395EA0033100363
B1515154155157N00111389EA0033100363
B1515164155152N00111384EA0033100363
B1515174155147N00111378EA0033100363
B1515184155142N00111372EA0033100363
B1515194155137N00111366EA0033200363
B1515204155133N00111360EA0033100364
B1515214155128N00111354EA0033200364
B1515224155124N00111348EA0033100364
B1515234155119N00111341EA0033200364
B1515244155115N00111334EA0033100364
B1515254155111N00111327EA0033200365
B1515264155107N00111319EA0033300365
B1515274155104N00111311EA0033300365
B1515284155100N00111303EA0033300366
B1515294155097N00111294EA0033200365
B1515304155093N00111286EA0033200366
B1515314155089N00111278EA0033300366
B1515324155086N00111270EA0033300366
B1515334155082N00111263EA0033300366
B1515344155079N00111255EA0033200366
B1515354155076N00111249EA0033200367
B1515364155072N00111242EA0033200367
B1515374155068N00111236EA0033300369
B1515384155064N00111230EA0033300370
B1515394155060N00111224EA0033200371
B1515404155057N00111218EA0033300372
B1515414155053N00111212EA0033200373
B1515424155050N00111207EA0033300374
B1515434155046N00111203EA0033300373
B1515444155043N00111199EA0033200374
B1515454155040N00111196EA0033200374
B1515464155036N00111193EA0033200374
B1515474155032N00111190EA0033300373
B1515484155029N00111187EA0033200373
B1515494155025N00111184EA0033200373
B1515504155021N00111181EA0033200373
B1515514155017N00111177EA0033200373
B1515524155013N00111174EA0033100374
B1515534155010N00111171EA0033200373
B1515544155007N00111168EA0033300374
B1515554155003N00111165EA0033300374
B1515564155000N00111162EA0033300373
B1515574154997N00111160EA0033300373
B1515584154993N00111158EA0033300373
B1515594154990N00111156EA0033300374
B1516004154986N00111155EA0033300375
B1516014154983N00111154EA0033300377
B1516024154979N00111152EA0033300377
B1516034154975N00111151EA0033200378
B1516044154972N00111150EA0033200379
B1516054154968N00111148EA0033300380
B1516064154964N00111147EA0033300381
B1516074154961N00111146EA0033300381
B1516084154958N00111145EA0033300381
B1516094154955N00111144EA0033300380
B1516104154953N00111144EA0033200383
B1516114154952N00111142EA0033300385
B1516124154951N00111141EA0033200387
B1516134154951N00111141EA0033300387
B1516144154950N00111141EA0033300387
B1516154154950N00111141EA0033300388
B1516164154950N00111141EA0033200389
B1516174154950N00111141EA0033300390
B1516184154950N00111140EA0033300390
B1516194154949N00111139EA0033300389
B1516204154948N00111138EA0033200389
B1516214154947N00111137EA0033200389
B1516224154947N00111135EA0033200388
B1516234154946N00111133EA0033200388
B1516244154945N00111131EA0033300386
B1516254154943N00111129EA0033300384
B1516264154942N00111127EA0033200381
B1516274154941N00111125EA0033300379
B1516284154940N00111123EA0033200377
B1516294154939N00111122EA0033200376
B1516304154939N00111122EA0033300375
B1516314154938N00111121EA0033200374
B1516324154938N00111119EA0033200372
B1516334154937N00111118EA0033300371
B1516344154937N00111117EA0033300371
B1516354154936N00111114EA0033400371
B1516364154936N00111111EA0033300371
B1516374154936N00111108EA0033300371
B1516384154935N00111105EA0033300370
B1516394154934N00111102EA0033300370
B1516404154933N00111100EA0033300369
B1516414154931N00111098EA0033400368
B1516424154929N00111096EA0033300368
B1516434154926N00111095EA0033300367
B1516444154924N00111092EA0033300366
B1516454154921N00111089EA0033400366
B1516464154919N00111085EA0033400365
B1516474154918N00111082EA0033300364
B1516484154917N00111080EA0033400363
B1516494154917N00111079EA0033300363
B1516504154917N00111079EA0033400363
B1516514154917N00111078EA0033500362
B1516524154916N00111077EA0033400362
B1516534154916N00111076EA0033400361
B1516544154916N00111075EA0033400361
B1516554154915N00111074EA0033400361
B1516564154914N00111073EA0033300361
B1516574154913N00111071EA0033400361
B1516584154912N00111069EA0033500361
B1516594154911N00111066EA0033400360
B1517004154910N00111063EA0033500360
B1517014154908N00111060EA0033500361
B1517024154907N00111056EA0033500361
B1517034154905N00111052EA0033500361
B1517044154904N00111047EA0033500361
B1517054154902N00111042EA0033700361
B1517064154900N00111038EA0033600360
B1517074154898N00111034EA0033600359
B1517084154896N00111030EA0033600360
B1517094154895N00111026EA0033600361
B1517104154893N00111022EA0033500361
B1517114154892N00111017EA0033600361
B1517124154891N00111013EA0033700361
B1517134154889N00111008EA0033600361
B1517144154888N00111003EA0033600361
B1517154154886N00110998EA0033700361
B1517164154884N00110994EA0033700361
B1517174154883N00110989EA0033600362
B1517184154881N00110985EA0033600362
B1517194154879N00110981EA0033600362
B1517204154878N00110977EA0033600361
B1517214154877N00110973EA0033600361
B1517224154875N00110969EA0033600360
B1517234154874N00110966EA0033600361
B1517244154873N00110962EA0033600360
B1517254154872N00110958EA0033600360
B1517264154871N00110954EA0033700360
B1517274154870N00110951EA0033500360
B1517284154869N00110947EA0033600360
B1517294154867N00110943EA0033600361
B1517304154865N00110939EA0033600361
B1517314154863N00110935EA0033600361
B1517324154861N00110930EA0033500361
B1517334154858N00110926EA0033600361
B1517344154856N00110921EA0033600361
B1517354154853N00110916EA0033700361
B1517364154851N00110910EA0033600361
B1517374154848N00110905EA0033500362
B1517384154845N00110899EA0033600361
B1517394154843N00110894EA0033500362
B1517404154840N00110889EA0033500362
B1517414154838N00110884EA0033500362
B1517424154837N00110881EA0033500362
B1517434154836N00110879EA0033500362
B1517444154835N00110876EA0033500362
B1517454154834N00110874EA0033400362
B1517464154833N00110872EA0033400363
B1517474154834N00110871EA0033500363
B1517484154834N00110869EA0033400364
B1517494154835N00110867EA0033500364
B1517504154837N00110865EA0033400363
B1517514154838N00110864EA0033400363
B1517524154840N00110861EA0033400364
B1517534154842N00110859EA0033400363
B1517544154845N00110857EA0033400363
B1517554154848N00110856EA0033300363
B1517564154851N00110854EA0033300362
B1517574154853N00110852EA0033200361
B1517584154855N00110851EA0033200361
B1517594154855N00110851EA0033200361
B1518004154856N00110850EA0033300361
B1518014154856N00110850EA0033200361
B1518024154856N00110850EA0033200361
B1518034154856N00110849EA0033200360
B1518044154857N00110849EA0033200360
B1518054154858N00110848EA0033200361
B1518064154860N00110847EA0033300361
B1518074154862N00110847EA0033200360
B1518084154864N00110845EA0033200360
B1518094154867N00110843EA0033100360
B1518104154870N00110841EA0033100359
B1518114154872N00110840EA0033100360
B1518124154875N00110838EA0033000359
B1518134154878N00110837EA0033000359
B1518144154880N00110835EA0033000359
B1518154154882N00110833EA0033000360
B1518164154884N00110832EA0033000360
B1518174154886N00110831EA0033000360
B1518184154888N00110829EA0033100360
B1518194154888N00110828EA0033000359
B1518204154889N00110826EA0032900359
B1518214154888N00110824EA0033000359
B1518224154886N00110822EA0033000359
B1518234154885N00110822EA0033000359
B1518244154883N00110822EA0032900359
B1518254154881N00110823EA0033000358
B1518264154879N00110824EA0032900359
B1518274154878N00110825EA0033000358
B1518284154876N00110827EA0033000359
B1518294154875N00110828EA0033000360
B1518304154874N00110829EA0033100360
B1518314154874N00110830EA0033000361
B1518324154874N00110830EA0033100361
B1518334154873N00110830EA0033100362
B1518344154873N00110830EA0033000362
B1518354154874N00110831EA0033000362
B1518364154874N00110831EA0033000362
B1518374154874N00110831EA0033000362
B1518384154874N00110831EA0033100363
B1518394154874N00110831EA0033000363
B1518404154874N00110831EA0033100363
B1518414154874N00110831EA0033000363
B1518424154874N00110831EA0033100363
B1518434154874N00110831EA0033100362
B1518444154874N00110831EA0033100363
B1518454154874N00110830EA0033000364
B1518464154874N00110831EA0033000364
B1518474154873N00110831EA0033100364
B1518484154873N00110831EA0033200364
B1518494154873N00110831EA0033100364
B1518504154873N00110831EA0033200365
B1518514154873N00110831EA0033200365
B1518524154873N00110831EA0033100364
B1518534154874N00110831EA0033200364
B1518544154874N00110831EA0033200364
B1518554154874N00110830EA0033200364
B1518564154873N00110830EA0033200364
GVOEuEoXsuHp4KIqSAI1dLGvwUIY/GCFFCcKrUYt607fHk/jxklt5E3VGQmX6pTj05UUvQkZq1BH
GIZdWyQiONcx4tIz5MtGwFZ8Y94wTChWknfUZk+j5sFyhxxXPNv9qVtWB9FzofgKliseRnrs60UN
GzR52jc47Z1npyZP7s8TLc=
