AXSFwn
HFDTEDATE:070826
HFPLTPILOTINCHARGE:Pere Valles
HFCM2CREW2:NIL
HFGTYGLIDERTYPE:Niviuk Artik R2 
HFGIDGLIDERID:NIL
HFDTMGPSDATUM:WGS84
HFRFWFIRMWAREVERSION:EU_2.00V
HFRHWHARDWAREVERSION:4.5
HFFTYFRTYPE:alfapilot,Voolaris Tracker
HFGPSRECEIVER:UBLOX,M10,72,50000,GPS,GLO,GAL
HFPRSPRESSALTSENSOR:ST,LPS22HB,10000
HFALGALTGPS:GEO
HFALPALTPRESSURE:ISA
HFTZNTIMEZONE:0
B1030524202759N00044774EA0144701568
B1030534202759N00044774EA0144801568
B1030544202759N00044775EA0144701568
B1030554202759N00044775EA0144701568
B1030564202759N00044775EA0144801568
B1030574202759N00044775EA0144801568
B1030584202759N00044775EA0144701568
B1030594202759N00044775EA0144701568
B1031004202759N00044775EA0144801568
B1031014202759N00044775EA0144701568
B1031024202759N00044775EA0144701568
B1031034202759N00044775EA0144701568
B1031044202759N00044775EA0144701568
B1031054202759N00044775EA0144701568
B1031064202759N00044775EA0144801567
B1031074202759N00044775EA0144501567
B1031084202759N00044775EA0144601568
B1031094202760N00044775EA0144801568
B1031104202760N00044775EA0144901568
B1031114202760N00044775EA0144901568
B1031124202760N00044775EA0144701568
B1031134202761N00044775EA0144701568
B1031144202761N00044774EA0145001568
B1031154202762N00044775EA0144901569
B1031164202762N00044775EA0144901569
B1031174202762N00044775EA0144801569
B1031184202761N00044775EA0144801569
B1031194202760N00044774EA0144801568
B1031204202758N00044773EA0144801568
B1031214202756N00044773EA0144701568
B1031224202755N00044773EA0144601567
B1031234202753N00044772EA0144401565
B1031244202750N00044772EA0144201563
B1031254202747N00044770EA0144101561
B1031264202743N00044769EA0144001560
B1031274202739N00044768EA0143901560
B1031284202735N00044767EA0144101561
B1031294202732N00044766EA0144301563
B1031304202729N00044765EA0144301563
B1031314202726N00044764EA0144301563
B1031324202722N00044763EA0144201563
B1031334202719N00044762EA0144101562
B1031344202716N00044760EA0144001562
B1031354202714N00044759EA0144001561
B1031364202711N00044758EA0143901560
B1031374202708N00044758EA0143901559
B1031384202704N00044759EA0143801558
B1031394202700N00044760EA0143601558
B1031404202696N00044762EA0143701557
B1031414202692N00044764EA0143601557
B1031424202689N00044766EA0143801557
B1031434202685N00044768EA0143701558
B1031444202683N00044770EA0143901559
B1031454202680N00044772EA0143601558
B1031464202677N00044776EA0143801558
B1031474202674N00044780EA0143701557
B1031484202672N00044784EA0143601557
B1031494202669N00044789EA0143501556
B1031504202667N00044795EA0143401554
B1031514202664N00044801EA0143101552
B1031524202662N00044809EA0143001550
B1031534202661N00044818EA0143101549
B1031544202660N00044826EA0143201550
B1031554202658N00044834EA0143101551
B1031564202655N00044840EA0143301553
B1031574202651N00044845EA0143501555
B1031584202648N00044849EA0143901558
B1031594202645N00044853EA0143901560
B1032004202641N00044857EA0144201562
B1032014202638N00044860EA0144401564
B1032024202634N00044860EA0144701566
B1032034202631N00044860EA0144801568
B1032044202628N00044858EA0145101570
B1032054202624N00044856EA0145201572
B1032064202622N00044852EA0145201573
B1032074202622N00044848EA0145401574
B1032084202623N00044843EA0145701575
B1032094202624N00044838EA0145701576
B1032104202626N00044834EA0145501576
B1032114202627N00044830EA0145601576
B1032124202627N00044826EA0145301574
B1032134202624N00044823EA0145101571
B1032144202621N00044820EA0144701569
B1032154202617N00044819EA0144501567
B1032164202614N00044819EA0144401564
B1032174202610N00044821EA0144001560
B1032184202606N00044825EA0143601556
B1032194202601N00044830EA0143401554
B1032204202596N00044837EA0143601554
B1032214202593N00044843EA0143601556
B1032224202590N00044849EA0143901557
B1032234202587N00044856EA0143701558
B1032244202585N00044862EA0143901559
B1032254202584N00044870EA0144001560
B1032264202583N00044877EA0144301561
B1032274202583N00044885EA0144301563
B1032284202583N00044893EA0144401565
B1032294202582N00044900EA0144601566
B1032304202582N00044908EA0144801569
B1032314202581N00044915EA0145001571
B1032324202580N00044922EA0145401573
B1032334202579N00044929EA0145401575
B1032344202578N00044936EA0145601577
B1032354202576N00044943EA0145801578
B1032364202572N00044949EA0145901580
B1032374202569N00044953EA0146101582
B1032384202565N00044955EA0146201584
B1032394202562N00044956EA0146401585
B1032404202560N00044954EA0146401585
B1032414202559N00044951EA0146401586
B1032424202560N00044947EA0146401586
B1032434202561N00044943EA0146501587
B1032444202565N00044940EA0146701588
B1032454202568N00044938EA0146801589
B1032464202572N00044937EA0147001590
B1032474202576N00044935EA0147101592
B1032484202580N00044933EA0147001591
B1032494202582N00044929EA0147001591
B1032504202584N00044924EA0147101592
B1032514202584N00044920EA0147401594
B1032524202583N00044916EA0147401594
B1032534202579N00044915EA0147401595
B1032544202575N00044915EA0147501596
B1032554202572N00044916EA0147601598
B1032564202569N00044918EA0147801599
B1032574202566N00044922EA0147801600
B1032584202564N00044928EA0147601599
B1032594202562N00044935EA0147701599
B1033004202560N00044942EA0147901600
B1033014202559N00044949EA0147901601
B1033024202560N00044956EA0147901602
B1033034202560N00044964EA0147901602
B1033044202561N00044972EA0148001602
B1033054202562N00044980EA0148001603
B1033064202562N00044988EA0148101604
B1033074202562N00044997EA0148301605
B1033084202562N00045005EA0148401607
B1033094202562N00045013EA0148701609
B1033104202562N00045021EA0149101612
B1033114202561N00045027EA0149201615
B1033124202560N00045034EA0149601619
B1033134202559N00045039EA0149901622
B1033144202557N00045044EA0150201624
B1033154202554N00045048EA0150401626
B1033164202551N00045051EA0150401628
B1033174202548N00045053EA0150401629
B1033184202544N00045053EA0150701630
B1033194202541N00045053EA0150601631
B1033204202538N00045051EA0150701632
B1033214202535N00045050EA0150901633
B1033224202532N00045050EA0151001634
B1033234202528N00045051EA0151001634
B1033244202525N00045054EA0151101635
B1033254202522N00045058EA0151001635
B1033264202520N00045064EA0151101635
B1033274202518N00045071EA0151201635
B1033284202519N00045079EA0151201636
B1033294202520N00045086EA0151101636
B1033304202523N00045094EA0151001636
B1033314202524N00045101EA0151201636
B1033324202525N00045108EA0151201637
B1033334202525N00045114EA0151401638
B1033344202524N00045119EA0151201637
B1033354202522N00045123EA0151101637
B1033364202519N00045126EA0150901636
B1033374202515N00045128EA0151101635
B1033384202512N00045128EA0151101635
B1033394202509N00045126EA0151001634
B1033404202507N00045121EA0150901633
B1033414202507N00045116EA0150801632
B1033424202509N00045110EA0150701631
B1033434202512N00045105EA0150601631
B1033444202516N00045101EA0150701631
B1033454202520N00045097EA0150701631
B1033464202526N00045095EA0150701631
B1033474202531N00045093EA0150801631
B1033484202536N00045090EA0150801632
B1033494202541N00045088EA0150901632
B1033504202545N00045084EA0150701632
B1033514202549N00045081EA0150901632
B1033524202553N00045077EA0150901633
B1033534202557N00045073EA0151001633
B1033544202561N00045069EA0151001634
B1033554202564N00045065EA0151201636
B1033564202567N00045061EA0151401638
B1033574202569N00045057EA0151601640
B1033584202570N00045053EA0151901643
B1033594202572N00045050EA0152301646
B1034004202572N00045047EA0152301649
B1034014202571N00045044EA0152601651
B1034024202570N00045041EA0153001654
B1034034202568N00045038EA0153101656
B1034044202565N00045036EA0153201658
B1034054202562N00045036EA0153301660
B1034064202558N00045037EA0153601662
B1034074202553N00045038EA0153901665
B1034084202550N00045039EA0154401669
B1034094202546N00045041EA0154501671
B1034104202544N00045043EA0154601673
B1034114202541N00045046EA0154601673
B1034124202539N00045050EA0154601673
B1034134202537N00045055EA0154701673
B1034144202535N00045061EA0154801674
B1034154202534N00045068EA0154801675
B1034164202534N00045074EA0154901676
B1034174202535N00045081EA0155101677
B1034184202538N00045088EA0155101678
B1034194202541N00045095EA0155101679
B1034204202544N00045101EA0155401680
B1034214202548N00045107EA0155401681
B1034224202552N00045112EA0155601682
B1034234202557N00045116EA0155601682
B1034244202563N00045120EA0155401682
B1034254202569N00045123EA0155401682
B1034264202575N00045126EA0155501682
B1034274202581N00045127EA0155401682
B1034284202587N00045128EA0155401682
B1034294202593N00045127EA0155401681
B1034304202598N00045126EA0155301681
B1034314202604N00045124EA0155201680
B1034324202609N00045121EA0155201680
B1034334202613N00045116EA0155201680
B1034344202617N00045112EA0155601682
B1034354202620N00045107EA0155801685
B1034364202623N00045103EA0156201688
B1034374202626N00045100EA0156401691
B1034384202628N00045097EA0156501694
B1034394202629N00045094EA0156601695
B1034404202631N00045092EA0156601695
B1034414202633N00045089EA0156601695
B1034424202634N00045085EA0156501694
B1034434202636N00045081EA0156501694
B1034444202637N00045077EA0156601695
B1034454202638N00045073EA0156601696
B1034464202638N00045069EA0156801696
B1034474202638N00045065EA0156801697
B1034484202638N00045061EA0157001698
B1034494202638N00045058EA0156901698
B1034504202639N00045055EA0157001699
B1034514202640N00045052EA0157001699
B1034524202641N00045049EA0156901698
B1034534202641N00045045EA0156801697
B1034544202641N00045041EA0156801697
B1034554202640N00045038EA0157001697
B1034564202639N00045035EA0156801697
B1034574202638N00045033EA0157001697
B1034584202635N00045031EA0156901697
B1034594202632N00045030EA0157001697
B1035004202630N00045029EA0157101699
B1035014202627N00045028EA0157201700
B1035024202625N00045028EA0157301701
B1035034202622N00045027EA0157401702
B1035044202620N00045025EA0157601704
B1035054202617N00045023EA0157601705
B1035064202615N00045021EA0157901707
B1035074202612N00045020EA0158301710
B1035084202609N00045019EA0158401712
B1035094202606N00045017EA0158801715
B1035104202603N00045016EA0158901718
B1035114202600N00045014EA0159101720
B1035124202597N00045015EA0159501723
B1035134202594N00045016EA0159601725
B1035144202590N00045020EA0160001728
B1035154202587N00045024EA0160101730
B1035164202585N00045030EA0160201732
B1035174202584N00045038EA0160401733
B1035184202585N00045045EA0160401734
B1035194202588N00045053EA0160601735
B1035204202592N00045058EA0160701736
B1035214202598N00045062EA0160701736
B1035224202604N00045062EA0160801737
B1035234202609N00045061EA0160801739
B1035244202614N00045058EA0161101741
B1035254202618N00045055EA0161401744
B1035264202621N00045052EA0161701746
B1035274202624N00045048EA0161801749
B1035284202625N00045045EA0162101751
B1035294202626N00045041EA0162201753
B1035304202625N00045037EA0162301754
B1035314202624N00045034EA0162401755
B1035324202623N00045030EA0162401755
B1035334202621N00045027EA0162401756
B1035344202618N00045024EA0162601757
B1035354202616N00045021EA0162701758
B1035364202613N00045019EA0162801759
B1035374202610N00045016EA0162901760
B1035384202608N00045014EA0163101761
B1035394202606N00045012EA0163201762
B1035404202603N00045010EA0163101763
B1035414202599N00045007EA0163201763
B1035424202596N00045004EA0163101764
B1035434202592N00045001EA0163401765
B1035444202589N00044997EA0163401766
B1035454202585N00044994EA0163701767
B1035464202582N00044990EA0163801769
B1035474202579N00044987EA0163901770
B1035484202576N00044983EA0164101772
B1035494202573N00044981EA0164101773
B1035504202570N00044978EA0164201774
B1035514202568N00044975EA0164301774
B1035524202565N00044972EA0164201774
B1035534202563N00044969EA0164201774
B1035544202560N00044966EA0164101773
B1035554202557N00044963EA0164101773
B1035564202554N00044960EA0164001772
B1035574202551N00044957EA0164001772
B1035584202547N00044954EA0164001772
B1035594202543N00044952EA0164001772
B1036004202538N00044951EA0164001772
B1036014202534N00044951EA0164101772
B1036024202530N00044951EA0164101772
B1036034202526N00044952EA0163901772
B1036044202521N00044953EA0163601771
B1036054202517N00044955EA0163701770
B1036064202512N00044956EA0163501769
B1036074202507N00044958EA0163801770
B1036084202502N00044960EA0163801771
B1036094202497N00044963EA0163901772
B1036104202492N00044966EA0164101772
B1036114202488N00044970EA0164001773
B1036124202484N00044974EA0164001772
B1036134202479N00044980EA0164101772
B1036144202474N00044986EA0163801772
B1036154202469N00044991EA0164201774
B1036164202464N00044996EA0164301775
B1036174202460N00045001EA0164401777
B1036184202456N00045008EA0164601778
B1036194202451N00045014EA0164701778
B1036204202447N00045021EA0164701779
B1036214202444N00045029EA0164801780
B1036224202440N00045036EA0164801781
B1036234202438N00045044EA0165001782
B1036244202435N00045052EA0165001782
B1036254202433N00045059EA0164901782
B1036264202431N00045066EA0165001782
B1036274202429N00045074EA0164901781
B1036284202428N00045083EA0164701780
B1036294202428N00045092EA0164701779
B1036304202429N00045101EA0164601778
B1036314202432N00045109EA0164501777
B1036324202435N00045117EA0164601777
B1036334202438N00045125EA0164501777
B1036344202442N00045131EA0164401776
B1036354202447N00045137EA0164301776
B1036364202451N00045142EA0164301775
B1036374202456N00045147EA0164301775
B1036384202461N00045151EA0164201774
B1036394202467N00045154EA0164301774
B1036404202472N00045157EA0164301774
B1036414202477N00045159EA0164201775
B1036424202482N00045160EA0164301775
B1036434202488N00045161EA0164301776
B1036444202492N00045161EA0164401777
B1036454202497N00045161EA0164601778
B1036464202502N00045161EA0164701779
B1036474202507N00045161EA0164801781
B1036484202511N00045161EA0164901782
B1036494202515N00045161EA0165101783
B1036504202519N00045160EA0165301785
B1036514202522N00045160EA0165501787
B1036524202525N00045159EA0165501788
B1036534202528N00045158EA0165501788
B1036544202530N00045156EA0165601789
B1036554202533N00045153EA0165801791
B1036564202535N00045151EA0165901793
B1036574202537N00045149EA0166101794
B1036584202539N00045148EA0165901795
B1036594202541N00045148EA0166001795
B1037004202544N00045146EA0166001794
B1037014202546N00045144EA0166001794
B1037024202549N00045142EA0166201795
B1037034202552N00045139EA0166401797
B1037044202554N00045136EA0166501798
B1037054202556N00045134EA0166501800
B1037064202558N00045132EA0166701802
B1037074202559N00045130EA0166701803
B1037084202561N00045127EA0166901804
B1037094202562N00045124EA0167001805
B1037104202563N00045121EA0167001806
B1037114202564N00045118EA0167101807
B1037124202566N00045116EA0167101806
B1037134202567N00045113EA0166901806
B1037144202568N00045110EA0166801804
B1037154202568N00045107EA0166601802
B1037164202568N00045102EA0166301800
B1037174202567N00045098EA0166201799
B1037184202566N00045094EA0166201798
B1037194202566N00045089EA0166501799
B1037204202566N00045085EA0166401799
B1037214202566N00045080EA0166401799
B1037224202565N00045076EA0166401800
B1037234202564N00045072EA0166501800
B1037244202561N00045069EA0166501800
B1037254202558N00045065EA0166601801
B1037264202555N00045060EA0166701802
B1037274202552N00045057EA0167001805
B1037284202549N00045053EA0167401808
B1037294202546N00045050EA0167501810
B1037304202544N00045047EA0167801812
B1037314202542N00045044EA0167801814
B1037324202540N00045041EA0167901815
B1037334202538N00045039EA0168101815
B1037344202534N00045037EA0168001816
B1037354202531N00045037EA0168301817
B1037364202527N00045038EA0168601819
B1037374202523N00045041EA0168701821
B1037384202520N00045046EA0168501821
B1037394202517N00045053EA0168501820
B1037404202516N00045061EA0168401820
B1037414202516N00045071EA0168601820
B1037424202516N00045080EA0168501821
B1037434202517N00045088EA0168701821
B1037444202520N00045096EA0168801822
B1037454202524N00045102EA0168601822
B1037464202529N00045107EA0168701823
B1037474202534N00045111EA0168901824
B1037484202539N00045114EA0169001825
B1037494202544N00045115EA0169201827
B1037504202549N00045115EA0169501829
B1037514202552N00045114EA0169501830
B1037524202556N00045114EA0169401830
B1037534202559N00045112EA0169701831
B1037544202564N00045110EA0169401831
B1037554202568N00045108EA0169801832
B1037564202572N00045105EA0169901833
B1037574202575N00045101EA0170001835
B1037584202577N00045098EA0170201837
B1037594202578N00045095EA0170201838
B1038004202579N00045091EA0170201838
B1038014202580N00045087EA0170201838
B1038024202580N00045082EA0170201839
B1038034202579N00045078EA0170201839
B1038044202577N00045074EA0170301839
B1038054202575N00045071EA0170301840
B1038064202572N00045069EA0170401841
B1038074202569N00045066EA0170601842
B1038084202566N00045065EA0170501842
B1038094202563N00045064EA0170601843
B1038104202560N00045063EA0170701843
B1038114202557N00045062EA0170601843
B1038124202553N00045062EA0170701843
B1038134202550N00045062EA0170701843
B1038144202546N00045063EA0170401842
B1038154202542N00045063EA0170301841
B1038164202539N00045063EA0170501841
B1038174202535N00045062EA0170501841
B1038184202532N00045062EA0170401842
B1038194202529N00045061EA0170401842
B1038204202526N00045061EA0170401841
B1038214202523N00045060EA0170301841
B1038224202519N00045059EA0170401841
B1038234202515N00045058EA0170401841
B1038244202511N00045057EA0170301841
B1038254202507N00045056EA0170401841
B1038264202503N00045056EA0170401841
B1038274202499N00045055EA0170301841
B1038284202495N00045054EA0170401840
B1038294202492N00045053EA0170301841
B1038304202488N00045052EA0170501841
B1038314202484N00045051EA0170501842
B1038324202480N00045050EA0170701843
B1038334202476N00045049EA0170601844
B1038344202472N00045047EA0170701844
B1038354202468N00045045EA0170701844
B1038364202465N00045043EA0170601843
B1038374202461N00045041EA0170501842
B1038384202457N00045039EA0170401841
B1038394202453N00045036EA0170401840
B1038404202449N00045033EA0170301840
B1038414202444N00045030EA0170201839
B1038424202440N00045027EA0170301839
B1038434202436N00045026EA0170001837
B1038444202431N00045024EA0169801835
B1038454202426N00045023EA0169601834
B1038464202421N00045021EA0169801833
B1038474202416N00045021EA0169601833
B1038484202411N00045021EA0169701832
B1038494202406N00045020EA0169501831
B1038504202402N00045020EA0169301830
B1038514202397N00045020EA0169201828
B1038524202392N00045019EA0169001826
B1038534202387N00045021EA0168801824
B1038544202382N00045023EA0168501822
B1038554202377N00045027EA0168501820
B1038564202372N00045032EA0168501820
B1038574202367N00045037EA0168501820
B1038584202364N00045043EA0168501820
B1038594202360N00045049EA0168501819
B1039004202357N00045055EA0168101817
B1039014202354N00045062EA0168001816
B1039024202350N00045069EA0167801814
B1039034202347N00045076EA0167601813
B1039044202344N00045084EA0167601812
B1039054202342N00045092EA0167601811
B1039064202340N00045100EA0167601811
B1039074202338N00045108EA0167301810
B1039084202338N00045117EA0167501810
B1039094202337N00045125EA0167501810
B1039104202338N00045134EA0167501811
B1039114202339N00045142EA0167601811
B1039124202341N00045150EA0167801812
B1039134202343N00045158EA0167901814
B1039144202344N00045166EA0168301816
B1039154202346N00045173EA0168401818
B1039164202348N00045179EA0168601820
B1039174202350N00045185EA0168601820
B1039184202352N00045191EA0168501820
B1039194202355N00045197EA0168601821
B1039204202359N00045203EA0168601821
B1039214202363N00045208EA0168701822
B1039224202367N00045212EA0168701822
B1039234202371N00045215EA0168701821
B1039244202375N00045219EA0168501821
B1039254202380N00045223EA0168401821
B1039264202384N00045227EA0168501820
B1039274202389N00045231EA0168401819
B1039284202393N00045234EA0168301818
B1039294202399N00045238EA0168101817
B1039304202404N00045241EA0168301817
B1039314202410N00045243EA0168301818
B1039324202415N00045244EA0168301818
B1039334202420N00045245EA0168401819
B1039344202425N00045246EA0168601821
B1039354202430N00045246EA0168701822
B1039364202434N00045246EA0168701822
B1039374202439N00045246EA0168701823
B1039384202444N00045246EA0168901823
B1039394202449N00045246EA0168901824
B1039404202453N00045246EA0168901825
B1039414202458N00045245EA0168901825
B1039424202462N00045243EA0168901825
B1039434202467N00045241EA0169101826
B1039444202471N00045238EA0169101827
B1039454202475N00045235EA0169101827
B1039464202479N00045231EA0169201828
B1039474202483N00045227EA0169301829
B1039484202486N00045223EA0169401830
B1039494202489N00045219EA0169501832
B1039504202492N00045216EA0169701834
B1039514202495N00045212EA0169901835
B1039524202497N00045209EA0170001837
B1039534202498N00045206EA0170001838
B1039544202498N00045204EA0170101838
B1039554202498N00045201EA0170001837
B1039564202497N00045198EA0170001836
B1039574202497N00045194EA0169701835
B1039584202496N00045190EA0169901836
B1039594202496N00045185EA0170101837
B1040004202494N00045182EA0170201838
B1040014202493N00045178EA0170101838
B1040024202490N00045175EA0170101838
B1040034202487N00045172EA0170101837
B1040044202483N00045169EA0170201838
B1040054202480N00045166EA0170101837
B1040064202477N00045163EA0169901837
B1040074202473N00045160EA0169801835
B1040084202469N00045157EA0169701834
B1040094202466N00045154EA0169801833
B1040104202462N00045151EA0169601832
B1040114202459N00045149EA0169601832
B1040124202455N00045146EA0169501831
B1040134202451N00045143EA0169601831
B1040144202448N00045140EA0169501831
B1040154202444N00045138EA0169601831
B1040164202440N00045136EA0169501831
B1040174202437N00045134EA0169501831
B1040184202433N00045133EA0169301829
B1040194202430N00045131EA0169401829
B1040204202426N00045128EA0169301829
B1040214202423N00045126EA0169401829
B1040224202420N00045124EA0169401829
B1040234202416N00045122EA0169601830
B1040244202413N00045120EA0169401829
B1040254202410N00045117EA0169301829
B1040264202407N00045115EA0169201828
B1040274202404N00045112EA0169101828
B1040284202401N00045109EA0169301828
B1040294202398N00045106EA0169301828
B1040304202395N00045103EA0169301828
B1040314202392N00045101EA0169101826
B1040324202389N00045098EA0168901825
B1040334202385N00045096EA0168801823
B1040344202381N00045093EA0168801822
B1040354202378N00045089EA0168801822
B1040364202375N00045086EA0168701821
B1040374202372N00045084EA0168601820
B1040384202368N00045081EA0168501819
B1040394202365N00045078EA0168401818
B1040404202362N00045076EA0168401818
B1040414202359N00045073EA0168201817
B1040424202357N00045069EA0168201816
B1040434202355N00045065EA0168101815
B1040444202352N00045061EA0167901814
B1040454202350N00045057EA0168101814
B1040464202348N00045053EA0168001814
B1040474202347N00045049EA0168101814
B1040484202345N00045045EA0168101815
B1040494202344N00045040EA0168101815
B1040504202343N00045036EA0168201816
B1040514202342N00045032EA0168101816
B1040524202341N00045027EA0168101815
B1040534202340N00045023EA0168101814
B1040544202339N00045019EA0168001813
B1040554202338N00045015EA0167801811
B1040564202337N00045010EA0167501809
B1040574202336N00045005EA0167201807
B1040584202334N00045000EA0167301806
B1040594202333N00044995EA0167101805
B1041004202332N00044991EA0167101804
B1041014202331N00044986EA0167001803
B1041024202329N00044981EA0166901802
B1041034202326N00044977EA0166901801
B1041044202322N00044973EA0166801801
B1041054202318N00044972EA0166701800
B1041064202312N00044972EA0166701800
B1041074202307N00044974EA0166401798
B1041084202301N00044979EA0166501798
B1041094202297N00044986EA0166401798
B1041104202295N00044993EA0166601798
B1041114202294N00045001EA0166501798
B1041124202293N00045009EA0166201796
B1041134202293N00045016EA0166001795
B1041144202294N00045023EA0166001793
B1041154202295N00045031EA0165901792
B1041164202297N00045038EA0165901792
B1041174202300N00045045EA0165901792
B1041184202303N00045052EA0166001793
B1041194202306N00045057EA0166201795
B1041204202310N00045063EA0166201796
B1041214202312N00045069EA0166301796
B1041224202315N00045075EA0166301796
B1041234202319N00045081EA0166401796
B1041244202323N00045086EA0166301796
B1041254202327N00045091EA0166201796
B1041264202332N00045096EA0166401797
B1041274202336N00045101EA0166401797
B1041284202341N00045107EA0166601798
B1041294202345N00045113EA0166601798
B1041304202349N00045119EA0166501799
B1041314202352N00045125EA0166501798
B1041324202356N00045131EA0166401798
B1041334202359N00045137EA0166401798
B1041344202363N00045143EA0166601799
B1041354202366N00045149EA0166601800
B1041364202370N00045155EA0166701800
B1041374202373N00045160EA0166801801
B1041384202377N00045165EA0166601801
B1041394202382N00045170EA0166801801
B1041404202386N00045174EA0167001802
B1041414202390N00045179EA0167001803
B1041424202394N00045183EA0166901804
B1041434202398N00045188EA0167001804
B1041444202402N00045192EA0167001804
B1041454202407N00045196EA0167401806
B1041464202412N00045200EA0167301807
B1041474202417N00045202EA0167301807
B1041484202422N00045202EA0167301807
B1041494202427N00045201EA0167201807
B1041504202432N00045200EA0167101806
B1041514202436N00045197EA0167001805
B1041524202439N00045194EA0167201804
B1041534202441N00045190EA0167001804
B1041544202443N00045186EA0166901804
B1041554202445N00045182EA0167101804
B1041564202446N00045178EA0167101805
B1041574202448N00045174EA0167301807
B1041584202449N00045170EA0167301808
B1041594202449N00045166EA0167501809
B1042004202449N00045163EA0167501810
B1042014202448N00045159EA0167801811
B1042024202447N00045155EA0167701812
B1042034202446N00045151EA0167801813
B1042044202445N00045147EA0167901814
B1042054202444N00045143EA0168101816
B1042064202442N00045139EA0168201817
B1042074202440N00045135EA0168201817
B1042084202438N00045131EA0168101817
B1042094202434N00045127EA0168301817
B1042104202430N00045124EA0168201817
B1042114202427N00045120EA0168301817
B1042124202423N00045117EA0168301818
B1042134202419N00045114EA0168301817
B1042144202415N00045112EA0168201817
B1042154202411N00045109EA0168001816
B1042164202407N00045107EA0168001815
B1042174202403N00045105EA0167701813
B1042184202399N00045103EA0167501810
B1042194202395N00045100EA0167401808
B1042204202391N00045099EA0167201806
B1042214202386N00045097EA0166901803
B1042224202381N00045095EA0166501800
B1042234202376N00045095EA0166301798
B1042244202370N00045095EA0166101796
B1042254202364N00045096EA0166101795
B1042264202358N00045098EA0166001793
B1042274202353N00045100EA0165801792
B1042284202347N00045102EA0165601791
B1042294202341N00045105EA0165601790
B1042304202336N00045108EA0165601789
B1042314202331N00045111EA0165501788
B1042324202326N00045113EA0165201787
B1042334202321N00045116EA0165401786
B1042344202316N00045119EA0165101786
B1042354202312N00045123EA0165401786
B1042364202307N00045128EA0165201786
B1042374202304N00045133EA0165301786
B1042384202300N00045139EA0165201786
B1042394202296N00045144EA0165101785
B1042404202293N00045150EA0164901784
B1042414202289N00045156EA0164901782
B1042424202286N00045164EA0164801781
B1042434202284N00045172EA0164601779
B1042444202283N00045180EA0164301778
B1042454202283N00045189EA0164401777
B1042464202283N00045197EA0164301776
B1042474202283N00045206EA0164201775
B1042484202284N00045214EA0164101773
B1042494202285N00045222EA0164001772
B1042504202286N00045230EA0163801771
B1042514202288N00045238EA0163901771
B1042524202289N00045246EA0163701770
B1042534202291N00045254EA0163501769
B1042544202293N00045262EA0163501768
B1042554202295N00045271EA0163501768
B1042564202298N00045280EA0163601768
B1042574202300N00045288EA0163501768
B1042584202303N00045296EA0163501768
B1042594202306N00045303EA0163401767
B1043004202309N00045311EA0163301767
B1043014202312N00045318EA0163301767
B1043024202314N00045326EA0163201766
B1043034202316N00045334EA0163001764
B1043044202319N00045342EA0163101763
B1043054202323N00045350EA0162901762
B1043064202327N00045356EA0162901762
B1043074202331N00045361EA0162901761
B1043084202336N00045366EA0162801760
B1043094202341N00045369EA0162601760
B1043104202347N00045372EA0162601759
B1043114202352N00045375EA0162701759
B1043124202357N00045376EA0162701759
B1043134202362N00045377EA0162701758
B1043144202366N00045378EA0162601758
B1043154202371N00045377EA0162501757
B1043164202376N00045376EA0162601758
B1043174202380N00045375EA0162701758
B1043184202384N00045374EA0162701759
B1043194202389N00045373EA0162801760
B1043204202393N00045372EA0162801761
B1043214202397N00045371EA0163001762
B1043224202401N00045369EA0163101763
B1043234202405N00045368EA0163201764
B1043244202409N00045367EA0163101765
B1043254202413N00045366EA0163101764
B1043264202417N00045364EA0163101764
B1043274202421N00045362EA0163101764
B1043284202425N00045360EA0162801764
B1043294202428N00045357EA0163001764
B1043304202431N00045354EA0162901763
B1043314202435N00045351EA0163001764
B1043324202438N00045348EA0163301766
B1043334202440N00045346EA0163401768
B1043344202443N00045345EA0163601769
B1043354202445N00045344EA0163601769
B1043364202448N00045342EA0163501770
B1043374202451N00045340EA0163501770
B1043384202454N00045338EA0163601771
B1043394202455N00045336EA0163701771
B1043404202457N00045333EA0163601772
B1043414202459N00045331EA0163701772
B1043424202461N00045329EA0163501771
B1043434202462N00045327EA0163501771
B1043444202464N00045324EA0163701772
B1043454202466N00045321EA0163801773
B1043464202467N00045319EA0163801773
B1043474202470N00045317EA0163801773
B1043484202472N00045314EA0163701773
B1043494202474N00045311EA0163801773
B1043504202476N00045307EA0163801774
B1043514202478N00045303EA0164101776
B1043524202479N00045300EA0164301777
B1043534202479N00045297EA0164401779
B1043544202479N00045295EA0164301779
B1043554202479N00045292EA0164301779
B1043564202479N00045288EA0164301779
B1043574202478N00045284EA0164401779
B1043584202477N00045280EA0164501780
B1043594202476N00045276EA0164501782
B1044004202473N00045273EA0164701782
B1044014202470N00045272EA0164701783
B1044024202466N00045271EA0164701783
B1044034202461N00045271EA0164801783
B1044044202456N00045272EA0164801782
B1044054202451N00045273EA0164601781
B1044064202446N00045274EA0164601780
B1044074202441N00045276EA0164301778
B1044084202436N00045280EA0164201777
B1044094202430N00045285EA0164101775
B1044104202426N00045290EA0163901773
B1044114202421N00045297EA0163701771
B1044124202417N00045304EA0163501770
B1044134202413N00045312EA0163601769
B1044144202410N00045319EA0163301767
B1044154202407N00045327EA0163201765
B1044164202404N00045334EA0163001763
B1044174202402N00045343EA0162701760
B1044184202400N00045351EA0162401757
B1044194202399N00045360EA0162201754
B1044204202398N00045370EA0162101752
B1044214202397N00045379EA0161901751
B1044224202397N00045388EA0161701749
B1044234202397N00045398EA0161301746
B1044244202397N00045407EA0161201744
B1044254202398N00045417EA0161301744
B1044264202398N00045426EA0161301743
B1044274202399N00045435EA0161001742
B1044284202400N00045442EA0160801740
B1044294202401N00045450EA0160601738
B1044304202402N00045459EA0160501736
B1044314202403N00045467EA0160301734
B1044324202406N00045475EA0160001733
B1044334202410N00045481EA0159901731
B1044344202415N00045485EA0159901729
B1044354202420N00045487EA0159801728
B1044364202425N00045487EA0159701727
B1044374202429N00045486EA0159501727
B1044384202432N00045485EA0159601727
B1044394202434N00045483EA0159501727
B1044404202437N00045481EA0159701727
B1044414202439N00045479EA0159401726
B1044424202441N00045477EA0159501725
B1044434202443N00045473EA0159301724
B1044444202445N00045470EA0159301724
B1044454202448N00045467EA0159301724
B1044464202449N00045464EA0159201723
B1044474202451N00045462EA0159101722
B1044484202453N00045458EA0159101721
B1044494202454N00045455EA0159001721
B1044504202456N00045452EA0158901720
B1044514202458N00045449EA0159101720
B1044524202460N00045445EA0159001720
B1044534202462N00045441EA0158801719
B1044544202464N00045436EA0158901719
B1044554202466N00045432EA0158901719
B1044564202468N00045428EA0159001719
B1044574202470N00045425EA0159001720
B1044584202472N00045421EA0159101721
B1044594202474N00045418EA0159201722
B1045004202476N00045414EA0159301722
B1045014202478N00045410EA0159301723
B1045024202480N00045407EA0159301724
B1045034202482N00045404EA0159501726
B1045044202484N00045400EA0159601727
B1045054202486N00045396EA0159801728
B1045064202487N00045393EA0159901730
B1045074202489N00045390EA0160101731
B1045084202491N00045386EA0160001731
B1045094202493N00045383EA0160101732
B1045104202495N00045379EA0160201732
B1045114202497N00045375EA0160301733
B1045124202499N00045371EA0160301734
B1045134202501N00045368EA0160401734
B1045144202503N00045365EA0160401735
B1045154202505N00045362EA0160401735
B1045164202507N00045359EA0160301735
B1045174202510N00045355EA0160401735
B1045184202512N00045352EA0160401735
B1045194202514N00045348EA0160301735
B1045204202516N00045344EA0160401735
B1045214202518N00045339EA0160401736
B1045224202519N00045335EA0160601737
B1045234202520N00045332EA0160701738
B1045244202519N00045329EA0160501738
B1045254202517N00045327EA0160501737
B1045264202513N00045326EA0160401736
B1045274202509N00045326EA0160401736
B1045284202505N00045327EA0160301735
B1045294202501N00045331EA0160301735
B1045304202497N00045335EA0160301735
B1045314202493N00045341EA0160401735
B1045324202490N00045347EA0160401736
B1045334202487N00045353EA0160501736
B1045344202484N00045360EA0160601736
B1045354202481N00045367EA0160401736
B1045364202479N00045375EA0160301735
B1045374202478N00045382EA0160501735
B1045384202476N00045390EA0160301734
B1045394202474N00045398EA0160201734
B1045404202472N00045406EA0160301734
B1045414202470N00045414EA0160301734
B1045424202468N00045422EA0160301734
B1045434202467N00045430EA0160201733
B1045444202466N00045438EA0160201733
B1045454202467N00045446EA0160101732
B1045464202469N00045454EA0160101732
B1045474202473N00045461EA0160101731
B1045484202478N00045467EA0159901730
B1045494202485N00045471EA0159901729
B1045504202492N00045473EA0159901729
B1045514202498N00045472EA0160001730
B1045524202503N00045470EA0160101731
B1045534202508N00045467EA0160301733
B1045544202513N00045464EA0160401734
B1045554202517N00045461EA0160501735
B1045564202521N00045458EA0160701737
B1045574202525N00045454EA0160901739
B1045584202528N00045451EA0160901740
B1045594202531N00045448EA0160801739
B1046004202534N00045445EA0160601738
B1046014202536N00045441EA0160601736
B1046024202537N00045436EA0160401735
B1046034202538N00045432EA0160301734
B1046044202539N00045427EA0160301733
B1046054202539N00045423EA0160301733
B1046064202539N00045419EA0160001732
B1046074202538N00045415EA0160001731
B1046084202538N00045410EA0160001730
B1046094202538N00045406EA0160001729
B1046104202537N00045401EA0159801728
B1046114202537N00045397EA0159701727
B1046124202537N00045392EA0159701727
B1046134202537N00045387EA0159701727
B1046144202537N00045381EA0160001729
B1046154202537N00045376EA0160001730
B1046164202538N00045372EA0160101731
B1046174202538N00045368EA0160101732
B1046184202539N00045364EA0160001731
B1046194202540N00045360EA0160001731
B1046204202540N00045355EA0160001731
B1046214202541N00045350EA0160201732
B1046224202542N00045345EA0160301733
B1046234202542N00045342EA0160201733
B1046244202542N00045338EA0160101731
B1046254202542N00045334EA0159801729
B1046264202542N00045330EA0159401726
B1046274202543N00045324EA0159301724
B1046284202543N00045319EA0159101722
B1046294202543N00045314EA0158901720
B1046304202544N00045308EA0158601718
B1046314202544N00045303EA0158601716
B1046324202545N00045297EA0158501715
B1046334202545N00045291EA0158201713
B1046344202545N00045285EA0158101711
B1046354202546N00045279EA0158001709
B1046364202547N00045273EA0157901709
B1046374202548N00045267EA0158001709
B1046384202550N00045261EA0158001709
B1046394202551N00045255EA0158101710
B1046404202553N00045251EA0158301711
B1046414202554N00045246EA0158301712
B1046424202556N00045243EA0158401713
B1046434202557N00045239EA0158501714
B1046444202559N00045236EA0158301714
B1046454202559N00045232EA0158501714
B1046464202560N00045229EA0158401714
B1046474202561N00045225EA0158501715
B1046484202562N00045221EA0158601715
B1046494202563N00045217EA0158601716
B1046504202564N00045214EA0158601716
B1046514202565N00045210EA0158701716
B1046524202566N00045206EA0158701716
B1046534202567N00045202EA0158701717
B1046544202568N00045197EA0159001719
B1046554202568N00045194EA0159201720
B1046564202569N00045191EA0159301722
B1046574202570N00045188EA0159301723
B1046584202571N00045184EA0159301723
B1046594202572N00045181EA0159301723
B1047004202573N00045177EA0159401724
B1047014202574N00045174EA0159401725
B1047024202576N00045170EA0159401725
B1047034202577N00045166EA0159601726
B1047044202578N00045162EA0159801727
B1047054202578N00045159EA0159901729
B1047064202578N00045156EA0160101730
B1047074202578N00045153EA0160201731
B1047084202576N00045149EA0160401733
B1047094202573N00045146EA0160401734
B1047104202570N00045142EA0160801735
B1047114202566N00045140EA0160701737
B1047124202562N00045140EA0160601737
B1047134202559N00045139EA0160801737
B1047144202557N00045139EA0160801737
B1047154202554N00045138EA0160601736
B1047164202552N00045138EA0160201733
B1047174202549N00045136EA0160101731
B1047184202546N00045134EA0160101730
B1047194202543N00045132EA0159901730
B1047204202540N00045131EA0159801729
B1047214202538N00045131EA0159701728
B1047224202535N00045131EA0159601726
B1047234202531N00045132EA0159101723
B1047244202528N00045133EA0159001720
B1047254202524N00045136EA0158701717
B1047264202520N00045140EA0158601715
B1047274202517N00045145EA0158401713
B1047284202514N00045150EA0158101711
B1047294202512N00045156EA0158001709
B1047304202510N00045162EA0157801706
B1047314202507N00045168EA0157301703
B1047324202505N00045175EA0157101700
B1047334202502N00045183EA0156801698
B1047344202500N00045191EA0156701696
B1047354202497N00045199EA0156801695
B1047364202495N00045207EA0156601695
B1047374202492N00045215EA0156701694
B1047384202490N00045223EA0156701694
B1047394202487N00045231EA0156601694
B1047404202484N00045239EA0156601694
B1047414202480N00045247EA0156701694
B1047424202476N00045254EA0156801694
B1047434202472N00045262EA0156801695
B1047444202467N00045268EA0157101697
B1047454202464N00045273EA0157201698
B1047464202460N00045279EA0157101700
B1047474202457N00045284EA0157301700
B1047484202454N00045290EA0157001699
B1047494202451N00045297EA0157101698
B1047504202448N00045305EA0157001698
B1047514202445N00045313EA0156901697
B1047524202442N00045321EA0156901696
B1047534202439N00045329EA0156801696
B1047544202437N00045337EA0156801696
B1047554202435N00045345EA0156801696
B1047564202434N00045353EA0156701695
B1047574202432N00045361EA0156801695
B1047584202431N00045368EA0156701695
B1047594202428N00045376EA0156801696
B1048004202426N00045383EA0156801696
B1048014202424N00045390EA0156901696
B1048024202422N00045397EA0156801696
B1048034202420N00045405EA0156801696
B1048044202419N00045413EA0156701695
B1048054202417N00045421EA0156701695
B1048064202415N00045430EA0156901695
B1048074202414N00045438EA0156701695
B1048084202412N00045446EA0156701694
B1048094202411N00045454EA0156401692
B1048104202410N00045462EA0156301691
B1048114202408N00045470EA0156201689
B1048124202405N00045478EA0156001688
B1048134202403N00045487EA0156301689
B1048144202400N00045495EA0156301690
B1048154202398N00045502EA0156401691
B1048164202395N00045508EA0156401691
B1048174202391N00045513EA0156401691
B1048184202386N00045516EA0156301690
B1048194202382N00045520EA0156301689
B1048204202379N00045526EA0156101689
B1048214202375N00045532EA0156001688
B1048224202373N00045538EA0156001687
B1048234202371N00045544EA0155901686
B1048244202369N00045551EA0155901685
B1048254202368N00045558EA0155701684
B1048264202367N00045565EA0155701683
B1048274202366N00045573EA0155701683
B1048284202364N00045580EA0155501683
B1048294202362N00045587EA0155601683
B1048304202361N00045595EA0155601682
B1048314202359N00045602EA0155301681
B1048324202357N00045609EA0155201680
B1048334202356N00045617EA0155201679
B1048344202354N00045624EA0155201678
B1048354202353N00045632EA0155101678
B1048364202351N00045639EA0155201678
B1048374202349N00045646EA0155101677
B1048384202348N00045653EA0155001677
B1048394202346N00045660EA0155001676
B1048404202344N00045668EA0155101676
B1048414202343N00045675EA0155101676
B1048424202341N00045682EA0155101676
B1048434202340N00045689EA0155001676
B1048444202338N00045696EA0154901676
B1048454202337N00045703EA0154801674
B1048464202336N00045711EA0154801673
B1048474202334N00045718EA0154601671
B1048484202332N00045726EA0154401670
B1048494202329N00045733EA0154301669
B1048504202327N00045740EA0154301667
B1048514202325N00045748EA0154101666
B1048524202322N00045755EA0154101665
B1048534202320N00045762EA0153801664
B1048544202317N00045768EA0153701662
B1048554202315N00045775EA0153701662
B1048564202311N00045781EA0153601661
B1048574202308N00045786EA0153501661
B1048584202305N00045791EA0153501660
B1048594202302N00045797EA0153201658
B1049004202298N00045803EA0153201657
B1049014202295N00045810EA0153101656
B1049024202293N00045817EA0153001655
B1049034202290N00045825EA0152901654
B1049044202288N00045832EA0152901653
B1049054202286N00045840EA0152701653
B1049064202284N00045847EA0152801652
B1049074202282N00045854EA0152701652
B1049084202280N00045861EA0152601651
B1049094202277N00045868EA0152501649
B1049104202275N00045875EA0152301648
B1049114202272N00045883EA0152201647
B1049124202270N00045891EA0152101645
B1049134202267N00045899EA0152001644
B1049144202265N00045906EA0151801642
B1049154202263N00045915EA0151601641
B1049164202262N00045924EA0151301639
B1049174202261N00045934EA0151101637
B1049184202261N00045943EA0151201636
B1049194202260N00045953EA0151201635
B1049204202260N00045962EA0151201635
B1049214202261N00045971EA0151101634
B1049224202261N00045980EA0151301634
B1049234202262N00045989EA0151201635
B1049244202262N00045997EA0151201635
B1049254202262N00046005EA0151001634
B1049264202262N00046013EA0150901633
B1049274202263N00046021EA0150801632
B1049284202265N00046030EA0150701631
B1049294202266N00046039EA0150601630
B1049304202268N00046048EA0150801630
B1049314202269N00046057EA0150701630
B1049324202271N00046066EA0150501629
B1049334202272N00046075EA0150301626
B1049344202274N00046084EA0150101625
B1049354202275N00046094EA0150201624
B1049364202275N00046103EA0150001623
B1049374202275N00046111EA0149901621
B1049384202274N00046119EA0149201617
B1049394202274N00046128EA0148601612
B1049404202273N00046138EA0148501608
B1049414202273N00046148EA0148301606
B1049424202272N00046158EA0148201605
B1049434202272N00046167EA0148401604
B1049444202271N00046175EA0148101604
B1049454202272N00046183EA0148001602
B1049464202272N00046192EA0147701600
B1049474202274N00046200EA0147401597
B1049484202275N00046209EA0147301595
B1049494202276N00046219EA0147101593
B1049504202278N00046228EA0147001592
B1049514202279N00046237EA0146901590
B1049524202281N00046245EA0146701589
B1049534202282N00046253EA0146701588
B1049544202283N00046261EA0146301585
B1049554202284N00046269EA0145901583
B1049564202286N00046278EA0145701579
B1049574202287N00046288EA0145701577
B1049584202288N00046298EA0145501576
B1049594202290N00046307EA0145301574
B1050004202291N00046317EA0145201574
B1050014202293N00046327EA0145401574
B1050024202294N00046336EA0145401574
B1050034202295N00046345EA0145501575
B1050044202296N00046354EA0145401574
B1050054202298N00046362EA0145401574
B1050064202299N00046369EA0145201573
B1050074202301N00046377EA0145001571
B1050084202303N00046385EA0145001569
B1050094202304N00046392EA0144901569
B1050104202306N00046400EA0144901569
B1050114202307N00046407EA0144801568
B1050124202309N00046414EA0144701567
B1050134202310N00046422EA0144601566
B1050144202312N00046430EA0144501565
B1050154202313N00046438EA0144501564
B1050164202315N00046447EA0144301564
B1050174202316N00046456EA0144201564
B1050184202317N00046465EA0144401564
B1050194202318N00046473EA0144301565
B1050204202319N00046481EA0144701566
B1050214202320N00046489EA0144701567
B1050224202321N00046496EA0144601567
B1050234202322N00046503EA0144601567
B1050244202323N00046511EA0144601567
B1050254202323N00046518EA0144601567
B1050264202324N00046525EA0144501567
B1050274202324N00046532EA0144501566
B1050284202325N00046539EA0144501565
B1050294202325N00046546EA0144401564
B1050304202326N00046554EA0144201563
B1050314202327N00046561EA0144101562
B1050324202327N00046569EA0143901560
B1050334202328N00046576EA0143701558
B1050344202329N00046584EA0143501556
B1050354202331N00046592EA0143401554
B1050364202332N00046599EA0143201552
B1050374202333N00046607EA0143001551
B1050384202333N00046615EA0142901550
B1050394202333N00046623EA0142901549
B1050404202332N00046630EA0142701549
B1050414202331N00046638EA0142801548
B1050424202330N00046645EA0143001549
B1050434202329N00046652EA0142801548
B1050444202328N00046659EA0142901548
B1050454202327N00046667EA0142701548
B1050464202327N00046675EA0143001550
B1050474202326N00046681EA0143301552
B1050484202324N00046686EA0143301553
B1050494202323N00046691EA0143201553
B1050504202322N00046697EA0143301553
B1050514202320N00046704EA0143301554
B1050524202317N00046710EA0143501556
B1050534202314N00046715EA0143901559
B1050544202311N00046719EA0144301561
B1050554202307N00046721EA0144201563
B1050564202303N00046723EA0144501565
B1050574202299N00046725EA0144501566
B1050584202295N00046730EA0144701567
B1050594202292N00046736EA0144901569
B1051004202290N00046744EA0145101572
B1051014202290N00046751EA0145501575
B1051024202290N00046758EA0145501578
B1051034202289N00046764EA0145801579
B1051044202287N00046769EA0145501579
B1051054202284N00046774EA0145401577
B1051064202279N00046777EA0145501577
B1051074202275N00046779EA0145601578
B1051084202270N00046779EA0145701579
B1051094202266N00046777EA0145701579
B1051104202263N00046774EA0145701579
B1051114202260N00046769EA0145801578
B1051124202258N00046764EA0145501577
B1051134202258N00046758EA0145701577
B1051144202259N00046753EA0145701578
B1051154202260N00046748EA0145901580
B1051164202261N00046744EA0146001581
B1051174202262N00046740EA0146001581
B1051184202261N00046735EA0146101581
B1051194202259N00046730EA0146101580
B1051204202257N00046726EA0146101581
B1051214202254N00046723EA0146001581
B1051224202251N00046721EA0146201581
B1051234202246N00046720EA0146101581
B1051244202242N00046719EA0146201582
B1051254202238N00046719EA0146201583
B1051264202233N00046720EA0146401584
B1051274202229N00046722EA0146701587
B1051284202225N00046724EA0147101590
B1051294202221N00046727EA0147301594
B1051304202218N00046730EA0147601597
B1051314202216N00046734EA0147801599
B1051324202213N00046739EA0148001601
B1051334202211N00046745EA0148201603
B1051344202210N00046752EA0148501605
B1051354202210N00046760EA0148601607
B1051364202213N00046767EA0148801609
B1051374202217N00046772EA0148901611
B1051384202222N00046776EA0148901612
B1051394202227N00046777EA0149201613
B1051404202231N00046777EA0149201614
B1051414202235N00046776EA0149201614
B1051424202238N00046773EA0149001613
B1051434202241N00046768EA0148901612
B1051444202244N00046762EA0148901612
B1051454202246N00046756EA0149001612
B1051464202247N00046750EA0149001613
B1051474202246N00046745EA0149001613
B1051484202245N00046739EA0149101614
B1051494202243N00046733EA0149201614
B1051504202240N00046727EA0149401616
B1051514202238N00046721EA0149701619
B1051524202236N00046716EA0149801622
B1051534202233N00046712EA0150101624
B1051544202230N00046710EA0150201625
B1051554202227N00046708EA0150101626
B1051564202222N00046707EA0150401627
B1051574202218N00046706EA0150601629
B1051584202214N00046707EA0150701630
B1051594202210N00046710EA0150501629
B1052004202206N00046715EA0150401629
B1052014202201N00046721EA0150401629
B1052024202197N00046727EA0150501629
B1052034202194N00046734EA0150501629
B1052044202192N00046741EA0150801630
B1052054202190N00046748EA0151001632
B1052064202189N00046756EA0151101634
B1052074202190N00046764EA0151201636
B1052084202192N00046770EA0151501639
B1052094202195N00046776EA0151801642
B1052104202197N00046781EA0152101644
B1052114202199N00046785EA0151801644
B1052124202203N00046789EA0151901644
B1052134202207N00046792EA0151901644
B1052144202211N00046795EA0152101646
B1052154202215N00046796EA0152201648
B1052164202219N00046796EA0152501649
B1052174202223N00046796EA0152401650
B1052184202228N00046796EA0152601651
B1052194202232N00046796EA0152701652
B1052204202235N00046794EA0153001654
B1052214202238N00046792EA0153101656
B1052224202241N00046788EA0153401659
B1052234202243N00046784EA0153701662
B1052244202245N00046779EA0153901664
B1052254202246N00046774EA0154101666
B1052264202247N00046769EA0154201669
B1052274202247N00046764EA0154401671
B1052284202246N00046760EA0154601672
B1052294202245N00046755EA0154501672
B1052304202242N00046751EA0154601673
B1052314202238N00046747EA0154701673
B1052324202233N00046745EA0154801674
B1052334202229N00046745EA0154701675
B1052344202225N00046747EA0154801675
B1052354202221N00046749EA0154601675
B1052364202218N00046751EA0154701674
B1052374202214N00046754EA0154401672
B1052384202211N00046759EA0154201670
B1052394202208N00046764EA0154101668
B1052404202205N00046771EA0153901667
B1052414202202N00046777EA0154101668
B1052424202200N00046784EA0154101669
B1052434202197N00046789EA0154301670
B1052444202195N00046793EA0154401671
B1052454202193N00046798EA0154501671
B1052464202191N00046803EA0154201670
B1052474202188N00046809EA0154101669
B1052484202186N00046815EA0154301669
B1052494202183N00046821EA0154301669
B1052504202181N00046827EA0154401670
B1052514202179N00046834EA0154301671
B1052524202178N00046841EA0154301671
B1052534202176N00046848EA0154401672
B1052544202174N00046855EA0154501672
B1052554202172N00046862EA0154501672
B1052564202169N00046870EA0154501672
B1052574202167N00046877EA0154401672
B1052584202164N00046885EA0154501672
B1052594202162N00046893EA0154601673
B1053004202160N00046901EA0154801674
B1053014202157N00046908EA0154901675
B1053024202156N00046916EA0154801675
B1053034202155N00046923EA0154701675
B1053044202156N00046931EA0154501674
B1053054202159N00046939EA0154601673
B1053064202162N00046945EA0154601673
B1053074202165N00046950EA0154701674
B1053084202170N00046952EA0154601674
B1053094202174N00046954EA0154701674
B1053104202178N00046954EA0154801675
B1053114202181N00046953EA0154801675
B1053124202185N00046952EA0154601675
B1053134202188N00046951EA0154701675
B1053144202192N00046950EA0154701674
B1053154202197N00046949EA0154701674
B1053164202201N00046947EA0154701675
B1053174202205N00046945EA0154601674
B1053184202208N00046941EA0154601674
B1053194202212N00046937EA0154601674
B1053204202214N00046933EA0154801675
B1053214202217N00046929EA0154901677
B1053224202220N00046926EA0155301680
B1053234202222N00046923EA0155401682
B1053244202224N00046920EA0155401683
B1053254202226N00046917EA0155201682
B1053264202227N00046914EA0155001681
B1053274202227N00046909EA0155001680
B1053284202227N00046905EA0154901679
B1053294202227N00046899EA0155301681
B1053304202226N00046893EA0155601684
B1053314202225N00046888EA0156201688
B1053324202224N00046884EA0156301691
B1053334202223N00046880EA0156401692
B1053344202221N00046877EA0156201692
B1053354202220N00046874EA0156201690
B1053364202218N00046870EA0155901687
B1053374202217N00046866EA0155401684
B1053384202216N00046860EA0155201682
B1053394202215N00046854EA0155101681
B1053404202213N00046850EA0155101680
B1053414202211N00046847EA0155101679
B1053424202209N00046844EA0155001679
B1053434202206N00046842EA0155001678
B1053444202204N00046839EA0154701676
B1053454202201N00046837EA0154601675
B1053464202197N00046835EA0154401673
B1053474202193N00046835EA0154401672
B1053484202187N00046836EA0154201671
B1053494202182N00046839EA0154201670
B1053504202177N00046842EA0154101669
B1053514202172N00046846EA0154001668
B1053524202168N00046851EA0154001667
B1053534202163N00046855EA0153901666
B1053544202158N00046859EA0153601664
B1053554202152N00046864EA0153601663
B1053564202147N00046868EA0153301661
B1053574202142N00046873EA0153301660
B1053584202137N00046878EA0153201659
B1053594202132N00046883EA0153101657
B1054004202128N00046888EA0152901656
B1054014202123N00046893EA0152701654
B1054024202119N00046898EA0152601653
B1054034202114N00046903EA0152401651
B1054044202109N00046908EA0152201649
B1054054202104N00046913EA0152001647
B1054064202099N00046918EA0151901646
B1054074202094N00046923EA0151801644
B1054084202089N00046927EA0151801643
B1054094202084N00046931EA0151601642
B1054104202078N00046934EA0151401640
B1054114202073N00046937EA0151201639
B1054124202068N00046939EA0150901637
B1054134202063N00046940EA0150801634
B1054144202058N00046939EA0150701633
B1054154202053N00046939EA0150601631
B1054164202049N00046937EA0150301629
B1054174202045N00046935EA0150001627
B1054184202041N00046932EA0150201625
B1054194202037N00046929EA0149701623
B1054204202033N00046925EA0149701622
B1054214202029N00046922EA0149601620
B1054224202025N00046919EA0149601619
B1054234202021N00046916EA0149301618
B1054244202017N00046912EA0149201617
B1054254202013N00046909EA0149201616
B1054264202010N00046905EA0149201616
B1054274202007N00046901EA0149101615
B1054284202003N00046898EA0149001614
B1054294201999N00046894EA0149001614
B1054304201995N00046891EA0149001614
B1054314201990N00046887EA0148901614
B1054324201986N00046883EA0149001614
B1054334201982N00046879EA0149201615
B1054344201978N00046875EA0149101615
B1054354201974N00046872EA0149301616
B1054364201970N00046868EA0149301616
B1054374201966N00046865EA0149401616
B1054384201962N00046862EA0149401617
B1054394201958N00046858EA0149201617
B1054404201954N00046855EA0149501617
B1054414201950N00046852EA0149601618
B1054424201946N00046849EA0149501619
B1054434201941N00046846EA0149601619
B1054444201937N00046844EA0149501619
B1054454201933N00046841EA0149501619
B1054464201929N00046838EA0149601619
B1054474201925N00046835EA0149701619
B1054484201921N00046832EA0149601620
B1054494201917N00046829EA0149601620
B1054504201913N00046825EA0149701620
B1054514201910N00046822EA0149601620
B1054524201907N00046819EA0149501620
B1054534201904N00046815EA0149601619
B1054544201901N00046811EA0149401618
B1054554201898N00046807EA0149401618
B1054564201895N00046803EA0149501619
B1054574201892N00046800EA0149701620
B1054584201888N00046796EA0149801621
B1054594201885N00046793EA0149801622
B1055004201883N00046790EA0149901623
B1055014201880N00046787EA0150001623
B1055024201878N00046784EA0150101624
B1055034201875N00046781EA0150001624
B1055044201872N00046780EA0149901624
B1055054201869N00046778EA0149901623
B1055064201866N00046776EA0149901623
B1055074201863N00046773EA0149801622
B1055084201860N00046772EA0149701622
B1055094201856N00046770EA0149801622
B1055104201853N00046769EA0149701621
B1055114201850N00046768EA0149601620
B1055124201847N00046766EA0149601619
B1055134201844N00046764EA0149401618
B1055144201841N00046762EA0149301616
B1055154201838N00046760EA0149101615
B1055164201834N00046758EA0149001612
B1055174201830N00046756EA0148801611
B1055184201827N00046754EA0148701610
B1055194201824N00046751EA0148701609
B1055204201821N00046749EA0148501608
B1055214201818N00046747EA0148301606
B1055224201815N00046744EA0148101604
B1055234201812N00046741EA0148001603
B1055244201809N00046738EA0147901601
B1055254201806N00046735EA0147801600
B1055264201803N00046732EA0147601598
B1055274201800N00046729EA0147401597
B1055284201798N00046726EA0147101595
B1055294201795N00046722EA0147001593
B1055304201791N00046718EA0147001591
B1055314201788N00046715EA0146801590
B1055324201785N00046711EA0146801590
B1055334201782N00046708EA0146701589
B1055344201779N00046705EA0146501588
B1055354201777N00046702EA0146401587
B1055364201774N00046700EA0146301585
B1055374201771N00046696EA0146301584
B1055384201768N00046693EA0146101582
B1055394201765N00046690EA0145801581
B1055404201762N00046686EA0145701579
B1055414201759N00046683EA0145401577
B1055424201756N00046680EA0145401576
B1055434201753N00046676EA0145201574
B1055444201750N00046673EA0145001572
B1055454201747N00046669EA0144801570
B1055464201744N00046665EA0144701568
B1055474201741N00046662EA0144501566
B1055484201738N00046658EA0144401564
B1055494201735N00046655EA0144301563
B1055504201733N00046652EA0144101562
B1055514201730N00046648EA0144101561
B1055524201727N00046645EA0144001559
B1055534201724N00046641EA0143801558
B1055544201721N00046637EA0143701558
B1055554201720N00046633EA0143701557
B1055564201718N00046630EA0143601557
B1055574201717N00046626EA0143501555
B1055584201714N00046623EA0143301553
B1055594201711N00046620EA0143101551
B1056004201708N00046617EA0143001550
B1056014201705N00046613EA0142801548
B1056024201701N00046611EA0142701547
B1056034201698N00046608EA0142601546
B1056044201694N00046605EA0142501544
B1056054201691N00046603EA0142301543
B1056064201688N00046600EA0142201542
B1056074201685N00046597EA0142101541
B1056084201682N00046594EA0142001539
B1056094201679N00046591EA0141801537
B1056104201676N00046587EA0141701535
B1056114201672N00046584EA0141601535
B1056124201669N00046581EA0141501534
B1056134201665N00046578EA0141501534
B1056144201662N00046575EA0141501534
B1056154201659N00046572EA0141601533
B1056164201656N00046569EA0141701533
B1056174201653N00046566EA0141501533
B1056184201649N00046562EA0141501533
B1056194201646N00046559EA0141401532
B1056204201642N00046557EA0141101531
B1056214201638N00046555EA0141201530
B1056224201634N00046553EA0141201530
B1056234201631N00046551EA0141001529
B1056244201628N00046550EA0141101528
B1056254201624N00046548EA0141001527
B1056264201621N00046546EA0141101528
B1056274201618N00046545EA0141101529
B1056284201614N00046543EA0141101529
B1056294201612N00046542EA0141001528
B1056304201609N00046540EA0141001527
B1056314201606N00046538EA0141001527
B1056324201602N00046535EA0141001528
B1056334201599N00046532EA0141101528
B1056344201597N00046528EA0141301530
B1056354201593N00046525EA0141301531
B1056364201590N00046523EA0141601533
B1056374201587N00046522EA0141701534
B1056384201585N00046520EA0141801536
B1056394201583N00046517EA0142001537
B1056404201582N00046514EA0142101539
B1056414201583N00046510EA0142201540
B1056424201583N00046507EA0142401541
B1056434201582N00046505EA0142301541
B1056444201581N00046503EA0142301541
B1056454201578N00046501EA0142401541
B1056464201575N00046499EA0142301542
B1056474201572N00046497EA0142401543
B1056484201568N00046496EA0142501544
B1056494201565N00046496EA0142501545
B1056504201562N00046495EA0142701545
B1056514201559N00046494EA0142601545
B1056524201556N00046492EA0142801545
B1056534201553N00046491EA0142701545
B1056544201550N00046491EA0142501544
B1056554201547N00046490EA0142301542
B1056564201544N00046489EA0141801540
B1056574201542N00046488EA0141901537
B1056584201539N00046486EA0141501535
B1056594201536N00046484EA0141301533
B1057004201532N00046482EA0141201531
B1057014201529N00046480EA0141001529
B1057024201525N00046478EA0140901527
B1057034201522N00046475EA0140801526
B1057044201519N00046473EA0140701524
B1057054201515N00046470EA0140501524
B1057064201512N00046468EA0140501523
B1057074201509N00046466EA0140501523
B1057084201506N00046464EA0140501522
B1057094201503N00046461EA0140301521
B1057104201500N00046459EA0140101519
B1057114201497N00046456EA0140101518
B1057124201493N00046453EA0140001517
B1057134201490N00046450EA0139901517
B1057144201487N00046448EA0140001517
B1057154201483N00046445EA0140001517
B1057164201480N00046443EA0140001516
B1057174201477N00046442EA0139901516
B1057184201474N00046440EA0139801515
B1057194201471N00046438EA0139501513
B1057204201468N00046436EA0139501511
B1057214201464N00046434EA0139301509
B1057224201461N00046432EA0139001508
B1057234201457N00046430EA0138801506
B1057244201454N00046429EA0138701504
B1057254201450N00046427EA0138601502
B1057264201447N00046425EA0138301500
B1057274201444N00046423EA0138001498
B1057284201440N00046421EA0137801495
B1057294201436N00046420EA0137901493
B1057304201432N00046418EA0137601491
B1057314201428N00046416EA0137401490
B1057324201424N00046413EA0137301488
B1057334201420N00046411EA0137001487
B1057344201416N00046409EA0136901485
B1057354201413N00046407EA0136801483
B1057364201409N00046406EA0136501481
B1057374201405N00046404EA0136201479
B1057384201401N00046402EA0136101477
B1057394201397N00046400EA0135901475
B1057404201393N00046398EA0135801472
B1057414201390N00046395EA0135601470
B1057424201386N00046393EA0135501468
B1057434201383N00046390EA0135201467
B1057444201379N00046388EA0135001465
B1057454201375N00046385EA0134801463
B1057464201372N00046383EA0134801462
B1057474201368N00046380EA0134501460
B1057484201364N00046379EA0134301458
B1057494201360N00046377EA0134301456
B1057504201355N00046377EA0134001454
B1057514201350N00046377EA0133801453
B1057524201344N00046378EA0133801452
B1057534201340N00046379EA0133901452
B1057544201335N00046380EA0133701451
B1057554201331N00046381EA0133601450
B1057564201327N00046381EA0133501447
B1057574201322N00046382EA0133001445
B1057584201317N00046383EA0132801442
B1057594201312N00046384EA0132701440
B1058004201307N00046385EA0132601439
B1058014201303N00046387EA0132601439
B1058024201299N00046388EA0132701438
B1058034201296N00046387EA0132401437
B1058044201293N00046385EA0132201435
B1058054201290N00046382EA0131901432
B1058064201287N00046378EA0131701430
B1058074201284N00046374EA0131701428
B1058084201281N00046369EA0131501427
B1058094201279N00046365EA0131501427
B1058104201276N00046362EA0131401426
B1058114201274N00046359EA0131301425
B1058124201271N00046356EA0131201424
B1058134201269N00046352EA0131101422
B1058144201266N00046349EA0130901421
B1058154201263N00046346EA0131001421
B1058164201261N00046342EA0130801420
B1058174201258N00046339EA0130801419
B1058184201255N00046337EA0130801419
B1058194201252N00046334EA0130601418
B1058204201249N00046332EA0130501417
B1058214201246N00046329EA0130401416
B1058224201243N00046326EA0130301415
B1058234201240N00046324EA0130201414
B1058244201237N00046321EA0130101413
B1058254201234N00046318EA0130001412
B1058264201231N00046316EA0130101411
B1058274201228N00046313EA0129901410
B1058284201225N00046311EA0129901410
B1058294201222N00046308EA0129801409
B1058304201219N00046305EA0129701408
B1058314201216N00046303EA0129601407
B1058324201213N00046300EA0129601406
B1058334201210N00046297EA0129601406
B1058344201207N00046295EA0129401405
B1058354201204N00046293EA0129401404
B1058364201201N00046291EA0129201403
B1058374201198N00046288EA0129001401
B1058384201195N00046286EA0129001400
B1058394201191N00046283EA0128801398
B1058404201188N00046280EA0128701398
B1058414201185N00046277EA0128601397
B1058424201182N00046275EA0128601397
B1058434201179N00046272EA0128501396
B1058444201176N00046270EA0128401395
B1058454201173N00046267EA0128401394
B1058464201170N00046265EA0128401394
B1058474201167N00046263EA0128201393
B1058484201164N00046261EA0128201392
B1058494201161N00046260EA0128101391
B1058504201158N00046259EA0127801390
B1058514201155N00046257EA0127701387
B1058524201152N00046255EA0127301384
B1058534201149N00046253EA0126801380
B1058544201145N00046250EA0126901378
B1058554201141N00046248EA0126701378
B1058564201137N00046246EA0126801378
B1058574201134N00046245EA0126901378
B1058584201131N00046243EA0126701376
B1058594201128N00046242EA0126401374
B1059004201125N00046241EA0126201372
B1059014201121N00046239EA0125801369
B1059024201117N00046237EA0125801366
B1059034201114N00046235EA0125501364
B1059044201110N00046232EA0125401362
B1059054201107N00046230EA0125001360
B1059064201104N00046227EA0124601356
B1059074201101N00046225EA0124301352
B1059084201097N00046222EA0124001348
B1059094201093N00046219EA0123601345
B1059104201090N00046216EA0123701343
B1059114201086N00046213EA0123401342
B1059124201083N00046210EA0123201341
B1059134201079N00046208EA0123201339
B1059144201076N00046205EA0123201338
B1059154201072N00046201EA0122901338
B1059164201069N00046197EA0123101338
B1059174201065N00046193EA0123001337
B1059184201062N00046189EA0123001337
B1059194201058N00046185EA0123001337
B1059204201054N00046182EA0123101337
B1059214201051N00046179EA0123101338
B1059224201048N00046176EA0123001337
B1059234201046N00046173EA0122801336
B1059244201043N00046169EA0122701335
B1059254201040N00046166EA0122701334
B1059264201038N00046162EA0122601333
B1059274201035N00046159EA0122501332
B1059284201033N00046155EA0122501331
B1059294201031N00046152EA0122301330
B1059304201028N00046149EA0122101328
B1059314201026N00046146EA0121901327
B1059324201023N00046142EA0121601324
B1059334201019N00046139EA0121601323
B1059344201016N00046135EA0121601322
B1059354201014N00046132EA0121601321
B1059364201011N00046130EA0121401320
B1059374201008N00046127EA0121101319
B1059384201006N00046124EA0121001316
B1059394201003N00046120EA0120601314
B1059404201000N00046116EA0120601312
B1059414200997N00046112EA0120401310
B1059424200994N00046108EA0120401309
B1059434200992N00046105EA0120201308
B1059444200989N00046102EA0120101307
B1059454200987N00046099EA0119901305
B1059464200985N00046095EA0119801303
B1059474200982N00046091EA0119401301
B1059484200980N00046087EA0119301299
B1059494200977N00046083EA0119101298
B1059504200975N00046079EA0119201296
B1059514200973N00046075EA0119001295
B1059524200971N00046072EA0118701293
B1059534200968N00046069EA0118401289
B1059544200966N00046064EA0117801285
B1059554200962N00046059EA0117601282
B1059564200959N00046053EA0117501280
B1059574200955N00046048EA0117401279
B1059584200952N00046044EA0117501279
B1059594200949N00046040EA0117601280
B1100004200946N00046037EA0117601280
B1100014200943N00046034EA0117401279
B1100024200939N00046032EA0117301278
B1100034200935N00046029EA0117301277
B1100044200931N00046027EA0117201277
B1100054200927N00046024EA0117201277
B1100064200923N00046021EA0117101277
B1100074200919N00046019EA0117201277
B1100084200915N00046016EA0117201276
B1100094200911N00046013EA0117201276
B1100104200907N00046011EA0117201276
B1100114200903N00046008EA0117301277
B1100124200899N00046005EA0117301277
B1100134200896N00046002EA0117401278
B1100144200892N00046000EA0117501279
B1100154200889N00045998EA0117501279
B1100164200885N00045995EA0117601280
B1100174200882N00045993EA0117701280
B1100184200878N00045990EA0117601280
B1100194200875N00045988EA0117401279
B1100204200872N00045985EA0117301278
B1100214200869N00045981EA0117201277
B1100224200866N00045977EA0117101276
B1100234200863N00045973EA0117001274
B1100244200860N00045969EA0117101274
B1100254200858N00045964EA0116901273
B1100264200855N00045960EA0116801272
B1100274200851N00045955EA0116901271
B1100284200847N00045951EA0116901271
B1100294200844N00045948EA0116901272
B1100304200840N00045944EA0117001272
B1100314200836N00045941EA0116901272
B1100324200833N00045938EA0116601271
B1100334200829N00045934EA0116401268
B1100344200825N00045930EA0116201265
B1100354200820N00045925EA0116101265
B1100364200816N00045921EA0116201266
B1100374200812N00045919EA0116501268
B1100384200809N00045916EA0116501269
B1100394200807N00045913EA0116501268
B1100404200804N00045910EA0116301267
B1100414200800N00045906EA0116201266
B1100424200797N00045902EA0116301265
B1100434200794N00045897EA0116201265
B1100444200790N00045892EA0116101265
B1100454200787N00045887EA0116101265
B1100464200783N00045883EA0116001264
B1100474200779N00045878EA0116201264
B1100484200776N00045874EA0116001264
B1100494200772N00045870EA0116001263
B1100504200770N00045865EA0115801262
B1100514200766N00045860EA0115801261
B1100524200763N00045856EA0115701260
B1100534200760N00045852EA0115601259
B1100544200757N00045849EA0115401257
B1100554200754N00045846EA0115101256
B1100564200752N00045842EA0115101254
B1100574200749N00045839EA0114901251
B1100584200747N00045835EA0114601248
B1100594200745N00045829EA0114101245
B1101004200747N00045822EA0113701241
B1101014200751N00045816EA0113601238
B1101024200756N00045811EA0113601237
B1101034200762N00045809EA0113601238
B1101044200767N00045807EA0113501237
B1101054200771N00045806EA0113301236
B1101064200777N00045805EA0113001234
B1101074200782N00045804EA0113001231
B1101084200789N00045803EA0112601229
B1101094200796N00045802EA0112301226
B1101104200803N00045801EA0112301225
B1101114200810N00045800EA0112301225
B1101124200816N00045800EA0112301225
B1101134200822N00045800EA0112201224
B1101144200828N00045800EA0112101223
B1101154200833N00045800EA0111901222
B1101164200839N00045799EA0111801220
B1101174200845N00045799EA0111701219
B1101184200851N00045798EA0111801218
B1101194200857N00045797EA0111501217
B1101204200863N00045796EA0111201215
B1101214200870N00045796EA0111101213
B1101224200876N00045795EA0111001212
B1101234200882N00045794EA0111101211
B1101244200889N00045793EA0110901210
B1101254200895N00045791EA0110901209
B1101264200901N00045790EA0110801208
B1101274200906N00045789EA0110601207
B1101284200912N00045787EA0110501206
B1101294200918N00045786EA0110401204
B1101304200925N00045784EA0110001202
B1101314200932N00045782EA0110001201
B1101324200938N00045780EA0110001200
B1101334200944N00045779EA0110001200
B1101344200950N00045778EA0110001200
B1101354200955N00045776EA0109801199
B1101364200961N00045775EA0109501197
B1101374200968N00045773EA0109301194
B1101384200975N00045771EA0109301193
B1101394200981N00045770EA0109401193
B1101404200987N00045769EA0109401194
B1101414200992N00045768EA0109201193
B1101424200998N00045768EA0109101192
B1101434201004N00045768EA0108901189
B1101444201011N00045767EA0108301186
B1101454201018N00045766EA0108501184
B1101464201025N00045766EA0108501184
B1101474201030N00045765EA0108601185
B1101484201035N00045764EA0108601185
B1101494201040N00045764EA0108301183
B1101504201045N00045764EA0108101180
B1101514201052N00045763EA0107701177
B1101524201058N00045761EA0107501175
B1101534201065N00045760EA0107801175
B1101544201070N00045759EA0107801176
B1101554201075N00045758EA0107701176
B1101564201080N00045757EA0107701175
B1101574201085N00045757EA0107301173
B1101584201091N00045756EA0107201170
B1101594201097N00045754EA0106901168
B1102004201103N00045753EA0106801167
B1102014201109N00045752EA0106801167
B1102024201114N00045751EA0106701167
B1102034201119N00045750EA0106601166
B1102044201124N00045749EA0106401163
B1102054201129N00045747EA0106001160
B1102064201135N00045745EA0105701157
B1102074201141N00045742EA0105501155
B1102084201147N00045740EA0105701155
B1102094201153N00045738EA0105601155
B1102104201158N00045736EA0105601154
B1102114201162N00045735EA0105301153
B1102124201167N00045733EA0105301151
B1102134201173N00045731EA0104901149
B1102144201179N00045729EA0104701146
B1102154201186N00045727EA0104801145
B1102164201191N00045725EA0104701145
B1102174201196N00045723EA0104701145
B1102184201201N00045722EA0104701144
B1102194201206N00045720EA0104401142
B1102204201211N00045718EA0104001138
B1102214201218N00045715EA0103601135
B1102224201224N00045712EA0103601133
B1102234201231N00045709EA0103501132
B1102244201237N00045707EA0103501132
B1102254201242N00045705EA0103401131
B1102264201246N00045703EA0103201129
B1102274201251N00045702EA0102801126
B1102284201256N00045701EA0102501123
B1102294201263N00045699EA0102101118
B1102304201269N00045697EA0102001116
B1102314201276N00045696EA0101901115
B1102324201281N00045694EA0101901114
B1102334201286N00045693EA0101801113
B1102344201291N00045692EA0101601111
B1102354201296N00045691EA0101201108
B1102364201302N00045690EA0100701104
B1102374201309N00045689EA0100701102
B1102384201315N00045688EA0100601101
B1102394201321N00045687EA0100701101
B1102404201326N00045686EA0100601100
B1102414201330N00045685EA0100401099
B1102424201335N00045684EA0100001095
B1102434201341N00045683EA0099501091
B1102444201347N00045681EA0099501089
B1102454201353N00045679EA0099301088
B1102464201359N00045677EA0099401088
B1102474201364N00045676EA0099301087
B1102484201369N00045676EA0099201085
B1102494201374N00045675EA0098701082
B1102504201379N00045674EA0098501078
B1102514201385N00045672EA0098001075
B1102524201392N00045670EA0098001074
B1102534201397N00045669EA0098101073
B1102544201401N00045668EA0097801072
B1102554201406N00045667EA0097501070
B1102564201411N00045666EA0097301067
B1102574201416N00045664EA0097001063
B1102584201422N00045663EA0096701061
B1102594201427N00045661EA0096801060
B1103004201432N00045659EA0096601059
B1103014201436N00045657EA0096601058
B1103024201440N00045656EA0096201055
B1103034201444N00045654EA0096001052
B1103044201449N00045651EA0095501048
B1103054201454N00045649EA0095501046
B1103064201459N00045646EA0095401045
B1103074201463N00045644EA0095201044
B1103084201466N00045641EA0095101043
B1103094201470N00045638EA0094901040
B1103104201475N00045635EA0094501037
B1103114201480N00045631EA0094101034
B1103124201484N00045628EA0094101033
B1103134201489N00045624EA0094201032
B1103144201493N00045620EA0094001031
B1103154201497N00045616EA0093901030
B1103164201502N00045613EA0093601028
B1103174201506N00045609EA0093501025
B1103184201511N00045605EA0093401023
B1103194201515N00045602EA0093101021
B1103204201519N00045598EA0093201021
B1103214201522N00045595EA0092801019
B1103224201525N00045591EA0092501017
B1103234201529N00045587EA0092401014
B1103244201533N00045582EA0092301012
B1103254201537N00045577EA0092001010
B1103264201541N00045573EA0092201011
B1103274201544N00045568EA0092201011
B1103284201547N00045565EA0092101010
B1103294201549N00045561EA0091701008
B1103304201551N00045557EA0091401004
B1103314201553N00045551EA0091001000
B1103324201555N00045545EA0090800998
B1103334201557N00045539EA0090900998
B1103344201558N00045533EA0090900997
B1103354201559N00045528EA0090900997
B1103364201561N00045524EA0090900997
B1103374201563N00045519EA0090700996
B1103384201564N00045513EA0090500994
B1103394201566N00045507EA0090500994
B1103404201567N00045500EA0090500993
B1103414201569N00045495EA0090600993
B1103424201570N00045490EA0090200991
B1103434201571N00045484EA0089900989
B1103444201572N00045478EA0089700986
B1103454201573N00045471EA0089600984
B1103464201574N00045464EA0089400983
B1103474201575N00045458EA0089400981
B1103484201576N00045452EA0089100980
B1103494201577N00045446EA0088900978
B1103504201578N00045439EA0088700975
B1103514201578N00045432EA0088400973
B1103524201578N00045425EA0088400972
B1103534201578N00045419EA0088300971
B1103544201579N00045413EA0088400971
B1103554201579N00045408EA0088400971
B1103564201578N00045402EA0088200970
B1103574201578N00045397EA0088000967
B1103584201577N00045390EA0087600965
B1103594201576N00045384EA0087700964
B1104004201576N00045378EA0087700964
B1104014201575N00045372EA0087600964
B1104024201575N00045367EA0087700964
B1104034201576N00045362EA0087600963
B1104044201576N00045356EA0087600963
B1104054201576N00045351EA0087700964
B1104064201576N00045346EA0087700964
B1104074201576N00045342EA0087700964
B1104084201575N00045337EA0087500963
B1104094201575N00045331EA0087400961
B1104104201576N00045325EA0087400961
B1104114201576N00045319EA0087500962
B1104124201577N00045313EA0087700964
B1104134201577N00045308EA0087900965
B1104144201577N00045303EA0087800966
B1104154201577N00045299EA0087900966
B1104164201575N00045296EA0087700965
B1104174201572N00045294EA0087600964
B1104184201567N00045294EA0087700964
B1104194201563N00045296EA0087700964
B1104204201559N00045299EA0087800965
B1104214201555N00045303EA0088000966
B1104224201551N00045306EA0087900967
B1104234201547N00045306EA0087900967
B1104244201543N00045305EA0088000966
B1104254201539N00045302EA0088000967
B1104274201536N00045293EA0088100968
B1104284201536N00045289EA0088200968
B1104294201537N00045285EA0088000966
B1104304201539N00045281EA0087700964
B1104314201541N00045276EA0087500961
B1104324201544N00045270EA0087300960
B1104334201546N00045264EA0087300959
B1104344201549N00045259EA0087200958
B1104354201551N00045255EA0087100958
B1104364201552N00045250EA0087300958
B1104374201554N00045246EA0087300959
B1104394201556N00045237EA0087100958
B1104404201557N00045232EA0086900957
B1104414201557N00045227EA0087000956
B1104424201557N00045221EA0086800955
B1104434201557N00045217EA0086900955
B1104444201557N00045212EA0086900954
B1104454201558N00045208EA0086700953
B1104464201558N00045204EA0086300951
B1104474201557N00045198EA0086300948
B1104484201557N00045192EA0086400949
B1104494201557N00045188EA0086600951
B1104504201556N00045186EA0086800953
B1104514201556N00045184EA0086700953
B1104524201556N00045182EA0086400950
B1104534201555N00045178EA0085900947
B1104544201555N00045173EA0085600943
B1104554201554N00045167EA0085500941
B1104564201554N00045161EA0085400940
B1104574201553N00045156EA0085400939
B1104584201553N00045152EA0085100937
B1104594201553N00045147EA0084700934
B1105004201552N00045141EA0084400929
B1105014201552N00045135EA0084300927
B1105024201551N00045128EA0084200926
B1105034201551N00045122EA0084200926
B1105044201551N00045116EA0084300926
B1105054201551N00045112EA0084200926
B1105064201551N00045108EA0084100925
B1105074201552N00045103EA0083800923
B1105084201552N00045097EA0083700921
B1105094201552N00045092EA0083600919
B1105104201553N00045087EA0083500919
B1105114201553N00045082EA0083400917
B1105124201553N00045078EA0083000915
B1105134201553N00045073EA0082900913
B1105144201553N00045067EA0082700911
B1105154201552N00045062EA0082500909
B1105164201552N00045056EA0082500908
B1105174201552N00045051EA0082300906
B1105184201551N00045046EA0082300904
B1105194201550N00045041EA0081900903
B1105204201549N00045036EA0081700900
B1105214201547N00045031EA0081600898
B1105224201546N00045026EA0081400897
B1105234201544N00045021EA0081200895
B1105244201542N00045016EA0081100893
B1105254201540N00045011EA0081000891
B1105264201538N00045006EA0081000891
B1105274201537N00045002EA0081000891
B1105284201535N00044997EA0080800891
B1105294201534N00044993EA0080900890
B1105304201532N00044989EA0080700889
B1105314201530N00044985EA0080700888
B1105324201529N00044980EA0080500887
B1105334201527N00044976EA0080400885
B1105344201526N00044972EA0080200883
B1105354201524N00044968EA0080000881
B1105364201521N00044963EA0079800880
B1105374201519N00044958EA0079800879
B1105384201517N00044954EA0079800879
B1105394201515N00044949EA0079800880
B1105404201513N00044945EA0080100881
B1105414201511N00044941EA0080200882
B1105424201510N00044937EA0080300883
B1105434201508N00044934EA0080400884
B1105444201507N00044930EA0080300884
B1105454201507N00044926EA0080100883
B1105464201506N00044922EA0079900881
B1105474201506N00044917EA0079800880
B1105484201505N00044912EA0079700878
B1105494201503N00044907EA0079500876
B1105504201502N00044902EA0079100873
B1105514201501N00044896EA0078900871
B1105524201499N00044890EA0078800869
B1105534201496N00044884EA0078800868
B1105544201494N00044879EA0078800868
B1105554201492N00044874EA0078900868
B1105564201490N00044869EA0078700868
B1105574201489N00044864EA0078600867
B1105584201488N00044859EA0078300865
B1105594201487N00044853EA0078200863
B1106004201486N00044846EA0078100861
B1106014201485N00044840EA0078100861
B1106024201483N00044833EA0078100861
B1106034201482N00044827EA0078400862
B1106044201481N00044822EA0078300864
B1106054201480N00044817EA0078400864
B1106064201479N00044813EA0078500864
B1106074201478N00044809EA0078500864
B1106084201477N00044805EA0078500864
B1106094201476N00044800EA0078400864
B1106104201475N00044796EA0078500865
B1106114201474N00044792EA0078500865
B1106124201473N00044787EA0078500865
B1106134201472N00044782EA0078400865
B1106144201471N00044778EA0078300864
B1106154201470N00044773EA0078100863
B1106164201468N00044767EA0078200863
B1106174201466N00044762EA0078200863
B1106184201464N00044757EA0078400864
B1106194201463N00044751EA0078300864
B1106204201463N00044746EA0078200863
B1106214201462N00044741EA0078300863
B1106224201462N00044735EA0078300862
B1106234201461N00044729EA0078000861
B1106244201459N00044723EA0078000860
B1106254201457N00044718EA0077900859
B1106264201456N00044714EA0077700857
B1106274201454N00044709EA0077500855
B1106284201452N00044704EA0077200852
B1106294201450N00044699EA0076800849
B1106304201446N00044694EA0076600847
B1106314201443N00044689EA0076700846
B1106324201439N00044686EA0076600846
B1106334201435N00044682EA0076700846
B1106344201432N00044678EA0076700847
B1106354201429N00044673EA0077000848
B1106364201428N00044669EA0076900848
B1106374201427N00044664EA0076700848
B1106384201426N00044659EA0076800847
B1106394201426N00044654EA0076700847
B1106404201426N00044648EA0076700846
B1106414201423N00044642EA0076700846
B1106424201421N00044638EA0076500846
B1106434201418N00044634EA0076600846
B1106444201415N00044631EA0076400845
B1106454201412N00044627EA0076100842
B1106464201408N00044622EA0075600838
B1106474201403N00044618EA0075600836
B1106484201398N00044615EA0075600836
B1106494201393N00044612EA0075700836
B1106504201389N00044610EA0075600835
B1106514201386N00044608EA0075500834
B1106524201382N00044606EA0075000831
B1106534201377N00044604EA0074800827
B1106544201371N00044602EA0074500824
B1106554201365N00044601EA0074300823
B1106564201360N00044600EA0074500822
B1106574201355N00044599EA0074300822
B1106584201350N00044599EA0074200821
B1106594201345N00044598EA0074000819
B1107004201340N00044598EA0073900818
B1107014201335N00044598EA0073900817
B1107024201330N00044597EA0073800815
B1107034201325N00044596EA0073500814
B1107044201321N00044595EA0073200811
B1107054201315N00044594EA0073200808
B1107064201309N00044592EA0072800806
B1107074201302N00044591EA0072900806
B1107084201297N00044590EA0073200808
B1107094201292N00044589EA0073500811
B1107104201289N00044586EA0073400811
B1107114201286N00044584EA0073300810
B1107124201282N00044581EA0073000808
B1107134201277N00044578EA0072900807
B1107144201272N00044575EA0073000806
B1107154201267N00044573EA0072900806
B1107164201262N00044572EA0072900806
B1107174201258N00044572EA0073000807
B1107184201253N00044571EA0073000807
B1107194201249N00044569EA0073000808
B1107204201245N00044567EA0072900807
B1107214201241N00044563EA0072900806
B1107224201238N00044559EA0072800805
B1107234201234N00044555EA0072600804
B1107244201229N00044554EA0072300801
B1107254201224N00044554EA0072200799
B1107264201219N00044556EA0072200798
B1107274201215N00044558EA0072200798
B1107284201211N00044559EA0071900797
B1107294201207N00044560EA0071900796
B1107304201203N00044562EA0071800794
B1107314201198N00044564EA0071600794
B1107324201194N00044566EA0071800794
B1107334201189N00044569EA0071700795
B1107344201185N00044571EA0071900795
B1107354201181N00044573EA0071900796
B1107364201177N00044576EA0071700796
B1107374201173N00044579EA0071700796
B1107384201170N00044582EA0071700795
B1107394201166N00044585EA0071600793
B1107404201163N00044589EA0071400791
B1107414201160N00044594EA0071100789
B1107424201157N00044599EA0071000788
B1107434201153N00044604EA0071000787
B1107444201148N00044608EA0071000787
B1107454201144N00044611EA0071100787
B1107464201140N00044614EA0071100787
B1107474201136N00044617EA0070800786
B1107484201132N00044621EA0070600784
B1107494201127N00044624EA0070500783
B1107504201123N00044627EA0070500782
B1107514201119N00044630EA0070400781
B1107524201115N00044633EA0070100780
B1107534201110N00044635EA0070100778
B1107544201105N00044638EA0070100777
B1107554201101N00044640EA0070000775
B1107564201096N00044641EA0069700775
B1107574201092N00044642EA0069900774
B1107584201087N00044641EA0069600773
B1107594201083N00044641EA0069500771
B1108004201078N00044642EA0069600771
B1108014201073N00044643EA0069600772
B1108024201069N00044645EA0069900774
B1108034201065N00044646EA0069900775
B1108044201061N00044647EA0069800775
B1108054201057N00044648EA0069800774
B1108064201053N00044649EA0069800773
B1108074201048N00044651EA0069700772
B1108084201043N00044653EA0069700773
B1108094201038N00044652EA0069500773
B1108104201034N00044649EA0069300770
B1108114201032N00044643EA0069100768
B1108124201032N00044636EA0069200767
B1108134201035N00044630EA0069000766
B1108144201039N00044627EA0069000765
B1108154201043N00044626EA0069000764
B1108164201047N00044626EA0069000765
B1108174201050N00044625EA0068900764
B1108184201053N00044624EA0068800763
B1108194201057N00044623EA0068700762
B1108204201060N00044621EA0068700761
B1108214201063N00044621EA0068600761
B1108224201066N00044621EA0068600760
B1108234201068N00044620EA0068400759
B1108244201069N00044616EA0067900755
B1108254201069N00044610EA0067600752
B1108264201066N00044604EA0067500750
B1108274201061N00044600EA0067400749
B1108284201056N00044599EA0067200746
B1108294201050N00044600EA0066700743
B1108304201044N00044602EA0066600741
B1108314201038N00044602EA0066500739
B1108324201032N00044600EA0066300737
B1108334201027N00044596EA0066200736
B1108344201024N00044591EA0066200735
B1108354201022N00044587EA0066100735
B1108364201021N00044585EA0066800734
B1108374201020N00044585EA0065600734
B1108384201019N00044585EA0066000734
B1108394201019N00044585EA0066000733
B1108404201018N00044585EA0066300733
B1108414201018N00044586EA0066200733
B1108424201018N00044585EA0066200733
B1108434201018N00044586EA0066300733
B1108444201018N00044586EA0066300733
B1108454201018N00044585EA0066100733
B1108464201018N00044585EA0066300733
B1108474201018N00044585EA0066200733
B1108484201018N00044585EA0066200733
B1108494201018N00044585EA0066200733
B1108504201018N00044585EA0066200733
B1108514201018N00044585EA0066300733
B1108524201018N00044585EA0066300733
B1108534201018N00044585EA0066300733
B1108544201018N00044585EA0066300733
GDisU9BDcDNiN7hN5xXNqHLfRBzYGv0+qShS0qegyFJk8mOPMCXB1KqEF0C7+QaQ+RUubDLGisfm
GPA273xEmJpMOLkAqZLTZKd4pETB7EEfNdmwAF1xY/SSoBIsMhjKpVFH+yAdGbWtE3W3hHB5x41B
GivDndjC0C7hQ9QEAoykFI=
