AXSFwn
HFDTEDATE:070826
HFPLTPILOTINCHARGE:Xavier Segura Jobal
HFCM2CREW2:NIL
HFGTYGLIDERTYPE:GIN GTO 3 
HFGIDGLIDERID:NIL
HFDTMGPSDATUM:WGS84
HFRFWFIRMWAREVERSION:EU_2.00V
HFRHWHARDWAREVERSION:4.5
HFFTYFRTYPE:alfapilot,Voolaris Tracker
HFGPSRECEIVER:UBLOX,M10,72,50000,GPS,GLO,GAL
HFPRSPRESSALTSENSOR:ST,LPS22HB,10000
HFALGALTGPS:GEO
HFALPALTPRESSURE:ISA
HFTZNTIMEZONE:0
B1031434202765N00044767EA0145201568
B1031444202765N00044767EA0145301568
B1031454202765N00044767EA0145501568
B1031464202764N00044766EA0145301568
B1031474202764N00044767EA0145201567
B1031484202765N00044767EA0145101568
B1031494202765N00044768EA0145301568
B1031504202766N00044767EA0145401568
B1031514202766N00044766EA0145101568
B1031524202767N00044765EA0145201568
B1031534202767N00044764EA0145301568
B1031544202766N00044763EA0145101567
B1031554202764N00044763EA0145001567
B1031564202762N00044762EA0144901565
B1031574202760N00044760EA0144801564
B1031584202757N00044759EA0144401563
B1031594202752N00044759EA0144401562
B1032004202748N00044760EA0144501561
B1032014202743N00044762EA0144401562
B1032024202739N00044764EA0144601563
B1032034202736N00044767EA0144701563
B1032044202732N00044770EA0144601562
B1032054202728N00044773EA0144501561
B1032064202723N00044776EA0144501561
B1032074202719N00044781EA0144501562
B1032084202715N00044787EA0144501563
B1032094202713N00044794EA0144801564
B1032104202710N00044800EA0144801564
B1032114202707N00044805EA0144201562
B1032124202702N00044808EA0144201561
B1032134202698N00044811EA0144301561
B1032144202694N00044815EA0144401561
B1032154202690N00044819EA0144201560
B1032164202686N00044824EA0143901558
B1032174202682N00044828EA0143701556
B1032184202677N00044832EA0143701554
B1032194202672N00044836EA0143601552
B1032204202667N00044842EA0143401551
B1032214202662N00044847EA0143401552
B1032224202658N00044853EA0143701552
B1032234202653N00044858EA0143701553
B1032244202649N00044864EA0143701553
B1032254202645N00044870EA0143701553
B1032264202640N00044876EA0143801555
B1032274202635N00044881EA0144001558
B1032284202630N00044885EA0144401561
B1032294202626N00044887EA0144801563
B1032304202621N00044887EA0144901566
B1032314202616N00044887EA0145201568
B1032324202612N00044887EA0145501570
B1032334202607N00044888EA0145701572
B1032344202602N00044891EA0145901575
B1032354202598N00044895EA0146001578
B1032364202596N00044901EA0146301580
B1032374202593N00044906EA0146501582
B1032384202592N00044913EA0146401583
B1032394202590N00044921EA0146601583
B1032404202590N00044930EA0146501584
B1032414202590N00044940EA0146701586
B1032424202589N00044950EA0147001588
B1032434202588N00044960EA0147401592
B1032444202586N00044968EA0147901596
B1032454202583N00044974EA0148301599
B1032464202580N00044979EA0148301602
B1032474202576N00044982EA0148501603
B1032484202571N00044982EA0148401604
B1032494202567N00044982EA0148601605
B1032504202564N00044979EA0148701608
B1032514202563N00044974EA0149001610
B1032524202565N00044969EA0149101611
B1032534202567N00044965EA0149301612
B1032544202571N00044961EA0149501613
B1032554202574N00044958EA0149501614
B1032564202579N00044954EA0149601615
B1032574202583N00044951EA0149701616
B1032584202586N00044946EA0149701617
B1032594202587N00044941EA0149801617
B1033004202585N00044937EA0149701618
B1033014202582N00044934EA0149901618
B1033024202578N00044934EA0149801619
B1033034202574N00044938EA0150001619
B1033044202570N00044944EA0149901620
B1033054202567N00044950EA0150001620
B1033064202565N00044957EA0150101621
B1033074202563N00044964EA0150201622
B1033084202562N00044971EA0150101622
B1033094202563N00044980EA0150201621
B1033104202565N00044989EA0150101622
B1033114202569N00044997EA0150201623
B1033124202574N00045004EA0150401624
B1033134202580N00045007EA0150401624
B1033144202586N00045008EA0150401624
B1033154202592N00045006EA0150301625
B1033164202597N00045002EA0150501627
B1033174202601N00044998EA0150901629
B1033184202604N00044993EA0151001630
B1033194202606N00044988EA0150901630
B1033204202609N00044983EA0150901632
B1033214202611N00044978EA0151201634
B1033224202613N00044973EA0151501635
B1033234202614N00044968EA0151601636
B1033244202612N00044964EA0151401636
B1033254202609N00044961EA0151301636
B1033264202605N00044960EA0151401637
B1033274202601N00044962EA0151401637
B1033284202597N00044966EA0151501637
B1033294202593N00044971EA0151601638
B1033304202589N00044974EA0151601638
B1033314202585N00044975EA0151601638
B1033324202580N00044976EA0151701639
B1033334202575N00044979EA0151601640
B1033344202571N00044985EA0151701641
B1033354202567N00044991EA0152001643
B1033364202563N00044996EA0152201643
B1033374202558N00045000EA0152101644
B1033384202552N00045003EA0152201644
B1033394202547N00045008EA0152301647
B1033404202542N00045015EA0153001650
B1033414202537N00045020EA0153401654
B1033424202533N00045023EA0153601658
B1033434202529N00045025EA0153601659
B1033444202525N00045026EA0153701660
B1033454202521N00045029EA0154001661
B1033464202518N00045034EA0153801661
B1033474202516N00045042EA0154001661
B1033484202515N00045050EA0153901662
B1033494202515N00045058EA0154001663
B1033504202516N00045066EA0154301665
B1033514202517N00045074EA0154501667
B1033524202519N00045081EA0154501668
B1033534202522N00045088EA0154401668
B1033544202526N00045094EA0154401667
B1033554202532N00045100EA0154301667
B1033564202538N00045104EA0154301667
B1033574202545N00045107EA0154501668
B1033584202552N00045110EA0154601669
B1033594202558N00045113EA0154701670
B1034004202564N00045116EA0154701670
B1034014202571N00045118EA0154601669
B1034024202578N00045118EA0154101667
B1034034202584N00045114EA0153901666
B1034044202589N00045108EA0154001665
B1034054202592N00045100EA0154001666
B1034064202592N00045093EA0154001668
B1034074202590N00045087EA0154601671
B1034084202590N00045082EA0154901673
B1034094202590N00045077EA0155101676
B1034104202591N00045072EA0155301678
B1034114202590N00045067EA0155301680
B1034124202588N00045062EA0155601682
B1034134202585N00045059EA0156001684
B1034144202583N00045056EA0156201686
B1034154202582N00045052EA0156201686
B1034164202581N00045047EA0156201687
B1034174202579N00045042EA0156201688
B1034184202576N00045037EA0156501690
B1034194202572N00045034EA0156901692
B1034204202569N00045030EA0157101695
B1034214202566N00045027EA0157301697
B1034224202565N00045023EA0157401699
B1034234202563N00045019EA0157501699
B1034244202562N00045014EA0157401699
B1034254202560N00045008EA0157201699
B1034264202558N00045002EA0157201699
B1034274202556N00044995EA0157501701
B1034284202555N00044988EA0157801703
B1034294202554N00044982EA0158001706
B1034304202553N00044977EA0158201708
B1034314202553N00044972EA0158401710
B1034324202552N00044968EA0158601711
B1034334202552N00044962EA0158701712
B1034344202551N00044956EA0158901714
B1034354202549N00044951EA0159001716
B1034364202546N00044946EA0159301719
B1034374202543N00044944EA0159601721
B1034384202539N00044942EA0159701722
B1034394202534N00044943EA0159701723
B1034404202530N00044944EA0159901724
B1034414202525N00044948EA0159901725
B1034424202521N00044954EA0160001727
B1034434202518N00044962EA0160201729
B1034444202516N00044970EA0160401733
B1034454202514N00044978EA0160901736
B1034464202511N00044983EA0160901737
B1034474202507N00044988EA0160901737
B1034484202503N00044993EA0160801736
B1034494202499N00044998EA0160701736
B1034504202495N00045005EA0160701736
B1034514202492N00045013EA0160901737
B1034524202489N00045021EA0161201739
B1034534202488N00045029EA0161601742
B1034544202487N00045036EA0161701744
B1034554202487N00045043EA0161701744
B1034564202487N00045051EA0161701745
B1034574202488N00045059EA0161801745
B1034584202489N00045068EA0161801745
B1034594202490N00045076EA0161901745
B1035004202490N00045086EA0161901746
B1035014202490N00045095EA0162101747
B1035024202487N00045104EA0162101748
B1035034202483N00045110EA0162301750
B1035044202479N00045114EA0162601751
B1035054202474N00045116EA0162701753
B1035064202470N00045118EA0162901755
B1035074202466N00045118EA0162701755
B1035084202462N00045117EA0162901756
B1035094202459N00045115EA0162901756
B1035104202456N00045111EA0162901757
B1035114202454N00045106EA0163201758
B1035124202452N00045102EA0163301760
B1035134202449N00045099EA0163401762
B1035144202446N00045097EA0163601763
B1035154202443N00045096EA0163801765
B1035164202438N00045095EA0163801766
B1035174202434N00045097EA0163901766
B1035184202429N00045102EA0163901767
B1035194202424N00045108EA0163901767
B1035204202421N00045117EA0163801767
B1035214202419N00045128EA0163901767
B1035224202419N00045138EA0163901767
B1035234202421N00045148EA0164201768
B1035244202424N00045156EA0164201769
B1035254202427N00045164EA0164201770
B1035264202430N00045172EA0164001769
B1035274202432N00045181EA0164101769
B1035284202435N00045189EA0164201769
B1035294202439N00045197EA0164101769
B1035304202444N00045202EA0164101769
B1035314202449N00045207EA0164001769
B1035324202455N00045211EA0164001768
B1035334202461N00045214EA0163901768
B1035344202467N00045217EA0163801767
B1035354202474N00045220EA0163801767
B1035364202480N00045222EA0163801766
B1035374202486N00045223EA0163801767
B1035384202492N00045225EA0163801767
B1035394202498N00045228EA0163801767
B1035404202503N00045231EA0163801767
B1035414202509N00045234EA0163801766
B1035424202515N00045236EA0163801766
B1035434202521N00045238EA0163701766
B1035444202527N00045238EA0163801766
B1035454202533N00045237EA0163901767
B1035464202538N00045234EA0163901768
B1035474202543N00045230EA0164001769
B1035484202546N00045227EA0164101769
B1035494202550N00045222EA0163901768
B1035504202553N00045218EA0164001768
B1035514202557N00045213EA0163801767
B1035524202560N00045208EA0163701767
B1035534202563N00045203EA0163801767
B1035544202565N00045198EA0163801767
B1035554202567N00045193EA0164001767
B1035564202569N00045188EA0163901768
B1035574202570N00045182EA0163901767
B1035584202571N00045177EA0163801767
B1035594202572N00045171EA0163801766
B1036004202573N00045165EA0163701766
B1036014202574N00045158EA0163701766
B1036024202574N00045152EA0163701766
B1036034202574N00045146EA0163801766
B1036044202575N00045140EA0164001768
B1036054202576N00045135EA0164001768
B1036064202577N00045130EA0164101770
B1036074202578N00045125EA0164201771
B1036084202579N00045119EA0164301772
B1036094202580N00045114EA0164401774
B1036104202581N00045110EA0164701776
B1036114202581N00045106EA0164901778
B1036124202583N00045102EA0165101779
B1036134202584N00045099EA0164901779
B1036144202587N00045093EA0164901780
B1036154202589N00045088EA0165101781
B1036164202590N00045082EA0165601785
B1036174202589N00045077EA0165901788
B1036184202588N00045073EA0166201791
B1036194202586N00045069EA0166601794
B1036204202584N00045065EA0166601797
B1036214202583N00045062EA0167001800
B1036224202581N00045060EA0167201802
B1036234202578N00045060EA0167101802
B1036244202573N00045061EA0167101802
B1036254202568N00045064EA0167401804
B1036264202563N00045069EA0167501806
B1036274202559N00045077EA0167601809
B1036284202556N00045086EA0167901811
B1036294202554N00045095EA0168101813
B1036304202553N00045104EA0168501814
B1036314202553N00045113EA0168301815
B1036324202554N00045122EA0168401815
B1036334202557N00045131EA0168401816
B1036344202562N00045139EA0168301816
B1036354202568N00045146EA0168601818
B1036364202574N00045153EA0168901820
B1036374202579N00045158EA0169101822
B1036384202585N00045161EA0169201823
B1036394202590N00045163EA0169201823
B1036404202596N00045164EA0169001823
B1036414202601N00045162EA0168901822
B1036424202606N00045159EA0169001823
B1036434202609N00045155EA0169201825
B1036444202611N00045151EA0169601828
B1036454202613N00045147EA0169901830
B1036464202615N00045143EA0169901831
B1036474202618N00045140EA0170001832
B1036484202621N00045136EA0170101833
B1036494202624N00045132EA0170201834
B1036504202626N00045127EA0170101834
B1036514202627N00045121EA0170101834
B1036524202627N00045115EA0170101834
B1036534202626N00045110EA0170001834
B1036544202625N00045105EA0169901832
B1036554202625N00045100EA0169601829
B1036564202623N00045095EA0169401826
B1036574202622N00045089EA0169001824
B1036584202620N00045084EA0169001823
B1036594202618N00045078EA0168901821
B1037004202616N00045073EA0168801820
B1037014202614N00045069EA0168801819
B1037024202612N00045064EA0168601818
B1037034202610N00045060EA0168301815
B1037044202609N00045055EA0168001812
B1037054202607N00045049EA0167901810
B1037064202605N00045044EA0167701809
B1037074202602N00045039EA0167401807
B1037084202598N00045035EA0167601806
B1037094202595N00045031EA0167501806
B1037104202593N00045026EA0167301804
B1037114202591N00045021EA0167201804
B1037124202589N00045016EA0167201804
B1037134202586N00045011EA0167301805
B1037144202583N00045008EA0167801807
B1037154202581N00045004EA0168001810
B1037164202580N00045000EA0168201812
B1037174202580N00044995EA0168101814
B1037184202579N00044989EA0168201815
B1037194202578N00044983EA0168601817
B1037204202576N00044977EA0168701819
B1037214202575N00044972EA0169001821
B1037224202573N00044966EA0169101823
B1037234202573N00044960EA0169201825
B1037244202573N00044955EA0169501826
B1037254202574N00044949EA0169501828
B1037264202573N00044944EA0169601828
B1037274202572N00044939EA0169301827
B1037284202569N00044934EA0169301825
B1037294202565N00044930EA0169201825
B1037304202561N00044927EA0169201825
B1037314202557N00044923EA0169101824
B1037324202553N00044920EA0169001823
B1037334202549N00044917EA0169001823
B1037344202544N00044914EA0168801821
B1037354202540N00044911EA0168801820
B1037364202535N00044909EA0168501818
B1037374202530N00044907EA0168201815
B1037384202525N00044904EA0168001813
B1037394202519N00044900EA0167701811
B1037404202514N00044896EA0167701809
B1037414202509N00044892EA0167401808
B1037424202503N00044889EA0167501806
B1037434202497N00044887EA0167401805
B1037444202492N00044885EA0167301803
B1037454202486N00044882EA0167001801
B1037464202481N00044879EA0166701799
B1037474202475N00044875EA0166601797
B1037484202469N00044871EA0166501796
B1037494202464N00044868EA0166501795
B1037504202459N00044864EA0166301794
B1037514202454N00044860EA0166201794
B1037524202449N00044856EA0166301793
B1037534202444N00044852EA0166201792
B1037544202439N00044849EA0166201792
B1037554202434N00044845EA0166101791
B1037564202429N00044841EA0166101791
B1037574202424N00044837EA0166101791
B1037584202420N00044833EA0166101790
B1037594202415N00044830EA0165901790
B1038004202410N00044827EA0165901790
B1038014202405N00044824EA0165801790
B1038024202400N00044820EA0166101790
B1038034202396N00044816EA0166101792
B1038044202391N00044814EA0166201794
B1038054202387N00044811EA0166601796
B1038064202385N00044808EA0166701797
B1038074202382N00044805EA0166701798
B1038084202379N00044802EA0166701799
B1038094202375N00044799EA0166901800
B1038104202371N00044797EA0167001802
B1038114202367N00044794EA0167101803
B1038124202364N00044790EA0167401806
B1038134202362N00044786EA0167701807
B1038144202359N00044781EA0167901809
B1038154202355N00044778EA0167901811
B1038164202350N00044776EA0168001811
B1038174202345N00044775EA0168201813
B1038184202341N00044772EA0168301815
B1038194202337N00044767EA0168401815
B1038204202335N00044762EA0168501816
B1038214202333N00044757EA0168501817
B1038224202330N00044753EA0168301815
B1038234202325N00044750EA0168201814
B1038244202320N00044749EA0168001812
B1038254202314N00044749EA0168101811
B1038264202307N00044749EA0167701810
B1038274202301N00044750EA0167701809
B1038284202295N00044750EA0167701808
B1038294202289N00044751EA0167701808
B1038304202283N00044751EA0167801808
B1038314202278N00044751EA0167701807
B1038324202272N00044751EA0167401806
B1038334202267N00044750EA0167201804
B1038344202261N00044749EA0166801801
B1038354202255N00044749EA0166701798
B1038364202248N00044748EA0166501796
B1038374202241N00044747EA0166301794
B1038384202235N00044747EA0166001791
B1038394202228N00044746EA0165701789
B1038404202221N00044745EA0165601787
B1038414202214N00044745EA0165701786
B1038424202208N00044744EA0165501785
B1038434202202N00044743EA0165601784
B1038444202196N00044742EA0165301782
B1038454202190N00044741EA0165101780
B1038464202184N00044740EA0165001779
B1038474202178N00044740EA0164901777
B1038484202172N00044739EA0164701776
B1038494202166N00044738EA0164701776
B1038504202159N00044738EA0164501775
B1038514202153N00044738EA0164501775
B1038524202147N00044738EA0164401774
B1038534202142N00044739EA0164501773
B1038544202136N00044739EA0164301773
B1038554202130N00044741EA0164201772
B1038564202124N00044744EA0164001770
B1038574202119N00044748EA0163901769
B1038584202113N00044752EA0163801768
B1038594202108N00044757EA0163801766
B1039004202102N00044762EA0163701765
B1039014202096N00044767EA0163501764
B1039024202091N00044773EA0163501763
B1039034202086N00044779EA0163301762
B1039044202081N00044786EA0163301761
B1039054202077N00044793EA0163201761
B1039064202072N00044800EA0163101760
B1039074202068N00044808EA0163101759
B1039084202064N00044816EA0162901758
B1039094202060N00044825EA0162801757
B1039104202057N00044833EA0162801756
B1039114202054N00044842EA0162601756
B1039124202051N00044851EA0162601755
B1039134202047N00044860EA0162601754
B1039144202044N00044868EA0162401753
B1039154202041N00044877EA0162401753
B1039164202038N00044886EA0162401752
B1039174202035N00044895EA0162301752
B1039184202031N00044904EA0162301751
B1039194202029N00044913EA0162301751
B1039204202026N00044923EA0162201751
B1039214202023N00044932EA0162301750
B1039224202021N00044941EA0162101750
B1039234202019N00044951EA0162201749
B1039244202017N00044961EA0162001749
B1039254202015N00044971EA0162001748
B1039264202013N00044981EA0162001748
B1039274202010N00044990EA0161901748
B1039284202008N00045000EA0162001748
B1039294202005N00045009EA0162001748
B1039304202003N00045019EA0162001748
B1039314202001N00045029EA0162001748
B1039324201999N00045038EA0162001748
B1039334201997N00045048EA0161901747
B1039344201995N00045058EA0161801746
B1039354201993N00045068EA0161701746
B1039364201991N00045079EA0161801745
B1039374201989N00045089EA0161801745
B1039384201987N00045099EA0161801745
B1039394201985N00045109EA0161801745
B1039404201984N00045119EA0161601744
B1039414201982N00045130EA0161501743
B1039424201979N00045140EA0161401743
B1039434201976N00045150EA0161501742
B1039444201974N00045160EA0161301742
B1039454201971N00045170EA0161401742
B1039464201969N00045180EA0161401742
B1039474201966N00045189EA0161101741
B1039484201964N00045199EA0161101740
B1039494201961N00045208EA0161101739
B1039504201958N00045218EA0161001738
B1039514201955N00045227EA0161001737
B1039524201953N00045237EA0160901736
B1039534201951N00045246EA0160901736
B1039544201949N00045255EA0160701735
B1039554201947N00045264EA0160601734
B1039564201945N00045273EA0160601732
B1039574201943N00045282EA0160201730
B1039584201940N00045291EA0160101729
B1039594201938N00045301EA0159901727
B1040004201935N00045310EA0159901727
B1040014201934N00045320EA0159801726
B1040024201932N00045329EA0159701725
B1040034201931N00045338EA0159701724
B1040044201929N00045347EA0159501722
B1040054201927N00045357EA0159401721
B1040064201926N00045367EA0159301719
B1040074201925N00045376EA0159101718
B1040084201924N00045386EA0159101717
B1040094201924N00045396EA0159001716
B1040104201923N00045405EA0158801715
B1040114201924N00045414EA0158801714
B1040124201925N00045423EA0158601713
B1040134201927N00045432EA0158601712
B1040144201928N00045441EA0158401711
B1040154201930N00045450EA0158301711
B1040164201932N00045459EA0158201710
B1040174201934N00045468EA0158101709
B1040184201937N00045477EA0157901707
B1040194201940N00045485EA0157901706
B1040204201943N00045494EA0157801705
B1040214201946N00045502EA0157701704
B1040224201950N00045509EA0157601703
B1040234201953N00045516EA0157601702
B1040244201956N00045524EA0157601701
B1040254201959N00045532EA0157501700
B1040264201960N00045540EA0157401699
B1040274201960N00045549EA0157301698
B1040284201958N00045558EA0157001696
B1040294201955N00045567EA0156801694
B1040304201950N00045575EA0156701693
B1040314201944N00045581EA0156701692
B1040324201938N00045586EA0156801692
B1040334201931N00045590EA0156801691
B1040344201925N00045595EA0156701690
B1040354201919N00045599EA0156401689
B1040364201913N00045603EA0156301688
B1040374201906N00045605EA0156301687
B1040384201900N00045607EA0156301687
B1040394201894N00045609EA0156401687
B1040404201888N00045610EA0156201686
B1040414201882N00045610EA0156001685
B1040424201875N00045611EA0155801683
B1040434201868N00045612EA0155701682
B1040444201861N00045614EA0155801682
B1040454201854N00045616EA0155901682
B1040464201848N00045616EA0155901683
B1040474201843N00045617EA0155901682
B1040484201837N00045617EA0155801681
B1040494201831N00045618EA0155601679
B1040504201824N00045618EA0155401678
B1040514201818N00045619EA0155301676
B1040524201812N00045619EA0155201675
B1040534201805N00045619EA0155101675
B1040544201800N00045618EA0155101674
B1040554201794N00045617EA0155001673
B1040564201789N00045614EA0154801671
B1040574201785N00045611EA0154701670
B1040584201781N00045606EA0154601668
B1040594201778N00045600EA0154401667
B1041004201776N00045595EA0154401666
B1041014201775N00045589EA0154301666
B1041024201774N00045583EA0154201665
B1041034201774N00045577EA0154101664
B1041044201774N00045571EA0153801663
B1041054201774N00045564EA0153901662
B1041064201773N00045558EA0153801661
B1041074201772N00045552EA0153601659
B1041084201771N00045545EA0153601659
B1041094201770N00045539EA0153401658
B1041104201769N00045532EA0153501657
B1041114201768N00045526EA0153101656
B1041124201767N00045519EA0153101655
B1041134201766N00045513EA0153001653
B1041144201765N00045507EA0152801652
B1041154201764N00045501EA0152701650
B1041164201764N00045495EA0152501647
B1041174201764N00045488EA0152101645
B1041184201764N00045482EA0152101643
B1041194201764N00045475EA0151901641
B1041204201764N00045469EA0151801639
B1041214201764N00045463EA0151501637
B1041224201764N00045457EA0151301636
B1041234201764N00045450EA0151201634
B1041244201765N00045444EA0151001632
B1041254201765N00045438EA0150801630
B1041264201766N00045432EA0150701628
B1041274201766N00045425EA0150601627
B1041284201768N00045419EA0150401625
B1041294201769N00045413EA0150301624
B1041304201770N00045407EA0150101623
B1041314201772N00045401EA0150001622
B1041324201774N00045395EA0149901620
B1041334201775N00045389EA0149801619
B1041344201777N00045382EA0149701618
B1041354201779N00045376EA0149601618
B1041364201780N00045371EA0149601617
B1041374201782N00045365EA0149601616
B1041384201783N00045360EA0149301615
B1041394201785N00045354EA0149201613
B1041404201786N00045348EA0149101612
B1041414201788N00045342EA0149101611
B1041424201790N00045336EA0149001610
B1041434201792N00045330EA0148901609
B1041444201793N00045324EA0148801608
B1041454201795N00045318EA0148601608
B1041464201796N00045312EA0148601607
B1041474201798N00045306EA0148501605
B1041484201799N00045300EA0148301603
B1041494201800N00045294EA0148101602
B1041504201801N00045287EA0148001600
B1041514201802N00045280EA0148001600
B1041524201803N00045273EA0148001599
B1041534201804N00045267EA0147801598
B1041544201805N00045262EA0147801597
B1041554201806N00045256EA0147501595
B1041564201807N00045250EA0147401594
B1041574201808N00045244EA0147201592
B1041584201809N00045237EA0147101591
B1041594201810N00045231EA0147301591
B1042004201812N00045226EA0147201590
B1042014201813N00045220EA0147101589
B1042024201814N00045215EA0146801588
B1042034201815N00045209EA0146801587
B1042044201817N00045203EA0146601586
B1042054201818N00045197EA0146501585
B1042064201820N00045191EA0146601584
B1042074201821N00045186EA0146301584
B1042084201822N00045180EA0146401583
B1042094201823N00045174EA0146101581
B1042104201824N00045168EA0146201580
B1042114201826N00045162EA0146001579
B1042124201827N00045156EA0146001578
B1042134201828N00045150EA0146001578
B1042144201830N00045144EA0145801577
B1042154201831N00045139EA0145901576
B1042164201832N00045133EA0145701576
B1042174201833N00045127EA0145601575
B1042184201834N00045122EA0145601574
B1042194201835N00045116EA0145501574
B1042204201837N00045111EA0145601573
B1042214201838N00045106EA0145401573
B1042224201838N00045100EA0145401572
B1042234201840N00045095EA0145201571
B1042244201841N00045090EA0145101570
B1042254201842N00045084EA0145101569
B1042264201844N00045079EA0144901568
B1042274201845N00045073EA0144901567
B1042284201846N00045068EA0144701566
B1042294201847N00045062EA0144601565
B1042304201849N00045057EA0144501563
B1042314201850N00045051EA0144401562
B1042324201851N00045045EA0144401560
B1042334201851N00045039EA0144201559
B1042344201851N00045034EA0144001558
B1042354201851N00045028EA0144001557
B1042364201851N00045022EA0143701556
B1042374201852N00045016EA0143401554
B1042384201852N00045009EA0143101551
B1042394201853N00045002EA0142801548
B1042404201853N00044994EA0142701546
B1042414201854N00044986EA0142701545
B1042424201855N00044979EA0142501544
B1042434201857N00044971EA0142501542
B1042444201858N00044964EA0142401541
B1042454201860N00044957EA0142201540
B1042464201862N00044949EA0141901539
B1042474201864N00044942EA0141901539
B1042484201866N00044935EA0142001538
B1042494201869N00044930EA0142201539
B1042504201871N00044926EA0142301539
B1042514201872N00044921EA0141901537
B1042524201873N00044916EA0141601534
B1042534201875N00044909EA0141401531
B1042544201877N00044903EA0141301530
B1042554201879N00044897EA0141201530
B1042564201881N00044892EA0141301529
B1042574201882N00044887EA0141201528
B1042584201883N00044882EA0140901526
B1042594201885N00044877EA0140801524
B1043004201887N00044872EA0140601521
B1043014201889N00044866EA0140401520
B1043024201891N00044860EA0140101518
B1043034201893N00044855EA0140201517
B1043044201895N00044850EA0139901515
B1043054201897N00044845EA0139801513
B1043064201899N00044839EA0139601511
B1043074201902N00044833EA0139401510
B1043084201904N00044828EA0139301508
B1043094201906N00044822EA0139301508
B1043104201908N00044817EA0139201507
B1043114201910N00044812EA0139201505
B1043124201912N00044807EA0138801504
B1043134201913N00044801EA0138601502
B1043144201915N00044795EA0138501500
B1043154201916N00044789EA0138401499
B1043164201917N00044783EA0138301498
B1043174201918N00044778EA0138301497
B1043184201920N00044772EA0138201495
B1043194201921N00044767EA0138001494
B1043204201923N00044761EA0137701493
B1043214201924N00044755EA0137601492
B1043224201926N00044748EA0137701491
B1043234201929N00044742EA0137701491
B1043244201931N00044737EA0137501490
B1043254201934N00044731EA0137601489
B1043264201936N00044725EA0137401489
B1043274201939N00044720EA0137101488
B1043284201941N00044714EA0137201486
B1043294201944N00044709EA0137201485
B1043304201947N00044703EA0136801484
B1043314201951N00044697EA0136901484
B1043324201954N00044691EA0137001484
B1043334201958N00044685EA0137301485
B1043344201961N00044680EA0137401486
B1043354201963N00044675EA0137401487
B1043364201965N00044671EA0137501487
B1043374201968N00044667EA0137301487
B1043384201971N00044664EA0137201486
B1043394201975N00044659EA0137101484
B1043404201979N00044654EA0137101484
B1043414201981N00044648EA0136901484
B1043424201983N00044642EA0137101486
B1043434201986N00044637EA0137501487
B1043444201989N00044634EA0137601489
B1043454201992N00044632EA0137801491
B1043464201994N00044630EA0137901493
B1043474201996N00044628EA0138101494
B1043484201996N00044625EA0138001493
B1043494201997N00044622EA0137901493
B1043504201998N00044618EA0137801491
B1043514201999N00044613EA0137501488
B1043524202000N00044608EA0137101486
B1043534202002N00044602EA0136901484
B1043544202004N00044596EA0136901483
B1043554202006N00044591EA0137001482
B1043564202008N00044586EA0136801481
B1043574202009N00044582EA0136701480
B1043584202009N00044577EA0136401478
B1043594202011N00044572EA0136201475
B1044004202013N00044566EA0135901473
B1044014202015N00044561EA0135701472
B1044024202016N00044555EA0135801471
B1044034202018N00044551EA0135701470
B1044044202020N00044547EA0135501469
B1044054202022N00044543EA0135301466
B1044064202025N00044539EA0135001464
B1044074202028N00044534EA0134901462
B1044084202031N00044528EA0134601460
B1044094202033N00044523EA0134701459
B1044104202036N00044518EA0134701459
B1044114202038N00044513EA0134601459
B1044124202039N00044510EA0134701457
B1044134202041N00044507EA0134301455
B1044144202044N00044502EA0133801452
B1044154202047N00044497EA0133601451
B1044164202051N00044492EA0133801452
B1044174202054N00044487EA0133901453
B1044184202057N00044483EA0134001453
B1044194202060N00044480EA0134001453
B1044204202064N00044477EA0134101453
B1044214202068N00044475EA0134001453
B1044224202073N00044473EA0133801452
B1044234202077N00044470EA0133801451
B1044244202081N00044467EA0133701450
B1044254202085N00044463EA0133501448
B1044264202088N00044459EA0133301447
B1044274202091N00044454EA0133001444
B1044284202093N00044448EA0132601441
B1044294202095N00044442EA0132401439
B1044304202097N00044434EA0132301437
B1044314202098N00044427EA0132201435
B1044324202100N00044419EA0132101435
B1044334202101N00044412EA0132101434
B1044344202102N00044406EA0132001433
B1044354202102N00044399EA0132001433
B1044364202102N00044392EA0132101433
B1044374202102N00044386EA0131901433
B1044384202103N00044380EA0132001433
B1044394202104N00044374EA0132201433
B1044404202105N00044368EA0132101433
B1044414202105N00044362EA0132101433
B1044424202105N00044356EA0132201434
B1044434202105N00044350EA0132301435
B1044444202106N00044346EA0132501436
B1044454202107N00044343EA0132501437
B1044464202109N00044340EA0132601437
B1044474202110N00044337EA0132401437
B1044484202111N00044333EA0132401437
B1044494202112N00044329EA0132601438
B1044504202112N00044324EA0132601439
B1044514202110N00044320EA0132901440
B1044524202107N00044317EA0132901442
B1044534202104N00044314EA0133101443
B1044544202101N00044312EA0133201445
B1044554202097N00044312EA0133401445
B1044564202092N00044313EA0133201445
B1044574202088N00044317EA0133201444
B1044584202083N00044321EA0133201445
B1044594202077N00044323EA0133301445
B1045004202072N00044322EA0133401446
B1045014202068N00044319EA0133501447
B1045024202066N00044314EA0133801447
B1045034202066N00044307EA0133801448
B1045044202068N00044301EA0133801449
B1045054202072N00044296EA0134101451
B1045064202077N00044294EA0134101452
B1045074202082N00044295EA0134101452
B1045084202088N00044300EA0134101452
B1045094202093N00044306EA0134301454
B1045104202096N00044314EA0134501455
B1045114202098N00044322EA0134601456
B1045124202097N00044331EA0134401456
B1045134202094N00044339EA0134501457
B1045144202091N00044347EA0134801459
B1045154202087N00044353EA0134801461
B1045164202083N00044356EA0135101462
B1045174202078N00044358EA0135101463
B1045184202074N00044358EA0135201463
B1045194202070N00044356EA0135001462
B1045204202066N00044353EA0135101463
B1045214202062N00044349EA0135401464
B1045224202060N00044345EA0135601466
B1045234202060N00044340EA0135801468
B1045244202062N00044336EA0135701469
B1045254202063N00044332EA0135901470
B1045264202063N00044327EA0136101471
B1045274202063N00044323EA0136001471
B1045284202063N00044319EA0136001471
B1045294202064N00044314EA0135901470
B1045304202067N00044310EA0135701469
B1045314202071N00044307EA0135601468
B1045324202077N00044306EA0135501467
B1045334202084N00044309EA0135401465
B1045344202089N00044316EA0135201464
B1045354202093N00044326EA0135201463
B1045364202094N00044336EA0135501465
B1045374202094N00044346EA0135701467
B1045384202093N00044356EA0136001470
B1045394202092N00044364EA0136001471
B1045404202091N00044373EA0136201471
B1045414202090N00044383EA0136001472
B1045424202088N00044392EA0136201473
B1045434202084N00044400EA0136201474
B1045444202080N00044405EA0136201473
B1045454202075N00044406EA0136001472
B1045464202070N00044404EA0136201472
B1045474202068N00044399EA0136101473
B1045484202069N00044393EA0136101472
B1045494202072N00044389EA0135901472
B1045504202077N00044386EA0136201474
B1045514202083N00044387EA0136501476
B1045524202088N00044389EA0136901479
B1045534202093N00044392EA0137101480
B1045544202098N00044397EA0137001481
B1045554202102N00044403EA0137101481
B1045564202105N00044411EA0136901481
B1045574202106N00044421EA0136801480
B1045584202105N00044431EA0136601480
B1045594202101N00044440EA0136901481
B1046004202096N00044446EA0137201483
B1046014202092N00044450EA0137601485
B1046024202088N00044453EA0137601486
B1046034202084N00044457EA0137501486
B1046044202080N00044462EA0137301485
B1046054202075N00044466EA0137201485
B1046064202070N00044469EA0137201485
B1046074202066N00044469EA0137301485
B1046084202061N00044468EA0137101484
B1046094202058N00044465EA0137001483
B1046104202057N00044460EA0137101483
B1046114202056N00044456EA0137101482
B1046124202056N00044451EA0137101482
B1046134202057N00044447EA0137001482
B1046144202058N00044443EA0137101482
B1046154202060N00044439EA0137201483
B1046164202064N00044437EA0137201483
B1046174202069N00044437EA0137201483
B1046184202074N00044439EA0137301484
B1046194202079N00044442EA0137501485
B1046204202085N00044446EA0137601486
B1046214202090N00044450EA0137701487
B1046224202095N00044456EA0137701488
B1046234202099N00044464EA0137801489
B1046244202102N00044472EA0137901490
B1046254202103N00044482EA0138001491
B1046264202102N00044491EA0138001491
B1046274202100N00044500EA0137801490
B1046284202097N00044509EA0137901490
B1046294202092N00044516EA0137801490
B1046304202087N00044521EA0137701489
B1046314202082N00044523EA0137901489
B1046324202077N00044524EA0137801489
B1046334202073N00044523EA0137801489
B1046344202070N00044520EA0137801488
B1046354202069N00044516EA0137701487
B1046364202070N00044512EA0137501487
B1046374202071N00044508EA0137401486
B1046384202073N00044504EA0137401485
B1046394202076N00044501EA0137301485
B1046404202080N00044498EA0137501486
B1046414202083N00044495EA0137801488
B1046424202087N00044493EA0137801488
B1046434202091N00044490EA0137701489
B1046444202095N00044488EA0137901490
B1046454202098N00044486EA0137801490
B1046464202102N00044484EA0138001491
B1046474202104N00044480EA0138101492
B1046484202105N00044476EA0138001492
B1046494202104N00044471EA0138001492
B1046504202100N00044468EA0138001494
B1046514202096N00044466EA0138501496
B1046524202092N00044466EA0138501498
B1046534202087N00044467EA0138601498
B1046544202082N00044468EA0138501498
B1046554202078N00044469EA0138301497
B1046564202073N00044469EA0138401496
B1046574202069N00044471EA0138201495
B1046584202063N00044473EA0138101494
B1046594202058N00044477EA0138201495
B1047004202052N00044482EA0138601497
B1047014202049N00044489EA0138601499
B1047024202046N00044495EA0138801501
B1047034202043N00044501EA0138701501
B1047044202040N00044507EA0138701500
B1047054202036N00044512EA0138601499
B1047064202033N00044518EA0138301498
B1047074202031N00044525EA0138101495
B1047084202030N00044533EA0137801492
B1047094202028N00044542EA0137501490
B1047104202026N00044550EA0137501488
B1047114202024N00044558EA0137301487
B1047124202021N00044566EA0137301486
B1047134202019N00044575EA0137101485
B1047144202017N00044584EA0137001483
B1047154202015N00044592EA0136801481
B1047164202012N00044601EA0136501479
B1047174202010N00044609EA0136301476
B1047184202007N00044618EA0136101474
B1047194202006N00044628EA0136001472
B1047204202004N00044637EA0135901470
B1047214202003N00044645EA0135601469
B1047224202001N00044654EA0135601467
B1047234201999N00044662EA0135501466
B1047244201997N00044671EA0135301464
B1047254201996N00044680EA0135201463
B1047264201995N00044688EA0135101462
B1047274201993N00044697EA0134901461
B1047284201991N00044706EA0134901460
B1047294201990N00044715EA0134901459
B1047304201989N00044723EA0134801459
B1047314201988N00044731EA0134801458
B1047324201987N00044739EA0134501457
B1047334201986N00044747EA0134301455
B1047344201984N00044755EA0134201454
B1047354201982N00044763EA0134201453
B1047364201981N00044771EA0134001452
B1047374201980N00044779EA0133901451
B1047384201979N00044787EA0133801449
B1047394201979N00044796EA0133701448
B1047404201978N00044804EA0133601447
B1047414201977N00044812EA0133501446
B1047424201976N00044821EA0133401445
B1047434201975N00044829EA0133401445
B1047444201973N00044837EA0133301444
B1047454201972N00044845EA0133301443
B1047464201970N00044852EA0133301443
B1047474201968N00044860EA0133101442
B1047484201965N00044867EA0133001440
B1047494201963N00044875EA0132701440
B1047504201961N00044882EA0132801439
B1047514201958N00044889EA0132801438
B1047524201954N00044895EA0132701437
B1047534201951N00044902EA0132601435
B1047544201948N00044910EA0132501435
B1047554201946N00044918EA0132401434
B1047564201943N00044926EA0132401434
B1047574201941N00044934EA0132401433
B1047584201938N00044942EA0132401433
B1047594201935N00044949EA0132301433
B1048004201933N00044957EA0132201432
B1048014201930N00044964EA0132101432
B1048024201927N00044972EA0132101431
B1048034201924N00044979EA0132101430
B1048044201921N00044987EA0132001429
B1048054201919N00044996EA0131801428
B1048064201916N00045004EA0131801428
B1048074201914N00045012EA0131801427
B1048084201912N00045020EA0131701426
B1048094201910N00045027EA0131501424
B1048104201907N00045035EA0131301422
B1048114201904N00045044EA0131101421
B1048124201901N00045052EA0131301421
B1048134201899N00045061EA0131201421
B1048144201897N00045069EA0131301421
B1048154201896N00045078EA0131201421
B1048164201894N00045086EA0131001420
B1048174201893N00045095EA0130801419
B1048184201891N00045104EA0130901418
B1048194201890N00045113EA0130801417
B1048204201889N00045123EA0130701416
B1048214201888N00045132EA0130701416
B1048224201887N00045141EA0130401415
B1048234201885N00045150EA0130301414
B1048244201883N00045159EA0130201412
B1048254201881N00045168EA0130101411
B1048264201879N00045177EA0130201410
B1048274201878N00045186EA0129901409
B1048284201877N00045195EA0129801408
B1048294201875N00045204EA0129701407
B1048304201874N00045213EA0129601405
B1048314201872N00045222EA0129501404
B1048324201870N00045231EA0129401403
B1048334201869N00045241EA0129301402
B1048344201867N00045251EA0129301402
B1048354201866N00045259EA0129401402
B1048364201864N00045268EA0129301402
B1048374201863N00045276EA0129301402
B1048384201862N00045285EA0129201401
B1048394201862N00045295EA0129301401
B1048404201861N00045304EA0129301401
B1048414201860N00045314EA0129401402
B1048424201859N00045324EA0129601403
B1048434201858N00045332EA0129601404
B1048444201855N00045339EA0129601405
B1048454201852N00045346EA0129501404
B1048464201849N00045354EA0129301403
B1048474201846N00045362EA0129301402
B1048484201844N00045370EA0129301403
B1048494201843N00045379EA0129501403
B1048504201845N00045387EA0129501402
B1048514201848N00045394EA0129201401
B1048524201852N00045400EA0129101400
B1048534201858N00045403EA0129001398
B1048544201863N00045403EA0128801397
B1048554201868N00045400EA0128801396
B1048564201870N00045396EA0128801395
B1048574201871N00045391EA0128901395
B1048584201871N00045386EA0128801395
B1048594201872N00045381EA0128701396
B1049004201873N00045376EA0128801395
B1049014201876N00045370EA0128701396
B1049024201878N00045365EA0128601395
B1049034201880N00045359EA0128501395
B1049044201881N00045353EA0128501394
B1049054201882N00045347EA0128401393
B1049064201883N00045341EA0128501392
B1049074201882N00045334EA0128301391
B1049084201881N00045327EA0128401392
B1049094201879N00045319EA0128901394
B1049104201878N00045313EA0129001397
B1049114201878N00045309EA0129101398
B1049124201878N00045305EA0129001397
B1049134201879N00045301EA0128601395
B1049144201879N00045296EA0128201392
B1049154201878N00045291EA0128201389
B1049164201876N00045284EA0127901387
B1049174201873N00045279EA0127601386
B1049184201870N00045274EA0127601385
B1049194201867N00045270EA0127601384
B1049204201864N00045266EA0127301382
B1049214201862N00045261EA0127201379
B1049224201860N00045256EA0126801376
B1049234201857N00045250EA0126501373
B1049244201855N00045243EA0126501372
B1049254201853N00045237EA0126601372
B1049264201852N00045231EA0126701372
B1049274201850N00045226EA0126701373
B1049284201848N00045221EA0126701373
B1049294201844N00045218EA0126701373
B1049304201840N00045217EA0126501372
B1049314201835N00045219EA0126301370
B1049324201831N00045223EA0126101369
B1049334201826N00045229EA0126101368
B1049344201822N00045237EA0126001368
B1049354201819N00045246EA0126101368
B1049364201817N00045255EA0126101368
B1049374201815N00045264EA0126101368
B1049384201813N00045272EA0126001368
B1049394201811N00045281EA0126001367
B1049404201809N00045290EA0125801366
B1049414201808N00045299EA0125601365
B1049424201806N00045308EA0125701363
B1049434201805N00045318EA0125401362
B1049444201805N00045328EA0125301362
B1049454201806N00045338EA0125401361
B1049464201805N00045347EA0125201360
B1049474201803N00045356EA0124901358
B1049484201801N00045365EA0124801355
B1049494201799N00045375EA0124701352
B1049504201799N00045385EA0124301350
B1049514201798N00045395EA0124301349
B1049524201796N00045405EA0124301347
B1049534201794N00045414EA0124101346
B1049544201792N00045423EA0123901344
B1049554201791N00045434EA0123801342
B1049564201790N00045444EA0123701342
B1049574201789N00045454EA0123701342
B1049584201788N00045463EA0123901342
B1049594201787N00045472EA0123701342
B1050004201785N00045479EA0123601341
B1050014201783N00045487EA0123601339
B1050024201781N00045495EA0123101336
B1050034201778N00045502EA0122701333
B1050044201775N00045510EA0122501331
B1050054201771N00045518EA0122301329
B1050064201767N00045526EA0122201329
B1050074201763N00045533EA0122401329
B1050084201761N00045541EA0122501330
B1050094201758N00045548EA0122501330
B1050104201755N00045555EA0122401329
B1050114201751N00045563EA0122201328
B1050124201748N00045571EA0122301328
B1050134201745N00045579EA0122401328
B1050144201743N00045587EA0122501329
B1050154201740N00045594EA0122601329
B1050164201739N00045602EA0122601329
B1050174201739N00045610EA0122601328
B1050184201739N00045619EA0122401327
B1050194201741N00045627EA0122301326
B1050204201744N00045635EA0122201326
B1050214201748N00045642EA0122201326
B1050224201753N00045645EA0122101325
B1050234201758N00045646EA0122001325
B1050244201762N00045644EA0121901324
B1050254201765N00045640EA0122001324
B1050264201766N00045636EA0122101325
B1050274201767N00045631EA0122201326
B1050284201768N00045627EA0122401327
B1050294201768N00045623EA0122501328
B1050304201769N00045620EA0122501328
B1050314201771N00045616EA0122501328
B1050324201773N00045613EA0122401328
B1050334201776N00045610EA0122201328
B1050344201780N00045606EA0122401327
B1050354201782N00045601EA0122101327
B1050364201783N00045596EA0122401327
B1050374201781N00045591EA0122101326
B1050384201778N00045587EA0122001326
B1050394201774N00045585EA0122001326
B1050404201770N00045583EA0122001325
B1050414201767N00045581EA0122201325
B1050424201763N00045580EA0122101325
B1050434201759N00045581EA0121901324
B1050444201755N00045585EA0121701322
B1050454201751N00045592EA0121601320
B1050464201747N00045600EA0121501320
B1050474201745N00045609EA0121701320
B1050484201744N00045619EA0121701321
B1050494201743N00045628EA0121601322
B1050504201741N00045637EA0121701321
B1050514201739N00045645EA0121601320
B1050524201737N00045652EA0121601319
B1050534201737N00045661EA0121301318
B1050544201739N00045670EA0121201316
B1050554201743N00045679EA0120901313
B1050564201749N00045686EA0120601312
B1050574201756N00045691EA0120701310
B1050584201763N00045693EA0120401309
B1050594201770N00045691EA0120501309
B1051004201775N00045688EA0120701310
B1051014201779N00045685EA0120801312
B1051024201782N00045681EA0120901313
B1051034201786N00045677EA0121001314
B1051044201789N00045673EA0121201316
B1051054201793N00045670EA0121301316
B1051064201796N00045667EA0121201317
B1051074201799N00045664EA0121401317
B1051084201800N00045660EA0121301316
B1051094201799N00045657EA0121001315
B1051104201796N00045655EA0120901313
B1051114201791N00045656EA0120701311
B1051124201785N00045660EA0120601310
B1051134201781N00045669EA0120601310
B1051144201779N00045679EA0120801311
B1051154201779N00045689EA0120901312
B1051164201779N00045699EA0121001313
B1051174201781N00045708EA0121201314
B1051184201784N00045717EA0121201315
B1051194201787N00045727EA0121201315
B1051204201790N00045736EA0121401316
B1051214201793N00045746EA0121501317
B1051224201795N00045757EA0121501317
B1051234201795N00045767EA0121401318
B1051244201794N00045777EA0121301318
B1051254201793N00045786EA0121401318
B1051264201791N00045796EA0121501318
B1051274201789N00045806EA0121601319
B1051284201788N00045816EA0121801320
B1051294201787N00045826EA0121801321
B1051304201786N00045836EA0121901323
B1051314201785N00045846EA0122001323
B1051324201785N00045856EA0122201324
B1051334201785N00045866EA0122301325
B1051344201785N00045877EA0122401325
B1051354201783N00045886EA0122301326
B1051364201779N00045893EA0122201325
B1051374201774N00045898EA0122301325
B1051384201769N00045898EA0122201326
B1051394201766N00045895EA0122301327
B1051404201765N00045891EA0122401328
B1051414201765N00045888EA0122601329
B1051424201766N00045884EA0122401329
B1051434201765N00045881EA0122201328
B1051444201764N00045877EA0122101326
B1051454201764N00045873EA0121901325
B1051464201765N00045868EA0122001325
B1051474201768N00045864EA0122001325
B1051484201771N00045860EA0122201326
B1051494201773N00045856EA0122101326
B1051504201774N00045852EA0121901325
B1051514201776N00045847EA0121801325
B1051524201777N00045842EA0121901324
B1051534201780N00045838EA0121801323
B1051544201781N00045834EA0121701322
B1051554201782N00045829EA0121401320
B1051564201782N00045824EA0121201318
B1051574201781N00045818EA0121201317
B1051584201782N00045812EA0121201317
B1051594201783N00045807EA0121601318
B1052004201785N00045803EA0121701319
B1052014201786N00045799EA0121601320
B1052024201787N00045795EA0121801320
B1052034201789N00045791EA0121701320
B1052044201791N00045788EA0121601320
B1052054201794N00045784EA0121701320
B1052064201796N00045780EA0121601320
B1052074201798N00045776EA0121601320
B1052084201800N00045771EA0121701320
B1052094201803N00045767EA0121701321
B1052104201806N00045763EA0121601321
B1052114201808N00045760EA0121801322
B1052124201810N00045756EA0121801322
B1052134201810N00045753EA0121801321
B1052144201808N00045750EA0121501320
B1052154201804N00045748EA0121501319
B1052164201800N00045749EA0121401319
B1052174201794N00045753EA0121501319
B1052184201791N00045761EA0121401319
B1052194201789N00045770EA0121701319
B1052204201789N00045780EA0121801320
B1052214201791N00045790EA0121901322
B1052224201793N00045799EA0121901322
B1052234201795N00045808EA0122001323
B1052244201797N00045817EA0122101323
B1052254201798N00045827EA0121901323
B1052264201798N00045836EA0121801322
B1052274201796N00045843EA0121701321
B1052284201792N00045850EA0121701320
B1052294201788N00045854EA0121701320
B1052304201784N00045858EA0121701320
B1052314201780N00045861EA0121701320
B1052324201776N00045863EA0121701320
B1052334201772N00045865EA0121701320
B1052344201767N00045865EA0121801319
B1052354201763N00045865EA0121601319
B1052364201760N00045865EA0121401318
B1052374201756N00045864EA0121301317
B1052384201753N00045862EA0121201315
B1052394201750N00045860EA0121001314
B1052404201746N00045857EA0120901312
B1052414201742N00045854EA0120801311
B1052424201739N00045851EA0120701311
B1052434201735N00045849EA0120701310
B1052444201732N00045846EA0120701309
B1052454201729N00045844EA0120701308
B1052464201727N00045840EA0120401306
B1052474201727N00045835EA0120201304
B1052484201727N00045830EA0120001302
B1052494201729N00045824EA0119801301
B1052504201731N00045819EA0119601300
B1052514201734N00045814EA0119601299
B1052524201737N00045810EA0119401298
B1052534201739N00045805EA0119401297
B1052544201741N00045800EA0119301296
B1052554201744N00045795EA0119301295
B1052564201747N00045790EA0119201294
B1052574201749N00045784EA0119001293
B1052584201751N00045779EA0119001292
B1052594201753N00045774EA0118901291
B1053004201754N00045768EA0118901290
B1053014201756N00045763EA0118801290
B1053024201757N00045757EA0118901291
B1053034201758N00045752EA0118901291
B1053044201758N00045747EA0119201292
B1053054201759N00045741EA0119101292
B1053064201759N00045736EA0119201292
B1053074201761N00045731EA0119201293
B1053084201762N00045726EA0119501294
B1053094201763N00045721EA0119501296
B1053104201764N00045717EA0119601296
B1053114201766N00045713EA0119601297
B1053124201768N00045709EA0119501297
B1053134201771N00045705EA0119601298
B1053144201775N00045701EA0119801299
B1053154201777N00045696EA0119801300
B1053164201776N00045692EA0119701300
B1053174201773N00045689EA0119601299
B1053184201769N00045687EA0119601298
B1053194201764N00045689EA0119501297
B1053204201760N00045695EA0119501296
B1053214201757N00045704EA0119501296
B1053224201756N00045714EA0119501296
B1053234201757N00045723EA0119601296
B1053244201758N00045732EA0119601297
B1053254201761N00045740EA0119601297
B1053264201764N00045749EA0119701298
B1053274201766N00045757EA0119801298
B1053284201768N00045766EA0119801299
B1053294201768N00045775EA0119901299
B1053304201767N00045784EA0120001300
B1053314201766N00045792EA0119901300
B1053324201764N00045799EA0119801299
B1053334201761N00045806EA0119701298
B1053344201757N00045811EA0119701297
B1053354201753N00045814EA0119401295
B1053364201748N00045813EA0119101293
B1053374201745N00045809EA0119101292
B1053384201743N00045804EA0119101292
B1053394201744N00045799EA0119001291
B1053404201745N00045795EA0118901291
B1053414201747N00045790EA0118801290
B1053424201750N00045785EA0118601288
B1053434201752N00045779EA0118401287
B1053444201753N00045773EA0118501287
B1053454201754N00045767EA0118801289
B1053464201755N00045762EA0119001291
B1053474201756N00045758EA0119101292
B1053484201757N00045755EA0119101293
B1053494201758N00045751EA0119001292
B1053504201759N00045747EA0119001292
B1053514201760N00045743EA0119001293
B1053524201762N00045739EA0119101294
B1053534201763N00045735EA0119201294
B1053544201764N00045731EA0119101294
B1053554201765N00045727EA0119001293
B1053564201765N00045722EA0118801293
B1053574201765N00045717EA0118901292
B1053584201765N00045712EA0118901292
B1053594201766N00045706EA0118901292
B1054004201767N00045701EA0118801291
B1054014201768N00045696EA0118701290
B1054024201769N00045691EA0118501289
B1054034201771N00045685EA0118601288
B1054044201772N00045679EA0118501288
B1054054201772N00045674EA0118501287
B1054064201772N00045668EA0118501286
B1054074201773N00045662EA0118401286
B1054084201775N00045656EA0118501286
B1054094201776N00045651EA0118601286
B1054104201778N00045647EA0118701287
B1054114201780N00045642EA0118601287
B1054124201781N00045637EA0118401286
B1054134201782N00045631EA0118201285
B1054144201782N00045625EA0118201285
B1054154201782N00045618EA0118101284
B1054164201783N00045612EA0118201285
B1054174201784N00045607EA0118501285
B1054184201786N00045603EA0118301285
B1054194201787N00045600EA0118301283
B1054204201788N00045596EA0118001281
B1054214201787N00045591EA0117701278
B1054224201786N00045586EA0117401276
B1054234201784N00045580EA0117201274
B1054244201782N00045574EA0117201273
B1054254201781N00045569EA0117201273
B1054264201779N00045564EA0117201273
B1054274201777N00045560EA0117201272
B1054284201775N00045556EA0117101271
B1054294201773N00045552EA0116901269
B1054304201772N00045546EA0116701267
B1054314201771N00045541EA0116601266
B1054324201770N00045534EA0116501265
B1054334201770N00045528EA0116601265
B1054344201769N00045522EA0116601266
B1054354201770N00045517EA0116701267
B1054364201770N00045511EA0116701266
B1054374201772N00045506EA0116501266
B1054384201772N00045500EA0116301264
B1054394201773N00045493EA0116201263
B1054404201773N00045486EA0116201263
B1054414201773N00045479EA0116401263
B1054424201773N00045473EA0116501264
B1054434201773N00045467EA0116401264
B1054444201773N00045461EA0116401264
B1054454201773N00045455EA0116301264
B1054464201772N00045449EA0116201263
B1054474201772N00045443EA0116201262
B1054484201772N00045437EA0116101261
B1054494201772N00045431EA0116101261
B1054504201772N00045425EA0116001260
B1054514201772N00045419EA0116001259
B1054524201772N00045413EA0115901258
B1054534201771N00045406EA0115801257
B1054544201771N00045400EA0115601255
B1054554201771N00045394EA0115401254
B1054564201770N00045387EA0115301252
B1054574201770N00045381EA0115101251
B1054584201771N00045374EA0115001250
B1054594201772N00045368EA0115101249
B1055004201772N00045362EA0114901247
B1055014201772N00045355EA0114601246
B1055024201771N00045349EA0114501245
B1055034201771N00045342EA0114701244
B1055044201772N00045336EA0114601244
B1055054201773N00045330EA0114601244
B1055064201774N00045324EA0114401243
B1055074201774N00045319EA0114101241
B1055084201775N00045313EA0114001239
B1055094201775N00045306EA0113801237
B1055104201776N00045299EA0113701236
B1055114201777N00045293EA0113601235
B1055124201778N00045287EA0113701234
B1055134201779N00045281EA0113601233
B1055144201779N00045275EA0113401232
B1055154201780N00045269EA0113301231
B1055164201781N00045262EA0113401231
B1055174201781N00045255EA0113201231
B1055184201781N00045248EA0113201232
B1055194201782N00045241EA0113801234
B1055204201783N00045236EA0114001236
B1055214201786N00045231EA0113901238
B1055224201789N00045226EA0114101239
B1055234201792N00045222EA0114401240
B1055244201793N00045217EA0114501242
B1055254201793N00045212EA0114601243
B1055264201790N00045207EA0114501242
B1055274201785N00045205EA0114501242
B1055284201780N00045203EA0114501243
B1055294201775N00045205EA0114701244
B1055304201770N00045210EA0114601245
B1055314201767N00045217EA0114801245
B1055324201767N00045224EA0114701245
B1055334201767N00045231EA0114801245
B1055344201768N00045238EA0114701244
B1055354201770N00045245EA0114601243
B1055364201773N00045252EA0114401242
B1055374201774N00045260EA0114301241
B1055384201772N00045268EA0114101239
B1055394201769N00045274EA0113901237
B1055404201764N00045278EA0113801236
B1055414201759N00045277EA0113701235
B1055424201755N00045274EA0113601234
B1055434201753N00045268EA0113601232
B1055444201753N00045262EA0113501232
B1055454201754N00045256EA0113401232
B1055464201756N00045250EA0113401231
B1055474201759N00045245EA0113301230
B1055484201761N00045240EA0113101228
B1055494201765N00045235EA0112901226
B1055504201768N00045228EA0112701224
B1055514201771N00045222EA0112701224
B1055524201774N00045215EA0112801224
B1055534201777N00045210EA0112601223
B1055544201780N00045204EA0112701223
B1055554201783N00045198EA0112701223
B1055564201785N00045193EA0112601223
B1055574201784N00045188EA0112401221
B1055584201782N00045184EA0112201220
B1055594201778N00045183EA0112001218
B1056004201772N00045184EA0112101217
B1056014201767N00045186EA0112201218
B1056024201763N00045187EA0112301219
B1056034201759N00045188EA0112201219
B1056044201755N00045190EA0112201219
B1056054201750N00045192EA0111801217
B1056064201746N00045195EA0111701215
B1056074201741N00045198EA0111501214
B1056084201736N00045201EA0111701213
B1056094201732N00045205EA0111601213
B1056104201727N00045208EA0111501212
B1056114201723N00045212EA0111401210
B1056124201719N00045215EA0111301208
B1056134201714N00045217EA0110801205
B1056144201709N00045220EA0110401201
B1056154201703N00045223EA0109901197
B1056164201697N00045226EA0109701193
B1056174201690N00045228EA0109601192
B1056184201684N00045231EA0109501191
B1056194201678N00045232EA0109501190
B1056204201672N00045233EA0109301189
B1056214201667N00045235EA0109001187
B1056224201661N00045236EA0108601185
B1056234201655N00045238EA0108501181
B1056244201649N00045240EA0108001178
B1056254201642N00045242EA0107901176
B1056264201636N00045243EA0107801174
B1056274201630N00045245EA0108001173
B1056284201624N00045247EA0107901173
B1056294201619N00045249EA0108101173
B1056304201614N00045250EA0107901173
B1056314201608N00045252EA0107801173
B1056324201602N00045255EA0107701173
B1056334201595N00045257EA0108201176
B1056344201588N00045259EA0108601180
B1056354201583N00045262EA0108901184
B1056364201578N00045266EA0109401187
B1056374201574N00045269EA0109501189
B1056384201570N00045272EA0109601190
B1056394201565N00045273EA0109401190
B1056404201559N00045275EA0109501190
B1056414201554N00045279EA0109601192
B1056424201550N00045286EA0109601193
B1056434201548N00045296EA0110001196
B1056444201548N00045305EA0110501200
B1056454201548N00045314EA0110701203
B1056464201549N00045321EA0111001205
B1056474201548N00045328EA0111001206
B1056484201547N00045336EA0111101207
B1056494201546N00045344EA0111001207
B1056504201547N00045352EA0111101208
B1056514201550N00045360EA0111201208
B1056524201555N00045368EA0111301210
B1056534201560N00045373EA0111601212
B1056544201566N00045377EA0111801214
B1056554201571N00045378EA0111901215
B1056564201577N00045376EA0112001216
B1056574201582N00045373EA0112101218
B1056584201585N00045368EA0112301220
B1056594201588N00045363EA0112501222
B1057004201589N00045358EA0112701224
B1057014201588N00045352EA0112901225
B1057024201587N00045346EA0112901227
B1057034201585N00045341EA0113201230
B1057044201582N00045336EA0113401233
B1057054201578N00045333EA0113801235
B1057064201574N00045330EA0114001238
B1057074201571N00045326EA0114101240
B1057084201568N00045322EA0114301242
B1057094201564N00045318EA0114801245
B1057104201559N00045317EA0114901247
B1057114201554N00045319EA0115001249
B1057124201548N00045322EA0115201251
B1057134201542N00045325EA0115701254
B1057144201537N00045330EA0115801257
B1057154201533N00045336EA0116001259
B1057164201528N00045342EA0116301261
B1057174201525N00045350EA0116201262
B1057184201524N00045359EA0116001260
B1057194201524N00045368EA0115801258
B1057204201526N00045376EA0115601255
B1057214201529N00045385EA0115301253
B1057224201533N00045392EA0115201252
B1057234201539N00045397EA0115001250
B1057244201546N00045400EA0114801248
B1057254201553N00045399EA0114901248
B1057264201559N00045397EA0114801249
B1057274201564N00045393EA0115101251
B1057284201569N00045389EA0115501254
B1057294201574N00045385EA0115801256
B1057304201577N00045380EA0115901259
B1057314201581N00045375EA0116201261
B1057324201583N00045369EA0116301263
B1057334201585N00045363EA0116501265
B1057344201586N00045356EA0116801268
B1057354201587N00045349EA0117301271
B1057364201587N00045343EA0117401274
B1057374201589N00045338EA0117601277
B1057384201589N00045332EA0117601278
B1057394201590N00045326EA0117801279
B1057404201589N00045320EA0118001280
B1057414201587N00045314EA0118001280
B1057424201584N00045309EA0118001281
B1057434201580N00045305EA0117801280
B1057444201576N00045302EA0117701279
B1057454201572N00045298EA0117501277
B1057464201568N00045294EA0117201275
B1057474201564N00045290EA0117101273
B1057484201558N00045286EA0116801272
B1057494201553N00045283EA0117001272
B1057504201547N00045282EA0117001273
B1057514201542N00045281EA0117201273
B1057524201538N00045280EA0117201274
B1057534201534N00045278EA0117101273
B1057544201532N00045276EA0117201272
B1057554201529N00045274EA0116801270
B1057564201525N00045273EA0116501267
B1057574201519N00045274EA0116201264
B1057584201513N00045276EA0116001262
B1057594201508N00045278EA0116001262
B1058004201502N00045280EA0116001261
B1058014201497N00045282EA0115901261
B1058024201493N00045286EA0115901260
B1058034201489N00045290EA0115601258
B1058044201484N00045293EA0115501256
B1058054201479N00045297EA0115301254
B1058064201474N00045300EA0115201253
B1058074201469N00045303EA0115201252
B1058084201464N00045306EA0115101252
B1058094201459N00045308EA0115001251
B1058104201455N00045311EA0114901250
B1058114201450N00045313EA0114701248
B1058124201445N00045314EA0114501246
B1058134201440N00045316EA0114401244
B1058144201435N00045318EA0114401243
B1058154201430N00045320EA0114201242
B1058164201425N00045322EA0114201241
B1058174201420N00045324EA0113901239
B1058184201416N00045326EA0113701238
B1058194201411N00045329EA0113601236
B1058204201406N00045331EA0113401234
B1058214201401N00045333EA0113201233
B1058224201396N00045335EA0113301232
B1058234201391N00045338EA0113101230
B1058244201387N00045343EA0112801228
B1058254201383N00045349EA0112501225
B1058264201378N00045353EA0112401223
B1058274201373N00045357EA0112301221
B1058284201368N00045360EA0112201220
B1058294201363N00045362EA0112101219
B1058304201358N00045365EA0112001217
B1058314201354N00045368EA0111801216
B1058324201349N00045370EA0111801214
B1058334201344N00045373EA0111501212
B1058344201338N00045375EA0111301210
B1058354201333N00045378EA0111201209
B1058364201328N00045380EA0111101208
B1058374201323N00045383EA0111001207
B1058384201318N00045385EA0110901206
B1058394201313N00045387EA0110801204
B1058404201308N00045390EA0110401202
B1058414201303N00045393EA0110301200
B1058424201297N00045395EA0110101199
B1058434201292N00045397EA0110001197
B1058444201287N00045399EA0109901196
B1058454201282N00045402EA0109801195
B1058464201277N00045404EA0109701193
B1058474201272N00045406EA0109601192
B1058484201267N00045408EA0109301190
B1058494201261N00045410EA0109201189
B1058504201256N00045413EA0109101187
B1058514201251N00045416EA0109001186
B1058524201246N00045419EA0108901185
B1058534201241N00045423EA0108701183
B1058544201236N00045426EA0108501182
B1058554201232N00045428EA0108401180
B1058564201227N00045430EA0108301178
B1058574201222N00045431EA0108001176
B1058584201216N00045433EA0107801174
B1058594201211N00045434EA0107501172
B1059004201206N00045436EA0107601170
B1059014201201N00045437EA0107301169
B1059024201197N00045438EA0107101166
B1059034201192N00045440EA0106901164
B1059044201187N00045442EA0106601162
B1059054201182N00045444EA0106301160
B1059064201176N00045447EA0106301158
B1059074201171N00045449EA0106001156
B1059084201167N00045451EA0105901154
B1059094201161N00045453EA0105701152
B1059104201156N00045456EA0105601150
B1059114201151N00045458EA0105501149
B1059124201146N00045461EA0105601149
B1059134201142N00045464EA0105401147
B1059144201137N00045466EA0105201146
B1059154201133N00045468EA0105001144
B1059164201128N00045471EA0104701141
B1059174201123N00045475EA0104701139
B1059184201118N00045479EA0104501138
B1059194201113N00045482EA0104401138
B1059204201108N00045484EA0104401137
B1059214201103N00045486EA0104201136
B1059224201098N00045489EA0104001134
B1059234201093N00045493EA0104001133
B1059244201088N00045496EA0103801131
B1059254201083N00045498EA0103901131
B1059264201077N00045500EA0103801130
B1059274201072N00045502EA0103901130
B1059284201067N00045505EA0103901130
B1059294201063N00045508EA0103701129
B1059304201058N00045511EA0103601128
B1059314201053N00045514EA0103401127
B1059324201048N00045516EA0103201125
B1059334201043N00045519EA0103201123
B1059344201038N00045522EA0103101122
B1059354201032N00045524EA0103101121
B1059364201028N00045527EA0102901120
B1059374201023N00045529EA0102901119
B1059384201018N00045531EA0102601118
B1059394201014N00045533EA0102501116
B1059404201009N00045535EA0102301114
B1059414201004N00045538EA0102201112
B1059424200999N00045542EA0101901110
B1059434200993N00045546EA0101701108
B1059444200988N00045550EA0101601107
B1059454200983N00045555EA0101701107
B1059464200978N00045559EA0101601106
B1059474200973N00045562EA0101401105
B1059484200968N00045565EA0101401103
B1059494200963N00045568EA0101201102
B1059504200958N00045571EA0100801100
B1059514200953N00045573EA0100801098
B1059524200947N00045576EA0100601097
B1059534200942N00045579EA0100501095
B1059544200937N00045581EA0100401094
B1059554200932N00045584EA0100201093
B1059564200927N00045586EA0100201091
B1059574200922N00045588EA0099901089
B1059584200916N00045591EA0099801087
B1059594200911N00045595EA0099501085
B1100004200905N00045598EA0099501084
B1100014200900N00045601EA0099401083
B1100024200894N00045605EA0099201082
B1100034200889N00045608EA0099201081
B1100044200884N00045612EA0099101080
B1100054200879N00045615EA0098901078
B1100064200873N00045619EA0098701076
B1100074200867N00045622EA0098601075
B1100084200862N00045625EA0098601074
B1100094200856N00045628EA0098501073
B1100104200851N00045632EA0098401073
B1100114200847N00045635EA0098301072
B1100124200842N00045638EA0098101070
B1100134200837N00045641EA0097901068
B1100144200831N00045644EA0097801067
B1100154200826N00045647EA0097801066
B1100164200820N00045649EA0097601065
B1100174200815N00045652EA0097501064
B1100184200810N00045654EA0097501063
B1100194200806N00045656EA0097401062
B1100204200801N00045657EA0097201060
B1100214200795N00045659EA0097101059
B1100224200790N00045662EA0096901057
B1100234200785N00045665EA0096801056
B1100244200780N00045669EA0096601055
B1100254200775N00045671EA0096701054
B1100264200770N00045673EA0096401052
B1100274200765N00045675EA0096301051
B1100284200760N00045677EA0096101049
B1100294200755N00045679EA0095901047
B1100304200749N00045681EA0095801045
B1100314200743N00045683EA0095601044
B1100324200738N00045685EA0095501043
B1100334200732N00045687EA0095501041
B1100344200727N00045690EA0095401040
B1100354200722N00045692EA0095301039
B1100364200717N00045695EA0095001037
B1100374200712N00045698EA0094901035
B1100384200707N00045701EA0094601033
B1100394200701N00045705EA0094601032
B1100404200696N00045708EA0094601032
B1100414200690N00045711EA0094501031
B1100424200685N00045714EA0094501030
B1100434200680N00045717EA0094401029
B1100444200676N00045718EA0094301028
B1100454200671N00045718EA0094101027
B1100464200666N00045717EA0093801025
B1100474200663N00045714EA0093801024
B1100484200660N00045710EA0093601022
B1100494200658N00045705EA0093601021
B1100504200658N00045699EA0093401019
B1100514200659N00045693EA0093201018
B1100524200662N00045688EA0093101017
B1100534200665N00045684EA0093101016
B1100544200669N00045681EA0093101015
B1100554200673N00045678EA0093101014
B1100564200677N00045675EA0092701013
B1100574200681N00045672EA0092601011
B1100584200686N00045668EA0092401010
B1100594200691N00045665EA0092401009
B1101004200695N00045662EA0092401009
B1101014200700N00045660EA0092401008
B1101024200704N00045657EA0092301008
B1101034200708N00045654EA0092201007
B1101044200712N00045651EA0092201007
B1101054200716N00045648EA0092201006
B1101064200719N00045645EA0092101006
B1101074200723N00045642EA0092101006
B1101084200728N00045640EA0091901005
B1101094200732N00045636EA0091801004
B1101104200736N00045633EA0091901004
B1101114200740N00045632EA0092001005
B1101124200745N00045631EA0092301006
B1101134200749N00045631EA0092501008
B1101144200753N00045629EA0092301008
B1101154200755N00045624EA0092301007
B1101164200755N00045618EA0092001006
B1101174200754N00045612EA0092101006
B1101184200754N00045606EA0092001006
B1101194200755N00045602EA0091901005
B1101204200757N00045597EA0091701003
B1101214200758N00045592EA0091601001
B1101224200759N00045586EA0091401000
B1101234200760N00045580EA0091300998
B1101244200760N00045574EA0091100996
B1101254200761N00045568EA0091000995
B1101264200763N00045561EA0090900993
B1101274200764N00045555EA0090800993
B1101284200765N00045549EA0090600992
B1101294200766N00045544EA0090500990
B1101304200767N00045538EA0090300988
B1101314200768N00045533EA0090300986
B1101324200769N00045527EA0090000984
B1101334200769N00045521EA0089800982
B1101344200770N00045515EA0089600980
B1101354200770N00045509EA0089300978
B1101364200770N00045502EA0089300977
B1101374200771N00045496EA0089300976
B1101384200771N00045490EA0089200976
B1101394200770N00045483EA0089200976
B1101404200769N00045477EA0089200975
B1101414200769N00045471EA0089100975
B1101424200769N00045465EA0089100974
B1101434200770N00045458EA0089100974
B1101444200770N00045452EA0089100973
B1101454200770N00045446EA0089100973
B1101464200771N00045441EA0088900971
B1101474200772N00045437EA0088500969
B1101484200773N00045431EA0088100966
B1101494200773N00045425EA0088000963
B1101504200773N00045418EA0087700960
B1101514200773N00045411EA0087400958
B1101524200772N00045404EA0087400956
B1101534200772N00045398EA0087300955
B1101544200771N00045392EA0087000952
B1101554200770N00045386EA0086800950
B1101564200768N00045380EA0086400947
B1101574200766N00045374EA0086200944
B1101584200762N00045368EA0085800941
B1101594200758N00045364EA0086000940
B1102004200753N00045361EA0085900939
B1102014200748N00045360EA0085800939
B1102024200742N00045361EA0085700938
B1102034200736N00045363EA0085600937
B1102044200731N00045364EA0085600936
B1102054200726N00045365EA0085500935
B1102064200720N00045365EA0085300933
B1102074200716N00045366EA0085000930
B1102084200711N00045368EA0084700928
B1102094200705N00045369EA0084500925
B1102104200700N00045371EA0084100921
B1102114200694N00045372EA0083900918
B1102124200689N00045373EA0083700916
B1102134200683N00045375EA0083400913
B1102144200677N00045377EA0083300911
B1102154200672N00045379EA0083000909
B1102164200666N00045382EA0082900907
B1102174200661N00045385EA0082700905
B1102184200655N00045389EA0082500903
B1102194200650N00045393EA0082300901
B1102204200644N00045397EA0082000899
B1102214200639N00045400EA0081900897
B1102224200633N00045404EA0081600894
B1102234200627N00045409EA0081500892
B1102244200621N00045415EA0081300889
B1102254200616N00045420EA0081100888
B1102264200611N00045426EA0081100887
B1102274200606N00045431EA0081000886
B1102284200601N00045436EA0080900884
B1102294200597N00045442EA0080600882
B1102304200592N00045448EA0080200880
B1102314200587N00045454EA0080000878
B1102324200581N00045460EA0079900877
B1102334200576N00045464EA0080000877
B1102344200570N00045467EA0080000876
B1102354200565N00045469EA0079900874
B1102364200560N00045472EA0079600872
B1102374200554N00045475EA0079300869
B1102384200549N00045479EA0079100867
B1102394200543N00045483EA0079000865
B1102404200537N00045486EA0078800864
B1102414200530N00045487EA0078600862
B1102424200523N00045489EA0078600860
B1102434200517N00045491EA0078500860
B1102444200511N00045493EA0078500859
B1102454200505N00045495EA0078400858
B1102464200500N00045497EA0078200857
B1102474200493N00045498EA0077900854
B1102484200486N00045501EA0077700852
B1102494200479N00045505EA0077800852
B1102504200473N00045510EA0077900853
B1102514200468N00045514EA0078200855
B1102524200463N00045518EA0078300857
B1102534200458N00045520EA0078500858
B1102544200454N00045521EA0078300858
B1102554200450N00045520EA0078100856
B1102564200445N00045517EA0077900854
B1102574200440N00045512EA0077900854
B1102584200435N00045508EA0078200855
B1102594200430N00045506EA0078100856
B1103004200425N00045504EA0078200856
B1103014200420N00045502EA0078000855
B1103024200415N00045498EA0078000854
B1103034200410N00045494EA0077800853
B1103044200404N00045490EA0078000854
B1103054200398N00045487EA0078100855
B1103064200393N00045484EA0078400857
B1103074200389N00045482EA0078300858
B1103084200384N00045480EA0078200857
B1103094200380N00045479EA0078100856
B1103104200375N00045477EA0078000854
B1103114200370N00045475EA0077800853
B1103124200365N00045473EA0077800853
B1103134200360N00045470EA0077800852
B1103144200355N00045467EA0077800853
B1103154200350N00045464EA0077900853
B1103164200345N00045464EA0078000853
B1103174200340N00045467EA0077900853
B1103184200335N00045472EA0078000854
B1103194200331N00045478EA0078100854
B1103204200329N00045485EA0078000854
B1103214200328N00045493EA0078000854
B1103224200329N00045501EA0077900853
B1103234200332N00045509EA0077900853
B1103244200336N00045516EA0077800854
B1103254200340N00045521EA0078100855
B1103264200345N00045524EA0078100856
B1103274200349N00045525EA0078100855
B1103284200354N00045523EA0078000854
B1103294200358N00045519EA0077800854
B1103304200361N00045514EA0077900854
B1103314200364N00045508EA0077900855
B1103324200367N00045502EA0078100855
B1103334200369N00045497EA0078000855
B1103344200372N00045493EA0078000855
B1103354200376N00045490EA0077900854
B1103364200381N00045490EA0077600851
B1103374200386N00045491EA0077400849
B1103384200391N00045495EA0077100847
B1103394200395N00045502EA0077100845
B1103404200397N00045511EA0076600842
B1103414200394N00045520EA0076300837
B1103424200388N00045526EA0075800832
B1103434200380N00045527EA0075700830
B1103444200374N00045522EA0075600828
B1103454200372N00045516EA0075400828
B1103464200373N00045511EA0075400827
B1103474200375N00045506EA0075400826
B1103484200377N00045503EA0075300825
B1103494200379N00045499EA0075300823
B1103504200383N00045497EA0075000821
B1103514200388N00045497EA0074500818
B1103524200393N00045500EA0074400814
B1103534200398N00045508EA0074200812
B1103544200400N00045518EA0074200812
B1103554200399N00045527EA0074200812
B1103564200396N00045536EA0074300813
B1103574200393N00045543EA0074200813
B1103584200390N00045550EA0074200813
B1103594200388N00045557EA0074000811
B1104004200384N00045564EA0073600808
B1104014200380N00045573EA0073200805
B1104024200376N00045582EA0073200803
B1104034200373N00045592EA0073300804
B1104044200371N00045601EA0073500806
B1104054200370N00045609EA0073600807
B1104064200369N00045617EA0073700808
B1104074200368N00045626EA0073600807
B1104084200367N00045635EA0073600807
B1104094200366N00045645EA0073500807
B1104104200366N00045655EA0073600808
B1104114200368N00045664EA0073800809
B1104124200369N00045672EA0073900810
B1104134200371N00045680EA0073900811
B1104144200372N00045687EA0073900811
B1104154200373N00045695EA0074000811
B1104164200374N00045703EA0073700810
B1104174200375N00045713EA0073600809
B1104184200375N00045724EA0073600809
B1104194200376N00045734EA0073900810
B1104204200376N00045743EA0074000812
B1104214200377N00045751EA0074200813
B1104224200379N00045758EA0074300814
B1104234200380N00045766EA0074200814
B1104244200382N00045775EA0074400814
B1104254200385N00045784EA0074300813
B1104264200388N00045793EA0074000813
B1104274200393N00045802EA0073900814
B1104284200398N00045809EA0074300816
B1104294200402N00045817EA0074700818
B1104304200403N00045825EA0074600819
B1104314200402N00045834EA0074600818
B1104324200400N00045842EA0074400817
B1104334200398N00045851EA0074300816
B1104344200396N00045860EA0074000814
B1104354200395N00045868EA0074000812
B1104364200393N00045878EA0073600810
B1104374200391N00045887EA0073700808
B1104384200389N00045896EA0073600807
B1104394200387N00045905EA0073400806
B1104404200386N00045914EA0073200804
B1104414200385N00045923EA0072900802
B1104424200383N00045932EA0072800799
B1104434200382N00045942EA0072700798
B1104444200380N00045950EA0072600796
B1104454200379N00045958EA0072500794
B1104464200378N00045966EA0072000791
B1104474200376N00045974EA0071700788
B1104484200376N00045983EA0071600786
B1104494200377N00045991EA0071500785
B1104504200378N00045999EA0071300783
B1104514200380N00046007EA0071200782
B1104524200382N00046016EA0071000780
B1104534200382N00046024EA0070900778
B1104544200383N00046033EA0070800777
B1104554200383N00046041EA0070700776
B1104564200384N00046050EA0070500774
B1104574200386N00046058EA0070400772
B1104584200387N00046066EA0070000770
B1104594200388N00046075EA0070000768
B1105004200389N00046084EA0069800766
B1105014200389N00046093EA0069600764
B1105024200388N00046101EA0069400761
B1105034200387N00046110EA0069100759
B1105044200386N00046118EA0068700756
B1105054200384N00046126EA0068600752
B1105064200382N00046134EA0068000749
B1105074200379N00046142EA0067700745
B1105084200376N00046150EA0067300742
B1105094200372N00046156EA0067100740
B1105104200368N00046162EA0067100738
B1105114200364N00046168EA0067000736
B1105124200361N00046174EA0066800735
B1105134200358N00046181EA0066600733
B1105144200355N00046188EA0066500731
B1105154200351N00046195EA0066100728
B1105164200346N00046201EA0066000727
B1105174200340N00046206EA0066200729
B1105184200335N00046209EA0066800734
B1105194200330N00046210EA0067300738
B1105204200327N00046210EA0067500740
B1105214200323N00046211EA0067500741
B1105224200319N00046212EA0067200739
B1105234200314N00046212EA0067100738
B1105244200308N00046211EA0067100738
B1105254200303N00046207EA0067200738
B1105264200300N00046201EA0067000737
B1105274200299N00046194EA0067200736
B1105284200298N00046187EA0067000736
B1105294200296N00046179EA0066800736
B1105304200293N00046172EA0066800735
B1105314200291N00046164EA0066900736
B1105324200289N00046156EA0067000736
B1105334200288N00046148EA0067000737
B1105344200287N00046139EA0067100738
B1105354200285N00046132EA0067200739
B1105364200284N00046125EA0067300740
B1105374200284N00046118EA0067000740
B1105384200285N00046111EA0067200739
B1105394200286N00046105EA0067100739
B1105404200286N00046099EA0066900737
B1105414200286N00046093EA0066700735
B1105424200285N00046087EA0066400732
B1105434200285N00046080EA0066000730
B1105444200285N00046073EA0066100728
B1105454200285N00046067EA0065900726
B1105464200285N00046061EA0065900725
B1105474200285N00046056EA0065600724
B1105484200285N00046051EA0065500722
B1105494200284N00046047EA0065100720
B1105504200284N00046041EA0064900717
B1105514200283N00046034EA0064600714
B1105524200281N00046027EA0064500713
B1105534200279N00046020EA0064600712
B1105544200278N00046014EA0064600713
B1105554200276N00046008EA0064600712
B1105564200274N00046002EA0064400712
B1105574200271N00045996EA0064300711
B1105584200270N00045990EA0064300711
B1105594200270N00045984EA0064500711
B1106004200270N00045979EA0064500712
B1106014200269N00045975EA0064500712
B1106024200270N00045971EA0064400711
B1106034200270N00045967EA0064200708
B1106044200271N00045962EA0063900706
B1106054200272N00045956EA0063700704
B1106064200273N00045951EA0063600703
B1106074200273N00045945EA0063600702
B1106084200274N00045940EA0063600702
B1106094200276N00045935EA0063500701
B1106104200277N00045931EA0063300699
B1106114200279N00045926EA0062900696
B1106124200281N00045920EA0062800694
B1106134200282N00045914EA0062700692
B1106144200283N00045909EA0062500690
B1106154200283N00045903EA0062400690
B1106164200283N00045897EA0062400689
B1106174200283N00045892EA0062400689
B1106184200281N00045887EA0062400688
B1106194200279N00045884EA0062200687
B1106204200276N00045880EA0061800685
B1106214200273N00045877EA0061500682
B1106224200270N00045872EA0061300680
B1106234200267N00045866EA0061300679
B1106244200264N00045862EA0061600680
B1106254200261N00045859EA0061600680
B1106264200257N00045857EA0061500680
B1106274200255N00045854EA0061300678
B1106284200255N00045850EA0060600674
B1106294200259N00045845EA0060300669
B1106304200265N00045844EA0060100666
B1106314200272N00045848EA0060100666
B1106324200276N00045855EA0060100666
B1106334200277N00045865EA0059900664
B1106344200275N00045875EA0059800661
B1106354200271N00045884EA0059700660
B1106364200267N00045891EA0059700660
B1106374200262N00045896EA0059600659
B1106384200257N00045899EA0059500658
B1106394200252N00045902EA0059300656
B1106404200247N00045906EA0059100653
B1106414200242N00045910EA0058600649
B1106424200236N00045914EA0058400646
B1106434200230N00045918EA0058300645
B1106444200224N00045922EA0058200644
B1106454200219N00045926EA0057900642
B1106464200214N00045932EA0057800640
B1106474200209N00045938EA0057700638
B1106484200204N00045945EA0057600637
B1106494200199N00045952EA0057600636
B1106504200194N00045960EA0057600636
B1106514200190N00045966EA0057700637
B1106524200186N00045972EA0057700637
B1106534200184N00045980EA0057400635
B1106544200182N00045988EA0057200632
B1106554200181N00045998EA0056800630
B1106564200181N00046008EA0056700628
B1106574200183N00046018EA0056700628
B1106584200185N00046027EA0056700628
B1106594200187N00046035EA0056900629
B1107004200190N00046043EA0057200631
B1107014200193N00046049EA0057300633
B1107024200196N00046055EA0057300633
B1107034200198N00046061EA0057200632
B1107044200201N00046067EA0056800629
B1107054200204N00046073EA0056600627
B1107064200208N00046079EA0056600626
B1107074200213N00046083EA0056400625
B1107084200217N00046084EA0056300622
B1107094200222N00046082EA0055800619
B1107104200225N00046077EA0055300615
B1107114200227N00046069EA0055100613
B1107124200227N00046062EA0055100612
B1107134200227N00046056EA0055300612
B1107144200227N00046051EA0055300612
B1107154200227N00046046EA0055100610
B1107164200227N00046041EA0054900609
B1107174200227N00046036EA0054800607
B1107184200228N00046031EA0054600607
B1107194200229N00046026EA0054800607
B1107204200229N00046021EA0054700607
B1107214200230N00046018EA0054700606
B1107224200230N00046015EA0054800606
B1107234200229N00046012EA0054600606
B1107244200230N00046010EA0054600606
B1107254200231N00046008EA0054700606
B1107264200232N00046007EA0054600606
B1107274200233N00046005EA0054600606
B1107284200234N00046003EA0054700607
B1107294200235N00046002EA0054700606
B1107304200236N00046000EA0054700607
B1107314200237N00045999EA0054800607
B1107324200238N00045997EA0054800607
B1107334200240N00045995EA0054900608
B1107344200241N00045994EA0054900608
B1107354200242N00045993EA0054900608
B1107364200243N00045992EA0055000609
B1107374200245N00045991EA0055100608
B1107384200246N00045991EA0054800608
B1107394200248N00045991EA0054900608
B1107404200249N00045991EA0055000608
B1107414200250N00045991EA0055000609
B1107424200251N00045992EA0055000609
B1107434200251N00045993EA0055100609
B1107444200251N00045993EA0055100609
B1107454200251N00045993EA0055100609
B1107464200251N00045993EA0055100609
B1107474200251N00045992EA0055000609
B1107484200251N00045993EA0055000609
B1107494200251N00045993EA0055100608
B1107504200251N00045993EA0055100608
B1107514200251N00045993EA0054900608
B1107524200251N00045993EA0055100608
B1107534200251N00045993EA0055100608
B1107544200251N00045993EA0055100608
B1107554200251N00045993EA0055100608
B1107564200251N00045994EA0055200608
GDMQNgWd9M4UvoKBdXlFlbWXPEuwuktnwsicVdIPh8SvCuQ0Drh9nP/EsHlsFLM6d5GRErRGJ/Yv
Gr74amkKIZfX/7PzzHdlhKFUNmG1itS4tpzY6J5KoXMfa5qj1mkZOfeRlmq/yr0QdhMnhfMfwThw
GuhHMCnujSclDwnMeIiTgU=
