AXSFwn
HFDTEDATE:070826
HFPLTPILOTINCHARGE:Xiaohui Wei
HFCM2CREW2:NIL
HFGTYGLIDERTYPE:Advance Epsilon 9 
HFGIDGLIDERID:NIL
HFDTMGPSDATUM:WGS84
HFRFWFIRMWAREVERSION:EU_2.00V
HFRHWHARDWAREVERSION:4.5
HFFTYFRTYPE:alfapilot,Voolaris Tracker
HFGPSRECEIVER:UBLOX,M10,72,50000,GPS,GLO,GAL
HFPRSPRESSALTSENSOR:ST,LPS22HB,10000
HFALGALTGPS:GEO
HFALPALTPRESSURE:ISA
HFTZNTIMEZONE:0
B1027254202760N00044781EA0145101568
B1027264202760N00044781EA0145101568
B1027274202760N00044781EA0145101568
B1027284202760N00044781EA0145101568
B1027294202760N00044781EA0145101567
B1027304202760N00044781EA0145101567
B1027314202760N00044781EA0145101567
B1027324202760N00044781EA0145101567
B1027334202760N00044781EA0145201568
B1027344202761N00044782EA0145101568
B1027354202761N00044782EA0145301568
B1027364202762N00044783EA0145101567
B1027374202761N00044783EA0145101567
B1027384202761N00044784EA0145001568
B1027394202760N00044784EA0145101568
B1027404202760N00044784EA0145001568
B1027414202759N00044784EA0145101567
B1027424202758N00044784EA0145001567
B1027434202756N00044785EA0144901566
B1027444202754N00044787EA0144701566
B1027454202751N00044788EA0144701565
B1027464202748N00044788EA0144701565
B1027474202746N00044789EA0144901565
B1027484202743N00044788EA0145001564
B1027494202741N00044786EA0144601563
B1027504202738N00044785EA0144501561
B1027514202734N00044784EA0144501561
B1027524202729N00044784EA0144501561
B1027534202725N00044784EA0144501562
B1027544202722N00044786EA0144601562
B1027554202718N00044787EA0144401562
B1027564202714N00044788EA0144301560
B1027574202710N00044791EA0144101559
B1027584202706N00044795EA0144101558
B1027594202702N00044800EA0144101557
B1028004202698N00044806EA0143901556
B1028014202693N00044811EA0143801556
B1028024202689N00044815EA0143801556
B1028034202685N00044820EA0143701555
B1028044202682N00044826EA0143701555
B1028054202679N00044832EA0143801554
B1028064202676N00044838EA0143701553
B1028074202673N00044844EA0143701553
B1028084202669N00044851EA0143601552
B1028094202666N00044857EA0143701553
B1028104202663N00044864EA0143901554
B1028114202660N00044871EA0144101556
B1028124202657N00044877EA0144201558
B1028134202654N00044881EA0144401560
B1028144202650N00044885EA0144601562
B1028154202647N00044889EA0144901564
B1028164202644N00044894EA0145001565
B1028174202641N00044900EA0144901566
B1028184202639N00044906EA0144901566
B1028194202636N00044912EA0145001566
B1028204202633N00044919EA0145101566
B1028214202630N00044925EA0145301568
B1028224202628N00044931EA0145301569
B1028234202626N00044937EA0145301570
B1028244202625N00044943EA0145501570
B1028254202623N00044950EA0145801572
B1028264202621N00044956EA0146001574
B1028274202619N00044962EA0146401577
B1028284202618N00044968EA0146401580
B1028294202618N00044974EA0146701582
B1028304202618N00044981EA0146601583
B1028314202617N00044988EA0146801584
B1028324202614N00044994EA0146901585
B1028334202611N00044999EA0147101587
B1028344202608N00045004EA0147201589
B1028354202607N00045009EA0147301590
B1028364202606N00045015EA0147301590
B1028374202605N00045020EA0147101589
B1028384202602N00045025EA0147001588
B1028394202600N00045031EA0147001588
B1028404202597N00045037EA0147001588
B1028414202595N00045043EA0147201589
B1028424202594N00045048EA0147401590
B1028434202592N00045052EA0147501592
B1028444202589N00045056EA0147401592
B1028454202586N00045060EA0147401592
B1028464202583N00045064EA0147401592
B1028474202579N00045068EA0147501592
B1028484202575N00045071EA0147601593
B1028494202572N00045074EA0147601593
B1028504202569N00045077EA0147501594
B1028514202566N00045079EA0147601594
B1028524202563N00045080EA0147601594
B1028534202560N00045082EA0147601593
B1028544202557N00045083EA0147601593
B1028554202553N00045084EA0147501593
B1028564202550N00045084EA0147401594
B1028574202547N00045084EA0147501594
B1028584202543N00045085EA0147601594
B1028594202540N00045086EA0147701595
B1029004202537N00045087EA0147601594
B1029014202534N00045087EA0147501593
B1029024202531N00045086EA0147301592
B1029034202527N00045084EA0147301591
B1029044202523N00045082EA0147201590
B1029054202519N00045080EA0147201590
B1029064202515N00045079EA0147301590
B1029074202512N00045079EA0147401591
B1029084202509N00045078EA0147301591
B1029094202507N00045076EA0147201590
B1029104202506N00045073EA0147201589
B1029114202505N00045068EA0147101589
B1029124202505N00045062EA0147301590
B1029134202505N00045057EA0147501593
B1029144202505N00045052EA0147701595
B1029154202505N00045049EA0147901596
B1029164202504N00045045EA0147901596
B1029174202505N00045039EA0147901597
B1029184202507N00045033EA0148201600
B1029194202510N00045027EA0148701604
B1029204202512N00045023EA0149101608
B1029214202513N00045018EA0149201611
B1029224202515N00045015EA0149301612
B1029234202517N00045011EA0149301612
B1029244202519N00045007EA0149201612
B1029254202522N00045002EA0149301612
B1029264202524N00044996EA0149501614
B1029274202526N00044990EA0149701616
B1029284202528N00044986EA0149801617
B1029294202531N00044983EA0149701617
B1029304202534N00044980EA0149401615
B1029314202538N00044976EA0149201613
B1029324202543N00044971EA0149301612
B1029334202548N00044966EA0149401614
B1029344202553N00044962EA0149601616
B1029354202557N00044959EA0149701618
B1029364202561N00044956EA0149801618
B1029374202565N00044952EA0149601617
B1029384202569N00044949EA0149501616
B1029394202576N00044946EA0149501615
B1029404202582N00044946EA0149601615
B1029414202589N00044948EA0149601616
B1029424202594N00044952EA0149601617
B1029434202599N00044957EA0149601617
B1029444202604N00044963EA0149501616
B1029454202607N00044970EA0149401616
B1029464202610N00044979EA0149401615
B1029474202610N00044988EA0149401616
B1029484202612N00044997EA0149801618
B1029494202614N00045005EA0149801620
B1029504202617N00045014EA0150001620
B1029514202620N00045024EA0150101621
B1029524202622N00045034EA0150301623
B1029534202624N00045043EA0150601626
B1029544202624N00045051EA0151101629
B1029554202624N00045058EA0151201633
B1029564202622N00045064EA0151601635
B1029574202621N00045069EA0151701637
B1029584202619N00045073EA0151801638
B1029594202617N00045078EA0151901639
B1030004202614N00045084EA0152001640
B1030014202612N00045091EA0152101641
B1030024202609N00045097EA0152201643
B1030034202607N00045102EA0152401644
B1030044202606N00045109EA0152501645
B1030054202604N00045116EA0152401645
B1030064202603N00045124EA0152401645
B1030074202601N00045132EA0152501645
B1030084202600N00045139EA0152501646
B1030094202599N00045146EA0152501646
B1030104202599N00045152EA0152101644
B1030114202598N00045158EA0152101642
B1030124202597N00045164EA0151601638
B1030134202595N00045171EA0151401636
B1030144202592N00045178EA0151501635
B1030154202590N00045184EA0151601635
B1030164202588N00045190EA0151601636
B1030174202586N00045194EA0151501636
B1030184202585N00045199EA0151301634
B1030194202582N00045203EA0150901631
B1030204202579N00045210EA0150901628
B1030214202576N00045216EA0150901628
B1030224202574N00045223EA0150901630
B1030234202573N00045229EA0151201631
B1030244202572N00045234EA0150901631
B1030254202570N00045240EA0150801629
B1030264202568N00045247EA0150701627
B1030274202566N00045255EA0150501625
B1030284202564N00045262EA0150601625
B1030294202561N00045270EA0150701627
B1030304202559N00045276EA0151001629
B1030314202557N00045281EA0151401631
B1030324202555N00045286EA0151201632
B1030334202552N00045292EA0151301633
B1030344202550N00045298EA0151201632
B1030354202546N00045304EA0151101632
B1030364202542N00045310EA0151201632
B1030374202539N00045317EA0151401635
B1030384202537N00045324EA0151601637
B1030394202535N00045331EA0152001638
B1030404202534N00045337EA0151801639
B1030414202532N00045344EA0151801639
B1030424202529N00045351EA0151801638
B1030434202526N00045358EA0151901639
B1030444202523N00045366EA0151901639
B1030454202522N00045374EA0151901639
B1030464202522N00045382EA0151701639
B1030474202520N00045390EA0151701638
B1030484202518N00045397EA0151701637
B1030494202516N00045405EA0151701638
B1030504202513N00045412EA0151901639
B1030514202512N00045419EA0151801639
B1030524202510N00045427EA0151701638
B1030534202508N00045434EA0151601637
B1030544202506N00045441EA0151401635
B1030554202502N00045448EA0151301634
B1030564202499N00045455EA0151301633
B1030574202495N00045461EA0151201633
B1030584202492N00045467EA0151201633
B1030594202490N00045474EA0151001632
B1031004202487N00045480EA0150801629
B1031014202483N00045488EA0150501627
B1031024202480N00045495EA0150601626
B1031034202475N00045503EA0150701627
B1031044202471N00045511EA0151101630
B1031054202467N00045517EA0151201632
B1031064202464N00045522EA0151201633
B1031074202460N00045528EA0151401634
B1031084202456N00045533EA0151401635
B1031094202451N00045538EA0151601637
B1031104202446N00045544EA0152001641
B1031114202443N00045550EA0152401644
B1031124202440N00045556EA0152401646
B1031134202438N00045563EA0152401646
B1031144202435N00045569EA0152201645
B1031154202431N00045575EA0152201644
B1031164202428N00045584EA0152201643
B1031174202425N00045593EA0152201644
B1031184202425N00045603EA0152501645
B1031194202424N00045612EA0152901648
B1031204202424N00045620EA0152901649
B1031214202422N00045626EA0152901650
B1031224202420N00045632EA0152801650
B1031234202419N00045639EA0152801650
B1031244202417N00045647EA0152701649
B1031254202416N00045655EA0152801650
B1031264202414N00045662EA0153001650
B1031274202412N00045668EA0152801650
B1031284202409N00045674EA0152801649
B1031294202407N00045680EA0152701648
B1031304202404N00045687EA0152301645
B1031314202401N00045694EA0152301644
B1031324202398N00045702EA0152201643
B1031334202394N00045709EA0152301643
B1031344202391N00045715EA0152101642
B1031354202388N00045722EA0152001641
B1031364202386N00045730EA0151901641
B1031374202383N00045739EA0151801640
B1031384202381N00045748EA0151901641
B1031394202379N00045757EA0152201642
B1031404202378N00045765EA0152301644
B1031414202377N00045773EA0152301645
B1031424202376N00045780EA0152301645
B1031434202375N00045788EA0152201644
B1031444202374N00045796EA0152101643
B1031454202373N00045805EA0152201643
B1031464202373N00045813EA0152101643
B1031474202372N00045821EA0152301644
B1031484202371N00045829EA0152301644
B1031494202369N00045836EA0152101643
B1031504202367N00045844EA0151901641
B1031514202366N00045853EA0151701640
B1031524202364N00045862EA0151701639
B1031534202362N00045870EA0151801639
B1031544202359N00045877EA0151801639
B1031554202357N00045883EA0151701638
B1031564202355N00045890EA0151401637
B1031574202352N00045897EA0151201634
B1031584202348N00045905EA0151001633
B1031594202343N00045913EA0151101632
B1032004202339N00045921EA0151101632
B1032014202335N00045929EA0151101632
B1032024202333N00045937EA0150901631
B1032034202330N00045945EA0150801630
B1032044202327N00045954EA0150701629
B1032054202323N00045963EA0150801629
B1032064202320N00045973EA0151001631
B1032074202318N00045983EA0151201633
B1032084202317N00045991EA0151401635
B1032094202316N00046000EA0151301635
B1032104202314N00046008EA0151201634
B1032114202313N00046017EA0151001632
B1032124202311N00046027EA0150801630
B1032134202310N00046038EA0150801629
B1032144202309N00046049EA0150901629
B1032154202307N00046059EA0150901629
B1032164202305N00046068EA0150801629
B1032174202301N00046075EA0150701628
B1032184202296N00046080EA0150601627
B1032194202291N00046084EA0150601626
B1032204202285N00046085EA0150601626
B1032214202281N00046084EA0150501625
B1032224202278N00046080EA0150601626
B1032234202276N00046075EA0150801627
B1032244202275N00046071EA0150901629
B1032254202275N00046067EA0150901629
B1032264202276N00046063EA0150901629
B1032274202277N00046058EA0150901629
B1032284202279N00046052EA0150901630
B1032294202281N00046046EA0151201631
B1032304202283N00046041EA0151401633
B1032314202284N00046036EA0151501635
B1032324202285N00046031EA0151301635
B1032334202285N00046026EA0151401636
B1032344202286N00046019EA0151401636
B1032354202287N00046013EA0151701638
B1032364202288N00046008EA0151901640
B1032374202289N00046004EA0152101641
B1032384202289N00046001EA0151801640
B1032394202289N00045998EA0151601638
B1032404202289N00045994EA0151101634
B1032414202289N00045989EA0150801631
B1032424202290N00045983EA0150901630
B1032434202291N00045977EA0150701629
B1032444202292N00045972EA0150701628
B1032454202293N00045968EA0150601627
B1032464202293N00045964EA0150401626
B1032474202294N00045959EA0150301623
B1032484202296N00045954EA0150101621
B1032494202299N00045949EA0149801620
B1032504202301N00045944EA0149901620
B1032514202303N00045939EA0149801619
B1032524202304N00045935EA0149601618
B1032534202305N00045930EA0149601616
B1032544202306N00045925EA0149401615
B1032554202307N00045920EA0149301614
B1032564202309N00045914EA0149301613
B1032574202311N00045910EA0149301613
B1032584202313N00045906EA0149201613
B1032594202315N00045902EA0149101612
B1033004202317N00045899EA0148901610
B1033014202319N00045894EA0148701608
B1033024202322N00045890EA0148701606
B1033034202324N00045885EA0148201604
B1033044202326N00045880EA0148201603
B1033054202327N00045874EA0148201602
B1033064202328N00045868EA0148201602
B1033074202328N00045862EA0148201602
B1033084202329N00045856EA0148201603
B1033094202329N00045850EA0148101603
B1033104202330N00045845EA0148301603
B1033114202330N00045841EA0148101603
B1033124202330N00045836EA0147901601
B1033134202330N00045831EA0147601599
B1033144202330N00045824EA0147601597
B1033154202330N00045818EA0147401596
B1033164202331N00045812EA0147601596
B1033174202332N00045807EA0147401595
B1033184202334N00045802EA0147201594
B1033194202335N00045797EA0147001592
B1033204202336N00045791EA0146801589
B1033214202337N00045785EA0146501587
B1033224202339N00045778EA0146401585
B1033234202340N00045771EA0146401584
B1033244202341N00045764EA0146601585
B1033254202341N00045758EA0146601586
B1033264202342N00045753EA0146501585
B1033274202343N00045748EA0146201583
B1033284202345N00045742EA0145901579
B1033294202346N00045735EA0145601576
B1033304202348N00045727EA0145701576
B1033314202349N00045720EA0145901578
B1033324202350N00045714EA0146301580
B1033334202351N00045709EA0146201582
B1033344202353N00045704EA0146301582
B1033354202355N00045698EA0146301582
B1033364202357N00045692EA0146201582
B1033374202358N00045686EA0146201582
B1033384202360N00045680EA0146201581
B1033394202362N00045674EA0146001579
B1033404202364N00045668EA0145601577
B1033414202366N00045660EA0145401575
B1033424202368N00045652EA0145401574
B1033434202370N00045645EA0145501573
B1033444202372N00045638EA0145601574
B1033454202373N00045632EA0145801575
B1033464202374N00045627EA0145601574
B1033474202376N00045621EA0145401573
B1033484202380N00045615EA0145401573
B1033494202383N00045608EA0145801575
B1033504202387N00045602EA0146201579
B1033514202389N00045597EA0146401581
B1033524202391N00045593EA0146501582
B1033534202392N00045588EA0146201581
B1033544202395N00045581EA0146201580
B1033554202400N00045574EA0146201580
B1033564202404N00045567EA0146601583
B1033574202408N00045562EA0147201588
B1033584202411N00045558EA0147601592
B1033594202413N00045554EA0147501593
B1034004202415N00045549EA0147401593
B1034014202418N00045544EA0147301592
B1034024202421N00045538EA0147401592
B1034034202424N00045533EA0147401593
B1034044202426N00045527EA0147601594
B1034054202428N00045522EA0147701595
B1034064202430N00045517EA0147701595
B1034074202432N00045512EA0147701595
B1034084202435N00045507EA0147601595
B1034094202438N00045502EA0147401594
B1034104202441N00045495EA0147601594
B1034114202443N00045489EA0147701595
B1034124202447N00045483EA0148101598
B1034134202450N00045478EA0148301600
B1034144202453N00045473EA0148201601
B1034154202455N00045468EA0148201601
B1034164202456N00045463EA0148201600
B1034174202458N00045456EA0148101599
B1034184202461N00045449EA0148001599
B1034194202464N00045442EA0148301601
B1034204202466N00045436EA0148201602
B1034214202468N00045431EA0148301602
B1034224202470N00045426EA0148301602
B1034234202473N00045421EA0148201602
B1034244202476N00045415EA0148001600
B1034254202479N00045408EA0148001600
B1034264202482N00045400EA0148101601
B1034274202484N00045394EA0148401602
B1034284202486N00045388EA0148301603
B1034294202489N00045383EA0148401604
B1034304202491N00045378EA0148201604
B1034314202494N00045372EA0148401604
B1034324202497N00045364EA0148401604
B1034334202500N00045358EA0148601605
B1034344202502N00045352EA0148601606
B1034354202506N00045346EA0148501606
B1034364202509N00045340EA0148601606
B1034374202513N00045333EA0148701608
B1034384202516N00045326EA0149001610
B1034394202518N00045319EA0149301612
B1034404202520N00045313EA0149401614
B1034414202523N00045308EA0149401615
B1034424202526N00045303EA0149501616
B1034434202529N00045297EA0149601616
B1034444202532N00045291EA0149601617
B1034454202535N00045284EA0149701618
B1034464202537N00045277EA0149801619
B1034474202539N00045270EA0150101622
B1034484202541N00045264EA0150301625
B1034494202543N00045258EA0150501626
B1034504202545N00045253EA0150601627
B1034514202548N00045247EA0150801628
B1034524202550N00045241EA0150901630
B1034534202552N00045235EA0151001632
B1034544202554N00045231EA0151101633
B1034554202556N00045226EA0151101633
B1034564202559N00045221EA0151001632
B1034574202563N00045214EA0150901632
B1034584202566N00045208EA0151101633
B1034594202570N00045202EA0151401636
B1035004202573N00045196EA0151601638
B1035014202577N00045191EA0151701639
B1035024202580N00045186EA0151701639
B1035034202584N00045180EA0151801640
B1035044202589N00045174EA0151801640
B1035054202593N00045167EA0152001641
B1035064202596N00045161EA0152101643
B1035074202600N00045156EA0152301644
B1035084202604N00045151EA0152301645
B1035094202608N00045146EA0152301645
B1035104202612N00045140EA0152201644
B1035114202617N00045133EA0152301644
B1035124202622N00045126EA0152601647
B1035134202626N00045119EA0152701650
B1035144202629N00045114EA0153001652
B1035154202631N00045108EA0153101654
B1035164202633N00045103EA0153101654
B1035174202635N00045098EA0152801652
B1035184202637N00045091EA0152801650
B1035194202639N00045084EA0152701650
B1035204202641N00045077EA0153001652
B1035214202643N00045071EA0153501655
B1035224202645N00045066EA0153701658
B1035234202648N00045062EA0154001660
B1035244202650N00045057EA0153901660
B1035254202653N00045052EA0153701660
B1035264202656N00045046EA0153701660
B1035274202658N00045040EA0153801661
B1035284202659N00045035EA0153701661
B1035294202661N00045031EA0153901661
B1035304202662N00045026EA0153901660
B1035314202664N00045022EA0153601659
B1035324202665N00045017EA0153201656
B1035334202666N00045011EA0153101653
B1035344202668N00045006EA0152701651
B1035354202670N00045001EA0152701649
B1035364202671N00044995EA0152601647
B1035374202671N00044989EA0152401645
B1035384202670N00044983EA0152301645
B1035394202670N00044977EA0152501645
B1035404202671N00044972EA0152501646
B1035414202673N00044967EA0152401646
B1035424202674N00044962EA0152401646
B1035434202675N00044957EA0152201645
B1035444202677N00044952EA0152001643
B1035454202679N00044946EA0152001641
B1035464202681N00044941EA0151901641
B1035474202683N00044935EA0151901641
B1035484202685N00044930EA0152001641
B1035494202686N00044924EA0152001641
B1035504202688N00044918EA0151901641
B1035514202690N00044911EA0151901641
B1035524202691N00044904EA0152001641
B1035534202692N00044899EA0151901641
B1035544202693N00044894EA0151801640
B1035554202694N00044889EA0151501637
B1035564202695N00044883EA0151501634
B1035574202695N00044877EA0151101631
B1035584202696N00044871EA0150901630
B1035594202696N00044864EA0151001629
B1036004202696N00044859EA0150601629
B1036014202696N00044855EA0150501628
B1036024202695N00044850EA0150401626
B1036034202695N00044845EA0150101623
B1036044202695N00044839EA0149801620
B1036054202697N00044833EA0149601618
B1036064202698N00044826EA0149401616
B1036074202700N00044820EA0149401615
B1036084202701N00044814EA0149401614
B1036094202703N00044809EA0149201613
B1036104202706N00044804EA0149201612
B1036114202710N00044799EA0149001610
B1036124202714N00044794EA0148901609
B1036134202717N00044789EA0148901608
B1036144202721N00044783EA0148801606
B1036154202725N00044778EA0148701605
B1036164202728N00044772EA0148601604
B1036174202732N00044767EA0148301603
B1036184202736N00044761EA0148201601
B1036194202740N00044756EA0148001599
B1036204202744N00044751EA0148001598
B1036214202748N00044745EA0147701596
B1036224202751N00044739EA0147401595
B1036234202754N00044733EA0147401593
B1036244202757N00044727EA0147301591
B1036254202761N00044721EA0147101589
B1036264202764N00044715EA0146901588
B1036274202767N00044709EA0146801586
B1036284202770N00044702EA0146601584
B1036294202772N00044695EA0146501584
B1036304202774N00044687EA0146801585
B1036314202775N00044679EA0147001586
B1036324202775N00044673EA0147101588
B1036334202776N00044667EA0147201589
B1036344202778N00044661EA0147101589
B1036354202779N00044655EA0147101590
B1036364202780N00044647EA0147501592
B1036374202781N00044640EA0147901596
B1036384202783N00044635EA0148401600
B1036394202786N00044631EA0148601603
B1036404202789N00044627EA0148501605
B1036414202791N00044622EA0148501605
B1036424202793N00044616EA0148501604
B1036434202794N00044610EA0148501605
B1036444202795N00044603EA0148801606
B1036454202795N00044598EA0148801607
B1036464202795N00044594EA0148801606
B1036474202793N00044589EA0148801606
B1036484202790N00044585EA0148801606
B1036494202787N00044580EA0149101607
B1036504202784N00044577EA0149101609
B1036514202781N00044575EA0149101609
B1036524202777N00044574EA0149001609
B1036534202773N00044571EA0149001608
B1036544202769N00044568EA0148901608
B1036554202765N00044564EA0148801608
B1036564202761N00044561EA0149001607
B1036574202757N00044560EA0148901607
B1036584202752N00044559EA0148901607
B1036594202746N00044559EA0148901607
B1037004202742N00044558EA0149101608
B1037014202738N00044558EA0149101610
B1037024202734N00044558EA0149201611
B1037034202729N00044559EA0149301612
B1037044202725N00044561EA0149501614
B1037054202719N00044564EA0149701616
B1037064202715N00044568EA0150001618
B1037074202711N00044572EA0150201620
B1037084202708N00044577EA0150201621
B1037094202705N00044581EA0150101620
B1037104202701N00044587EA0149901618
B1037114202697N00044594EA0149701616
B1037124202691N00044602EA0149701617
B1037134202687N00044608EA0150101619
B1037144202683N00044614EA0150401622
B1037154202681N00044619EA0150401623
B1037164202678N00044625EA0150301622
B1037174202675N00044632EA0150301621
B1037184202672N00044640EA0150301620
B1037194202669N00044648EA0150201620
B1037204202668N00044658EA0150101620
B1037214202668N00044667EA0150101619
B1037224202670N00044676EA0150001618
B1037234202674N00044685EA0150001618
B1037244202680N00044692EA0150101619
B1037254202686N00044696EA0150001619
B1037264202692N00044697EA0150101619
B1037274202699N00044695EA0150101619
B1037284202705N00044692EA0150301622
B1037294202710N00044687EA0150701626
B1037304202714N00044682EA0151001630
B1037314202716N00044677EA0151401632
B1037324202718N00044672EA0151501634
B1037334202720N00044666EA0151501635
B1037344202722N00044659EA0151501636
B1037354202723N00044652EA0151701638
B1037364202724N00044646EA0152001640
B1037374202724N00044641EA0152201641
B1037384202723N00044636EA0152301643
B1037394202722N00044631EA0152501644
B1037404202720N00044627EA0152701646
B1037414202718N00044623EA0152801648
B1037424202716N00044619EA0152801648
B1037434202713N00044617EA0152601647
B1037444202709N00044615EA0152501646
B1037454202703N00044614EA0152701647
B1037464202698N00044613EA0153101651
B1037474202693N00044613EA0153401654
B1037484202689N00044615EA0153501656
B1037494202685N00044619EA0153501657
B1037504202680N00044624EA0153501657
B1037514202676N00044629EA0153501657
B1037524202671N00044634EA0153601658
B1037534202668N00044640EA0153701659
B1037544202664N00044646EA0153801660
B1037554202661N00044654EA0153901659
B1037564202658N00044662EA0153701659
B1037574202656N00044671EA0153801659
B1037584202655N00044681EA0153901660
B1037594202655N00044691EA0154101661
B1038004202658N00044700EA0154101661
B1038014202662N00044707EA0154001661
B1038024202667N00044713EA0153901661
B1038034202673N00044717EA0153901660
B1038044202680N00044720EA0153801660
B1038054202686N00044721EA0154001660
B1038064202692N00044721EA0153901660
B1038074202697N00044719EA0153801660
B1038084202701N00044717EA0153701659
B1038094202705N00044714EA0153601658
B1038104202710N00044711EA0153801659
B1038114202715N00044707EA0153801660
B1038124202718N00044703EA0153901661
B1038134202721N00044697EA0154001662
B1038144202722N00044690EA0154101663
B1038154202723N00044683EA0154201664
B1038164202725N00044676EA0154601667
B1038174202725N00044670EA0154801670
B1038184202725N00044665EA0155001672
B1038194202723N00044660EA0155001673
B1038204202720N00044656EA0155101674
B1038214202717N00044652EA0155301675
B1038224202713N00044648EA0155501676
B1038234202709N00044646EA0155601677
B1038244202704N00044647EA0155601678
B1038254202700N00044650EA0155601679
B1038264202695N00044653EA0155801680
B1038274202690N00044656EA0155801681
B1038284202686N00044659EA0156001681
B1038294202683N00044663EA0155801681
B1038304202679N00044668EA0155801679
B1038314202676N00044676EA0155401678
B1038324202672N00044683EA0155301676
B1038334202668N00044691EA0155301675
B1038344202666N00044700EA0155201675
B1038354202664N00044709EA0155001674
B1038364202664N00044720EA0154901672
B1038374202667N00044731EA0154801671
B1038384202671N00044739EA0154801670
B1038394202676N00044746EA0154701670
B1038404202682N00044751EA0154901670
B1038414202688N00044755EA0154901671
B1038424202693N00044757EA0154801670
B1038434202699N00044758EA0154501669
B1038444202704N00044756EA0154401667
B1038454202710N00044753EA0154201665
B1038464202715N00044749EA0154301665
B1038474202720N00044744EA0154501666
B1038484202723N00044741EA0154701668
B1038494202726N00044738EA0154801669
B1038504202729N00044735EA0154801670
B1038514202732N00044731EA0154501669
B1038524202736N00044726EA0154501669
B1038534202738N00044721EA0154701670
B1038544202740N00044716EA0154901672
B1038554202740N00044712EA0155101674
B1038564202740N00044708EA0155301675
B1038574202741N00044703EA0155301676
B1038584202742N00044699EA0155201676
B1038594202743N00044695EA0155201676
B1039004202742N00044691EA0155101674
B1039014202740N00044686EA0155201674
B1039024202737N00044682EA0155101674
B1039034202734N00044679EA0155201675
B1039044202732N00044677EA0155401676
B1039054202729N00044676EA0155401676
B1039064202727N00044675EA0155101675
B1039074202724N00044675EA0155001673
B1039084202721N00044674EA0154601670
B1039094202716N00044674EA0154401667
B1039104202711N00044676EA0154301666
B1039114202705N00044679EA0154301665
B1039124202700N00044683EA0154501666
B1039134202695N00044687EA0154601668
B1039144202692N00044693EA0154601669
B1039154202689N00044700EA0154601668
B1039164202687N00044706EA0154501667
B1039174202684N00044713EA0154101664
B1039184202680N00044721EA0154001663
B1039194202677N00044731EA0153901662
B1039204202676N00044741EA0154301663
B1039214202675N00044752EA0154301664
B1039224202674N00044761EA0154201664
B1039234202673N00044769EA0154001663
B1039244202672N00044777EA0153701659
B1039254202671N00044786EA0153001654
B1039264202670N00044797EA0152701650
B1039274202669N00044808EA0152801648
B1039284202667N00044819EA0152901649
B1039294202664N00044827EA0153001651
B1039304202663N00044833EA0153201652
B1039314202662N00044840EA0152701650
B1039324202660N00044847EA0152501647
B1039334202658N00044856EA0152001642
B1039344202655N00044864EA0151801639
B1039354202651N00044872EA0151901639
B1039364202648N00044878EA0151801639
B1039374202646N00044884EA0151401637
B1039384202645N00044891EA0151301633
B1039394202643N00044898EA0150901629
B1039404202640N00044905EA0150401625
B1039414202637N00044914EA0150201622
B1039424202634N00044922EA0150201621
B1039434202632N00044929EA0150101621
B1039444202630N00044936EA0150001619
B1039454202628N00044942EA0149601617
B1039464202626N00044950EA0149201613
B1039474202623N00044959EA0149001611
B1039484202621N00044968EA0148901609
B1039494202619N00044978EA0148901608
B1039504202618N00044987EA0148801608
B1039514202616N00044997EA0148701607
B1039524202614N00045007EA0148701606
B1039534202611N00045017EA0148701607
B1039544202608N00045027EA0148901608
B1039554202606N00045036EA0149101610
B1039564202603N00045045EA0149301613
B1039574202599N00045053EA0149501614
B1039584202596N00045061EA0149501615
B1039594202593N00045069EA0149601617
B1040004202590N00045077EA0149901618
B1040014202586N00045084EA0149901619
B1040024202583N00045091EA0150001620
B1040034202579N00045098EA0150301622
B1040044202576N00045105EA0150401624
B1040054202573N00045112EA0150701627
B1040064202569N00045119EA0150801629
B1040074202565N00045124EA0151201632
B1040084202560N00045130EA0151301633
B1040094202556N00045137EA0151201634
B1040104202552N00045145EA0151401635
B1040114202549N00045153EA0151601636
B1040124202545N00045161EA0151801638
B1040134202541N00045167EA0151901640
B1040144202537N00045173EA0152101641
B1040154202533N00045178EA0152301643
B1040164202529N00045185EA0152401645
B1040174202526N00045191EA0152501646
B1040184202524N00045198EA0152701647
B1040194202521N00045204EA0152701648
B1040204202518N00045210EA0152801649
B1040214202515N00045217EA0152801650
B1040224202511N00045223EA0153101651
B1040234202508N00045229EA0153301653
B1040244202505N00045235EA0153501656
B1040254202502N00045241EA0153801659
B1040264202500N00045246EA0153801660
B1040274202497N00045252EA0153801659
B1040284202495N00045258EA0153501658
B1040294202491N00045264EA0153501656
B1040304202487N00045270EA0153801656
B1040314202482N00045276EA0153801657
B1040324202479N00045282EA0153701658
B1040334202475N00045287EA0153801658
B1040344202472N00045293EA0153401656
B1040354202469N00045299EA0153201654
B1040364202465N00045306EA0152801651
B1040374202461N00045312EA0152901650
B1040384202457N00045319EA0152801650
B1040394202455N00045326EA0152901649
B1040404202453N00045333EA0152601648
B1040414202450N00045340EA0152401646
B1040424202448N00045349EA0152001643
B1040434202446N00045359EA0152001641
B1040444202444N00045369EA0152101642
B1040454202443N00045378EA0152501644
B1040464202443N00045386EA0152501646
B1040474202444N00045395EA0152401646
B1040484202443N00045403EA0152301645
B1040494202443N00045412EA0152201644
B1040504202442N00045422EA0152201643
B1040514202441N00045432EA0152301644
B1040524202441N00045441EA0152301644
B1040534202441N00045450EA0152201643
B1040544202440N00045459EA0152101643
B1040554202439N00045468EA0152101642
B1040564202438N00045476EA0152201642
B1040574202435N00045484EA0152201643
B1040584202432N00045490EA0152301644
B1040594202428N00045496EA0152501646
B1041004202425N00045501EA0152801648
B1041014202422N00045507EA0152801650
B1041024202419N00045512EA0153101651
B1041034202416N00045517EA0153101652
B1041044202413N00045523EA0152901652
B1041054202409N00045529EA0153001651
B1041064202405N00045536EA0152901651
B1041074202402N00045542EA0152901651
B1041084202398N00045548EA0152901651
B1041094202394N00045554EA0152901651
B1041104202391N00045559EA0152901651
B1041114202387N00045565EA0152901651
B1041124202384N00045570EA0152801650
B1041134202380N00045575EA0152601649
B1041144202376N00045581EA0152601648
B1041154202372N00045586EA0152501646
B1041164202367N00045592EA0152201645
B1041174202364N00045599EA0152301645
B1041184202360N00045605EA0152301645
B1041194202356N00045611EA0152201645
B1041204202352N00045616EA0152201643
B1041214202348N00045621EA0151901642
B1041224202343N00045626EA0151701640
B1041234202338N00045631EA0151701639
B1041244202334N00045637EA0151501638
B1041254202329N00045642EA0151501638
B1041264202324N00045648EA0151501637
B1041274202320N00045654EA0151401635
B1041284202315N00045660EA0151101634
B1041294202310N00045666EA0151001632
B1041304202306N00045673EA0150901632
B1041314202303N00045681EA0151001631
B1041324202301N00045689EA0150801630
B1041334202299N00045697EA0150901630
B1041344202296N00045707EA0150901630
B1041354202294N00045715EA0151101632
B1041364202292N00045724EA0151201633
B1041374202292N00045731EA0151301633
B1041384202292N00045739EA0151001631
B1041394202292N00045748EA0150701628
B1041404202291N00045758EA0150401626
B1041414202291N00045768EA0150401625
B1041424202291N00045779EA0150601626
B1041434202292N00045788EA0150701627
B1041444202292N00045797EA0150501627
B1041454202292N00045806EA0150201625
B1041464202291N00045816EA0150001623
B1041474202289N00045827EA0150101623
B1041484202288N00045838EA0150301623
B1041494202287N00045848EA0150501625
B1041504202286N00045857EA0150601626
B1041514202285N00045866EA0150501626
B1041524202284N00045876EA0150401624
B1041534202283N00045887EA0150001622
B1041544202283N00045899EA0150001621
B1041554202283N00045912EA0150101621
B1041564202284N00045925EA0150501623
B1041574202285N00045937EA0150701626
B1041584202284N00045948EA0150701627
B1041594202284N00045959EA0150801628
B1042004202284N00045970EA0150701628
B1042014202284N00045981EA0150701628
B1042024202283N00045993EA0150601627
B1042034202282N00046005EA0150601627
B1042044202280N00046016EA0150701627
B1042054202278N00046028EA0150801628
B1042064202276N00046037EA0150801628
B1042074202272N00046046EA0150701628
B1042084202266N00046053EA0150501626
B1042094202260N00046057EA0150401624
B1042104202253N00046057EA0150201621
B1042114202247N00046054EA0149901619
B1042124202244N00046048EA0149901618
B1042134202244N00046040EA0149801618
B1042144202246N00046034EA0149801618
B1042154202250N00046029EA0149901618
B1042164202253N00046024EA0150001619
B1042174202255N00046018EA0149901619
B1042184202257N00046012EA0150001618
B1042194202259N00046006EA0150001619
B1042204202263N00046000EA0150101620
B1042214202267N00045995EA0150301622
B1042224202271N00045990EA0150501624
B1042234202274N00045985EA0150701626
B1042244202278N00045982EA0150801627
B1042254202281N00045978EA0150901628
B1042264202284N00045974EA0150901628
B1042274202288N00045969EA0151001628
B1042284202291N00045964EA0151101630
B1042294202294N00045959EA0151401632
B1042304202296N00045954EA0151401633
B1042314202297N00045950EA0151501634
B1042324202297N00045945EA0151601634
B1042334202297N00045940EA0151401635
B1042344202295N00045935EA0151501635
B1042354202292N00045931EA0151701637
B1042364202288N00045929EA0151701638
B1042374202284N00045929EA0151701638
B1042384202279N00045932EA0151601638
B1042394202274N00045937EA0151601637
B1042404202269N00045945EA0151601636
B1042414202266N00045955EA0151601636
B1042424202264N00045966EA0151801637
B1042434202265N00045977EA0151801639
B1042444202268N00045987EA0152101641
B1042454202272N00045996EA0152301643
B1042464202275N00046004EA0152301644
B1042474202279N00046011EA0152301644
B1042484202282N00046020EA0152001643
B1042494202287N00046029EA0152101642
B1042504202292N00046038EA0152301643
B1042514202297N00046047EA0152501645
B1042524202301N00046055EA0152601647
B1042534202305N00046063EA0152701647
B1042544202308N00046073EA0152701647
B1042554202311N00046083EA0152901648
B1042564202314N00046094EA0153001651
B1042574202316N00046104EA0153201653
B1042584202316N00046114EA0153501656
B1042594202316N00046122EA0153901659
B1043004202317N00046131EA0153801660
B1043014202317N00046139EA0153701659
B1043024202319N00046148EA0153601657
B1043034202320N00046158EA0153201654
B1043044202321N00046169EA0152901651
B1043054202322N00046181EA0152901650
B1043064202321N00046191EA0152901649
B1043074202318N00046201EA0152601647
B1043084202314N00046208EA0152201643
B1043094202308N00046215EA0151801639
B1043104202301N00046219EA0151401636
B1043114202294N00046219EA0151201633
B1043124202288N00046217EA0150901630
B1043134202285N00046212EA0150801628
B1043144202284N00046206EA0150901627
B1043154202284N00046201EA0151001628
B1043164202284N00046196EA0151101630
B1043174202283N00046190EA0151001630
B1043184202282N00046185EA0151001630
B1043194202283N00046179EA0151001630
B1043204202284N00046174EA0151101631
B1043214202286N00046169EA0151201631
B1043224202288N00046164EA0151001631
B1043234202289N00046158EA0151301632
B1043244202291N00046153EA0151301632
B1043254202292N00046149EA0151301633
B1043264202294N00046145EA0151201632
B1043274202295N00046141EA0150901630
B1043284202296N00046136EA0150701628
B1043294202297N00046131EA0150801627
B1043304202298N00046125EA0150701627
B1043314202298N00046119EA0150901628
B1043324202298N00046114EA0151001629
B1043334202299N00046110EA0151101630
B1043344202299N00046105EA0151101631
B1043354202300N00046099EA0151201632
B1043364202300N00046094EA0151401634
B1043374202300N00046090EA0151601636
B1043384202300N00046086EA0151701638
B1043394202301N00046082EA0151601638
B1043404202302N00046078EA0151501637
B1043414202303N00046073EA0151501636
B1043424202305N00046068EA0151501636
B1043434202306N00046063EA0151601637
B1043444202308N00046059EA0151701637
B1043454202309N00046055EA0151701638
B1043464202310N00046051EA0151601637
B1043474202312N00046046EA0151501636
B1043484202313N00046042EA0151301635
B1043494202315N00046037EA0151501635
B1043504202316N00046032EA0151701636
B1043514202317N00046027EA0151801637
B1043524202319N00046023EA0151801638
B1043534202320N00046018EA0151801639
B1043544202322N00046013EA0151801639
B1043554202322N00046007EA0152001639
B1043564202322N00046002EA0151901639
B1043574202322N00045997EA0152101640
B1043584202322N00045992EA0152201642
B1043594202323N00045988EA0152301643
B1044004202323N00045983EA0152501644
B1044014202322N00045978EA0152601645
B1044024202322N00045972EA0152801648
B1044034202321N00045967EA0153001650
B1044044202322N00045964EA0153101652
B1044054202324N00045961EA0153101652
B1044064202326N00045957EA0152801651
B1044074202327N00045953EA0152701649
B1044084202328N00045948EA0152801649
B1044094202330N00045943EA0152901649
B1044104202332N00045939EA0153001651
B1044114202334N00045935EA0153101652
B1044124202335N00045932EA0153001651
B1044134202336N00045927EA0152801650
B1044144202336N00045923EA0152601648
B1044154202337N00045918EA0152701647
B1044164202337N00045913EA0152601646
B1044174202338N00045908EA0152301645
B1044184202338N00045903EA0152101643
B1044194202338N00045898EA0151901641
B1044204202337N00045892EA0151701639
B1044214202335N00045887EA0151501637
B1044224202332N00045883EA0151401636
B1044234202328N00045881EA0151201634
B1044244202322N00045882EA0150901631
B1044254202316N00045885EA0150801628
B1044264202311N00045892EA0150401626
B1044274202306N00045900EA0150301625
B1044284202303N00045909EA0150101623
B1044294202301N00045918EA0150001621
B1044304202298N00045927EA0149901620
B1044314202296N00045937EA0149701618
B1044324202295N00045947EA0149701616
B1044334202294N00045957EA0149401615
B1044344202294N00045967EA0149301613
B1044354202294N00045977EA0149201612
B1044364202294N00045988EA0149001610
B1044374202294N00045999EA0148801609
B1044384202296N00046009EA0148701608
B1044394202298N00046020EA0148601607
B1044404202300N00046030EA0148501605
B1044414202302N00046040EA0148401604
B1044424202304N00046050EA0148301603
B1044434202306N00046061EA0148101601
B1044444202308N00046071EA0148001599
B1044454202309N00046082EA0147701597
B1044464202310N00046092EA0147501595
B1044474202311N00046102EA0147301592
B1044484202312N00046112EA0146801589
B1044494202312N00046122EA0146701586
B1044504202311N00046133EA0146501585
B1044514202309N00046144EA0146401584
B1044524202305N00046153EA0146601584
B1044534202301N00046161EA0146701585
B1044544202298N00046167EA0146701586
B1044554202294N00046174EA0146901586
B1044564202289N00046180EA0146801587
B1044574202285N00046186EA0147201589
B1044584202281N00046189EA0147301591
B1044594202278N00046191EA0147201590
B1045004202276N00046191EA0146901588
B1045014202273N00046191EA0146801585
B1045024202269N00046189EA0146301581
B1045034202265N00046186EA0146101578
B1045044202263N00046182EA0145901576
B1045054202261N00046177EA0145601573
B1045064202259N00046173EA0145501571
B1045074202257N00046169EA0145301569
B1045084202255N00046165EA0144901566
B1045094202253N00046161EA0144601563
B1045104202251N00046156EA0144301560
B1045114202250N00046150EA0144101558
B1045124202249N00046145EA0144101557
B1045134202247N00046141EA0144101555
B1045144202245N00046137EA0143701553
B1045154202243N00046133EA0143501550
B1045164202242N00046128EA0143201549
B1045174202241N00046124EA0143201547
B1045184202240N00046119EA0143001546
B1045194202239N00046114EA0143201546
B1045204202238N00046110EA0143201547
B1045214202237N00046106EA0143201547
B1045224202237N00046102EA0143201547
B1045234202237N00046097EA0143001546
B1045524202264N00045960EA0141801533
B1045534202265N00045956EA0141601533
B1045544202265N00045951EA0141601533
B1045554202265N00045947EA0141601533
B1045564202265N00045942EA0141601533
B1045574202266N00045937EA0141501532
B1045584202266N00045933EA0141501531
B1045594202267N00045928EA0141401530
B1046004202267N00045923EA0141301528
B1046014202267N00045918EA0141001526
B1046024202268N00045912EA0140801524
B1046034202269N00045905EA0140701523
B1046044202270N00045899EA0140701523
B1046054202270N00045892EA0140901524
B1046064202271N00045886EA0141001526
B1046074202272N00045881EA0141101527
B1046084202272N00045877EA0140801526
B1046094202272N00045872EA0140601524
B1046104202272N00045867EA0140501521
B1046114202273N00045861EA0140301519
B1046124202274N00045853EA0140301519
B1046134202275N00045846EA0140501520
B1046144202276N00045841EA0140601522
B1046154202277N00045836EA0140701523
B1046164202277N00045832EA0140701524
B1046174202278N00045828EA0140801524
B1046184202279N00045824EA0140801524
B1046194202281N00045820EA0140601523
B1046204202282N00045815EA0140601522
B1046214202284N00045811EA0140401521
B1046224202285N00045806EA0140301521
B1046234202287N00045802EA0140401520
B1046244202288N00045798EA0140401520
B1046254202289N00045794EA0140301519
B1046264202290N00045790EA0140101518
B1046274202292N00045786EA0139901516
B1046284202293N00045781EA0139801515
B1046294202293N00045776EA0139701514
B1046304202294N00045770EA0139701513
B1046314202295N00045765EA0139701513
B1046324202295N00045760EA0139601511
B1046334202296N00045754EA0139401510
B1046344202296N00045748EA0139201509
B1046354202298N00045740EA0139201508
B1046364202301N00045734EA0139501510
B1046374202303N00045727EA0139701512
B1046384202305N00045721EA0139901514
B1046394202306N00045715EA0140101515
B1046404202308N00045708EA0139901517
B1046414202310N00045702EA0140301517
B1046424202313N00045697EA0140101517
B1046434202316N00045693EA0140001516
B1046444202318N00045689EA0139801513
B1046454202320N00045682EA0139501511
B1046464202321N00045675EA0139401509
B1046474202323N00045668EA0139401508
B1046484202324N00045662EA0139301508
B1046494202326N00045656EA0139301507
B1046504202327N00045650EA0139101506
B1046514202328N00045643EA0138901504
B1046524202330N00045637EA0138901503
B1046534202332N00045630EA0138801502
B1046544202334N00045624EA0138801502
B1046554202336N00045617EA0138801502
B1046564202338N00045611EA0138801502
B1046574202340N00045606EA0138901503
B1046584202342N00045600EA0139001503
B1046594202344N00045595EA0139101504
B1047004202346N00045590EA0139201504
B1047014202348N00045585EA0139201504
B1047024202350N00045580EA0138901503
B1047034202352N00045575EA0138901502
B1047044202354N00045569EA0138801501
B1047054202356N00045564EA0138701500
B1047064202358N00045559EA0138701499
B1047074202360N00045554EA0138701498
B1047084202362N00045549EA0138401497
B1047094202363N00045544EA0138301495
B1047104202364N00045537EA0138201493
B1047114202365N00045530EA0138001492
B1047124202366N00045523EA0138001492
B1047134202366N00045516EA0138101493
B1047144202366N00045510EA0138101493
B1047154202367N00045504EA0138101493
B1047164202367N00045499EA0138001492
B1047174202367N00045492EA0137901491
B1047184202367N00045485EA0138001491
B1047194202368N00045477EA0138101492
B1047204202369N00045470EA0138301494
B1047214202369N00045464EA0138401496
B1047224202369N00045458EA0138501497
B1047234202368N00045451EA0138601498
B1047244202368N00045445EA0138601499
B1047254202369N00045438EA0138701499
B1047264202371N00045433EA0138801500
B1047274202372N00045427EA0138701500
B1047284202372N00045422EA0138601500
B1047294202372N00045416EA0138601499
B1047304202373N00045411EA0138601498
B1047314202374N00045404EA0138601498
B1047324202375N00045398EA0138601499
B1047334202376N00045392EA0138701500
B1047344202377N00045387EA0138801500
B1047354202378N00045381EA0138801500
B1047364202378N00045375EA0138701500
B1047374202379N00045368EA0138601499
B1047384202380N00045362EA0138601498
B1047394202380N00045356EA0138401497
B1047404202381N00045349EA0138401497
B1047414202382N00045343EA0138301497
B1047424202384N00045337EA0138501497
B1047434202385N00045331EA0138401496
B1047444202387N00045326EA0138101495
B1047454202388N00045319EA0138001493
B1047464202389N00045313EA0137801491
B1047474202390N00045306EA0137801491
B1047484202393N00045300EA0137701491
B1047494202395N00045294EA0137701490
B1047504202396N00045288EA0137701489
B1047514202397N00045282EA0137401487
B1047524202399N00045276EA0137301485
B1047534202401N00045268EA0137201484
B1047544202404N00045262EA0137301484
B1047554202407N00045255EA0137301484
B1047564202409N00045249EA0137201484
B1047574202412N00045243EA0137301485
B1047584202415N00045237EA0137401486
B1047594202417N00045231EA0137601488
B1048004202420N00045226EA0137901490
B1048014202424N00045222EA0138001491
B1048024202428N00045217EA0138001492
B1048034202432N00045212EA0138101493
B1048044202437N00045207EA0138201495
B1048054202441N00045203EA0138401496
B1048064202444N00045198EA0138501497
B1048074202447N00045192EA0138601498
B1048084202451N00045187EA0138601499
B1048094202455N00045181EA0138801499
B1048104202459N00045176EA0138801501
B1048114202463N00045171EA0139001501
B1048124202467N00045166EA0138901502
B1048134202471N00045161EA0139001502
B1048144202475N00045155EA0139101503
B1048154202479N00045150EA0139201505
B1048164202483N00045145EA0139401506
B1048174202487N00045141EA0139601507
B1048184202491N00045136EA0139501507
B1048194202496N00045131EA0139601508
B1048204202500N00045125EA0139601509
B1048214202504N00045120EA0139901510
B1048224202508N00045115EA0140001512
B1048234202512N00045109EA0140001513
B1048244202517N00045104EA0140201514
B1048254202522N00045099EA0140201515
B1048264202527N00045094EA0140401516
B1048274202531N00045089EA0140301515
B1048284202535N00045084EA0140201515
B1048294202540N00045078EA0140301515
B1048304202546N00045071EA0140301516
B1048314202551N00045065EA0140501518
B1048324202555N00045060EA0140801519
B1048334202558N00045054EA0140901520
B1048344202562N00045049EA0140801521
B1048354202566N00045043EA0141001521
B1048364202569N00045037EA0141001522
B1048374202573N00045031EA0141001523
B1048384202576N00045024EA0141101524
B1048394202579N00045018EA0141201524
B1048404202583N00045011EA0141401526
B1048414202587N00045004EA0141601528
B1048424202591N00044998EA0141801531
B1048434202595N00044992EA0142101533
B1048444202598N00044987EA0142201534
B1048454202602N00044981EA0142401536
B1048464202606N00044974EA0142401537
B1048474202610N00044967EA0142701540
B1048484202613N00044960EA0143001543
B1048494202615N00044953EA0143301545
B1048504202618N00044946EA0143501548
B1048514202622N00044940EA0143501549
B1048524202627N00044934EA0143601550
B1048534202631N00044927EA0143601550
B1048544202635N00044920EA0143701551
B1048554202638N00044913EA0143801552
B1048564202642N00044906EA0143901553
B1048574202646N00044899EA0143901554
B1048584202651N00044893EA0144201556
B1048594202654N00044885EA0144501559
B1049004202658N00044878EA0144801562
B1049014202661N00044872EA0145101564
B1049024202664N00044866EA0145101566
B1049034202668N00044860EA0145301568
B1049044202672N00044854EA0145401568
B1049054202676N00044849EA0145401569
B1049064202679N00044844EA0145501569
B1049074202683N00044839EA0145401569
B1049084202688N00044835EA0145401569
B1049094202692N00044830EA0145401569
B1049104202696N00044826EA0145501569
B1049114202700N00044821EA0145401569
B1049124202703N00044816EA0145401569
B1049134202707N00044811EA0145401569
B1049144202711N00044805EA0145301568
B1049154202715N00044800EA0145201567
B1049164202719N00044795EA0145201567
B1049174202724N00044790EA0145201567
B1049184202728N00044785EA0145301567
B1049194202731N00044781EA0145201567
B1049204202735N00044776EA0145101566
B1049214202739N00044770EA0145001565
B1049224202743N00044763EA0144801564
B1049234202747N00044756EA0145001564
B1049244202749N00044749EA0145001565
B1049254202751N00044743EA0145101565
B1049264202752N00044737EA0145101566
B1049274202751N00044731EA0145201567
B1049284202750N00044726EA0145201568
B1049294202749N00044722EA0145201569
B1049304202746N00044719EA0145301569
B1049314202743N00044716EA0145301569
B1049324202740N00044716EA0145301570
B1049334202737N00044716EA0145401570
B1049344202734N00044718EA0145301570
B1049354202731N00044722EA0145301569
B1049364202728N00044725EA0145201569
B1049374202725N00044730EA0145101568
B1049384202724N00044735EA0144901566
B1049394202722N00044741EA0144701565
B1049404202720N00044748EA0144701563
B1049414202718N00044755EA0144501563
B1049424202715N00044762EA0144801564
B1049434202713N00044768EA0144901565
B1049444202711N00044773EA0145101565
B1049454202710N00044779EA0145001565
B1049464202708N00044785EA0145001565
B1049474202706N00044791EA0144901565
B1049484202704N00044798EA0145001565
B1049494202702N00044805EA0145101567
B1049504202701N00044812EA0145201567
B1049514202700N00044819EA0145301568
B1049524202698N00044825EA0145301569
B1049534202696N00044830EA0145301569
B1049544202694N00044835EA0145101568
B1049554202691N00044839EA0145001567
B1049564202688N00044844EA0145001566
B1049574202685N00044849EA0145101567
B1049584202681N00044854EA0145101568
B1049594202678N00044857EA0145401571
B1050004202675N00044861EA0145901575
B1050014202673N00044865EA0146201579
B1050024202672N00044869EA0146501581
B1050034202670N00044873EA0146501583
B1050044202667N00044878EA0146601583
B1050054202664N00044883EA0146701584
B1050064202662N00044887EA0147001587
B1050074202660N00044892EA0147001589
B1050084202659N00044896EA0147201590
B1050094202658N00044901EA0147201590
B1050104202655N00044905EA0147101590
B1050114202652N00044910EA0147201590
B1050124202649N00044915EA0147401592
B1050134202645N00044921EA0147601594
B1050144202643N00044927EA0147801597
B1050154202641N00044933EA0148201599
B1050164202639N00044938EA0148401602
B1050174202638N00044943EA0148501603
B1050184202636N00044948EA0148501605
B1050194202634N00044953EA0148701605
B1050204202632N00044959EA0148601606
B1050214202631N00044965EA0148901608
B1050224202630N00044971EA0149001609
B1050234202627N00044975EA0148901609
B1050244202624N00044977EA0148901608
B1050254202621N00044977EA0148801607
B1050264202618N00044974EA0148701606
B1050274202617N00044968EA0148601605
B1050284202620N00044960EA0148501604
B1050294202624N00044953EA0148701606
B1050304202629N00044947EA0148901608
B1050314202634N00044942EA0149201609
B1050324202638N00044936EA0149101609
B1050334202642N00044929EA0148901608
B1050344202647N00044921EA0149001608
B1050354202653N00044913EA0149101609
B1050364202659N00044906EA0149501613
B1050374202664N00044900EA0150001616
B1050384202669N00044894EA0150101619
B1050394202674N00044889EA0150301621
B1050404202679N00044883EA0150201621
B1050414202685N00044877EA0150201621
B1050424202692N00044871EA0150501623
B1050434202698N00044865EA0150801625
B1050444202704N00044859EA0150901627
B1050454202709N00044854EA0151001628
B1050464202713N00044848EA0151101629
B1050474202717N00044842EA0151001629
B1050484202720N00044836EA0151001629
B1050494202723N00044829EA0151001629
B1050504202727N00044822EA0151001629
B1050514202730N00044814EA0151101630
B1050524202733N00044807EA0151501633
B1050534202735N00044800EA0151901636
B1050544202736N00044794EA0151901638
B1050554202736N00044789EA0151901638
B1050564202734N00044784EA0151801637
B1050574202732N00044779EA0151701637
B1050584202729N00044775EA0151701637
B1050594202725N00044773EA0151601637
B1051004202720N00044773EA0151401636
B1051014202716N00044775EA0151401635
B1051024202712N00044778EA0151101633
B1051034202707N00044783EA0150901631
B1051044202704N00044788EA0150801629
B1051054202702N00044795EA0150401627
B1051064202701N00044804EA0150501626
B1051074202701N00044812EA0150501625
B1051084202700N00044820EA0150401624
B1051094202699N00044827EA0149801623
B1051104202697N00044835EA0150301622
B1051114202696N00044845EA0150701625
B1051124202696N00044853EA0150801629
B1051134202697N00044861EA0151301633
B1051144202698N00044866EA0151601636
B1051154202698N00044872EA0151501636
B1051164202697N00044878EA0151601637
B1051174202696N00044885EA0151701637
B1051184202695N00044893EA0151901639
B1051194202694N00044900EA0152101641
B1051204202694N00044906EA0152401643
B1051214202692N00044912EA0152501645
B1051224202690N00044919EA0152701647
B1051234202689N00044925EA0152901649
B1051244202687N00044930EA0152901650
B1051254202686N00044935EA0153001651
B1051264202684N00044940EA0153001651
B1051274202682N00044945EA0152901651
B1051284202679N00044951EA0153001652
B1051294202677N00044956EA0153401653
B1051304202676N00044962EA0153301653
B1051314202674N00044966EA0153201654
B1051324202672N00044971EA0153201653
B1051334202670N00044975EA0153201652
B1051344202667N00044980EA0153201652
B1051354202665N00044984EA0153201653
B1051364202662N00044987EA0153201653
B1051374202659N00044991EA0153101653
B1051384202657N00044995EA0153101653
B1051394202655N00045000EA0153101652
B1051404202652N00045005EA0153101652
B1051414202650N00045011EA0153301652
B1051424202649N00045018EA0153101653
B1051434202649N00045025EA0153101653
B1051444202648N00045032EA0153201654
B1051454202647N00045038EA0153301654
B1051464202646N00045043EA0153001654
B1051474202644N00045048EA0153001653
B1051484202643N00045054EA0152901652
B1051494202641N00045061EA0152801650
B1051504202639N00045067EA0152801650
B1051514202636N00045073EA0152801651
B1051524202634N00045078EA0153101652
B1051534202632N00045084EA0153301653
B1051544202630N00045089EA0153201654
B1051554202628N00045095EA0153201654
B1051564202625N00045100EA0153101653
B1051574202622N00045105EA0152901651
B1051584202619N00045111EA0152801650
B1051594202616N00045117EA0152801650
B1052004202614N00045123EA0152801650
B1052014202612N00045130EA0153001651
B1052024202610N00045136EA0153001652
B1052034202607N00045141EA0153101652
B1052044202605N00045146EA0152901651
B1052054202603N00045151EA0153001651
B1052064202601N00045157EA0152801650
B1052074202598N00045163EA0152801649
B1052084202596N00045169EA0152701649
B1052094202594N00045175EA0152701649
B1052104202592N00045180EA0152801649
B1052114202590N00045186EA0152701648
B1052124202587N00045192EA0152801648
B1052134202585N00045198EA0152601648
B1052144202582N00045204EA0152601647
B1052154202579N00045210EA0152601648
B1052164202577N00045216EA0152601648
B1052174202575N00045223EA0152901649
B1052184202573N00045230EA0152901651
B1052194202571N00045236EA0152901651
B1052204202569N00045242EA0152801650
B1052214202567N00045249EA0152501648
B1052224202564N00045255EA0152301645
B1052234202561N00045262EA0152101643
B1052244202558N00045269EA0152001642
B1052254202556N00045276EA0151901641
B1052264202554N00045283EA0151801640
B1052274202552N00045290EA0151701639
B1052284202550N00045297EA0151601638
B1052294202549N00045304EA0151501636
B1052304202547N00045312EA0151201635
B1052314202545N00045320EA0151201633
B1052324202542N00045327EA0151001632
B1052334202539N00045334EA0151001631
B1052344202535N00045340EA0151001632
B1052354202532N00045347EA0151401633
B1052364202530N00045354EA0151501635
B1052374202527N00045362EA0151601636
B1052384202524N00045368EA0151701637
B1052394202522N00045374EA0151601638
B1052404202519N00045381EA0151601638
B1052414202516N00045388EA0151701638
B1052424202513N00045396EA0151801639
B1052434202511N00045402EA0152001640
B1052444202509N00045408EA0152001641
B1052454202507N00045414EA0151901641
B1052464202505N00045420EA0151601639
B1052474202502N00045426EA0151501637
B1052484202499N00045433EA0151301634
B1052494202496N00045440EA0151201633
B1052504202493N00045447EA0151201633
B1052514202489N00045454EA0151301633
B1052524202485N00045460EA0151501634
B1052534202482N00045467EA0151501636
B1052544202478N00045473EA0151601636
B1052554202475N00045479EA0151501637
B1052564202472N00045487EA0151601637
B1052574202468N00045494EA0151801639
B1052584202465N00045501EA0152201642
B1052594202462N00045507EA0152401645
B1053004202459N00045512EA0152401646
B1053014202457N00045518EA0152401646
B1053024202454N00045525EA0152301647
B1053034202451N00045532EA0152501647
B1053044202449N00045539EA0152401647
B1053054202446N00045546EA0152401647
B1053064202444N00045554EA0152201645
B1053074202441N00045562EA0152201645
B1053084202438N00045570EA0152401645
B1053094202435N00045578EA0152401646
B1053104202432N00045586EA0152401646
B1053114202429N00045594EA0152301646
B1053124202427N00045602EA0152301645
B1053134202424N00045610EA0152301645
B1053144202422N00045618EA0152201644
B1053154202419N00045626EA0152001643
B1053164202417N00045635EA0152101643
B1053174202414N00045644EA0152201643
B1053184202411N00045653EA0152201643
B1053194202409N00045660EA0152001643
B1053204202408N00045668EA0151901641
B1053214202406N00045676EA0151801639
B1053224202403N00045685EA0151601638
B1053234202400N00045695EA0151601637
B1053244202398N00045704EA0151701638
B1053254202396N00045712EA0151701638
B1053264202394N00045721EA0151501637
B1053274202392N00045729EA0151401635
B1053284202389N00045738EA0151301633
B1053294202387N00045746EA0151201633
B1053304202384N00045754EA0151301633
B1053314202383N00045762EA0151301633
B1053324202381N00045769EA0151301633
B1053334202379N00045775EA0151201632
B1053344202376N00045782EA0151001631
B1053354202374N00045790EA0150901631
B1053364202371N00045798EA0151001630
B1053374202369N00045806EA0151001630
B1053384202366N00045814EA0151101631
B1053394202364N00045821EA0151301631
B1053404202361N00045829EA0150901630
B1053414202358N00045837EA0150901629
B1053424202355N00045846EA0150801628
B1053434202352N00045855EA0150801627
B1053444202349N00045863EA0150601626
B1053454202346N00045872EA0150501625
B1053464202344N00045880EA0150301623
B1053474202341N00045889EA0150201622
B1053484202338N00045899EA0150301622
B1053494202335N00045909EA0150501623
B1053504202333N00045919EA0150801626
B1053514202331N00045929EA0151201630
B1053524202328N00045936EA0151501633
B1053534202325N00045943EA0151501634
B1053544202323N00045949EA0151301633
B1053554202319N00045957EA0151001631
B1053564202315N00045966EA0151101630
B1053574202310N00045975EA0151501632
B1053584202306N00045984EA0151801635
B1053594202303N00045994EA0151901638
B1054004202301N00046003EA0152001638
B1054014202299N00046013EA0151701637
B1054024202297N00046023EA0151501636
B1054034202295N00046034EA0151801636
B1054044202293N00046044EA0151901637
B1054054202292N00046053EA0151901639
B1054064202289N00046061EA0152101640
B1054074202284N00046068EA0152101640
B1054084202278N00046073EA0152101641
B1054094202273N00046075EA0152201642
B1054104202269N00046073EA0152201641
B1054114202267N00046070EA0152001640
B1054124202267N00046066EA0151901638
B1054134202268N00046062EA0151701637
B1054144202269N00046058EA0151601636
B1054154202272N00046055EA0151501635
B1054164202274N00046051EA0151401633
B1054174202276N00046047EA0151301632
B1054184202279N00046043EA0151101631
B1054194202281N00046039EA0150901629
B1054204202283N00046035EA0150701627
B1054214202284N00046031EA0150601625
B1054224202285N00046027EA0150201622
B1054234202285N00046023EA0149801618
B1054244202285N00046018EA0149301615
B1054254202285N00046014EA0149101611
B1054264202285N00046009EA0149001609
B1054274202284N00046005EA0149001609
B1054284202284N00046001EA0148901608
B1054294202284N00045998EA0148701607
B1054304202284N00045994EA0148601605
B1054314202284N00045990EA0148401603
B1054324202284N00045987EA0148401601
B1054334202285N00045982EA0148101598
B1054344202286N00045978EA0147801597
B1054354202287N00045974EA0147701595
B1054364202286N00045970EA0147401592
B1054374202285N00045966EA0147301590
B1054384202284N00045961EA0146901588
B1054394202283N00045957EA0146801585
B1054404202282N00045952EA0146401583
B1054414202282N00045946EA0146401582
B1054424202282N00045941EA0146201580
B1054434202282N00045934EA0146001578
B1054444202283N00045928EA0145901576
B1054454202284N00045921EA0145801575
B1054464202286N00045915EA0145601574
B1054474202289N00045909EA0145601573
B1054484202291N00045903EA0145601573
B1054494202292N00045897EA0145601573
B1054504202293N00045891EA0145601572
B1054514202295N00045886EA0145601571
B1054524202297N00045881EA0145401570
B1054534202299N00045876EA0145301569
B1054544202301N00045871EA0145301568
B1054554202303N00045866EA0145101567
B1054564202305N00045861EA0144901566
B1054574202307N00045856EA0144701564
B1054584202309N00045850EA0144501562
B1054594202310N00045844EA0144401560
B1055004202311N00045838EA0144201558
B1055014202312N00045832EA0144001556
B1055024202314N00045826EA0143901555
B1055034202315N00045820EA0143801553
B1055044202317N00045814EA0143701551
B1055054202319N00045808EA0143501550
B1055064202322N00045802EA0143401550
B1055074202324N00045796EA0143501550
B1055084202325N00045790EA0143401550
B1055094202326N00045784EA0143501551
B1055104202326N00045779EA0143401551
B1055114202327N00045773EA0143401550
B1055124202329N00045767EA0143401550
B1055134202331N00045762EA0143401550
B1055144202332N00045756EA0143301550
B1055154202334N00045751EA0143401550
B1055164202335N00045745EA0143401549
B1055174202337N00045739EA0143401549
B1055184202339N00045733EA0143301549
B1055194202340N00045727EA0143401550
B1055204202341N00045722EA0143501549
B1055214202342N00045716EA0143401549
B1055224202343N00045711EA0143301548
B1055234202345N00045704EA0143001547
B1055244202347N00045697EA0143001546
B1055254202349N00045690EA0143101547
B1055264202350N00045683EA0143201548
B1055274202352N00045676EA0143401549
B1055284202354N00045670EA0143501550
B1055294202356N00045665EA0143501550
B1055304202358N00045659EA0143401550
B1055314202361N00045654EA0143301549
B1055324202363N00045647EA0143301548
B1055334202366N00045640EA0143301548
B1055344202368N00045633EA0143501549
B1055354202370N00045627EA0143401549
B1055364202371N00045621EA0143501549
B1055374202373N00045615EA0143301549
B1055384202375N00045608EA0143201548
B1055394202377N00045601EA0143301547
B1055404202380N00045593EA0143301548
B1055414202383N00045587EA0143401549
B1055424202386N00045581EA0143501550
B1055434202389N00045575EA0143501551
B1055444202391N00045568EA0143701552
B1055454202394N00045561EA0143901553
B1055464202396N00045554EA0144101557
B1055474202399N00045548EA0144501560
B1055484202401N00045543EA0144801563
B1055494202402N00045539EA0144801564
B1055504202403N00045535EA0144601563
B1055514202404N00045529EA0144301561
B1055524202406N00045522EA0144301559
B1055534202410N00045514EA0144301558
B1055544202413N00045507EA0144401561
B1055554202417N00045500EA0144801563
B1055564202419N00045493EA0144901565
B1055574202421N00045487EA0145001567
B1055584202424N00045481EA0145201568
B1055594202428N00045475EA0145401570
B1056004202431N00045469EA0145601573
B1056014202434N00045464EA0146001576
B1056024202437N00045458EA0146201578
B1056034202439N00045452EA0146101579
B1056044202441N00045446EA0146201580
B1056054202445N00045439EA0146501581
B1056064202449N00045433EA0146601584
B1056074202452N00045428EA0146801585
B1056084202455N00045424EA0146701584
B1056094202456N00045419EA0146401582
B1056104202457N00045413EA0145901578
B1056114202460N00045405EA0145701575
B1056124202463N00045398EA0145601574
B1056134202466N00045391EA0145701575
B1056144202468N00045384EA0145801575
B1056154202469N00045378EA0145801575
B1056164202470N00045372EA0145701575
B1056174202470N00045365EA0145501574
B1056184202470N00045358EA0145301572
B1056194202468N00045352EA0145301572
B1056204202466N00045345EA0145201571
B1056214202462N00045340EA0145501572
B1056224202459N00045334EA0145801574
B1056234202457N00045329EA0145601575
B1056244202453N00045326EA0145801575
B1056254202449N00045324EA0145701574
B1056264202444N00045322EA0145401572
B1056274202439N00045322EA0145401571
B1056284202433N00045324EA0145401571
B1056294202429N00045328EA0145201570
B1056304202425N00045334EA0145301570
B1056314202424N00045342EA0145201569
B1056324202423N00045350EA0145101569
B1056334202422N00045358EA0145001568
B1056344202420N00045366EA0144801566
B1056354202419N00045374EA0144901564
B1056364202418N00045383EA0144501562
B1056374202418N00045392EA0144301561
B1056384202417N00045401EA0144201560
B1056394202416N00045409EA0144101559
B1056404202414N00045418EA0144001558
B1056414202411N00045427EA0144001558
B1056424202408N00045436EA0143901558
B1056434202405N00045445EA0144101558
B1056444202402N00045453EA0144301560
B1056454202400N00045459EA0144401561
B1056464202397N00045465EA0144301561
B1056474202394N00045470EA0144201560
B1056484202390N00045475EA0144201559
B1056494202387N00045480EA0143801557
B1056504202383N00045486EA0143801556
B1056514202378N00045491EA0143801555
B1056524202374N00045497EA0143801555
B1056534202369N00045501EA0143701555
B1056544202364N00045504EA0143601554
B1056554202359N00045507EA0143401552
B1056564202354N00045510EA0143301550
B1056574202349N00045513EA0143201550
B1056584202344N00045516EA0143201549
B1056594202339N00045519EA0143201549
B1057004202334N00045522EA0143101548
B1057014202329N00045524EA0142801546
B1057024202323N00045526EA0142801544
B1057034202318N00045529EA0142701543
B1057044202312N00045531EA0142601542
B1057054202306N00045534EA0142501542
B1057064202301N00045536EA0142601541
B1057074202295N00045538EA0142601541
B1057084202290N00045541EA0142301539
B1057094202284N00045544EA0142301539
B1057104202278N00045547EA0142301539
B1057114202273N00045550EA0142401539
B1057124202268N00045553EA0142401540
B1057134202263N00045556EA0142301539
B1057144202259N00045559EA0142201537
B1057154202253N00045562EA0141801534
B1057164202247N00045566EA0141701532
B1057174202241N00045568EA0141601531
B1057184202234N00045570EA0141701532
B1057194202229N00045571EA0141701532
B1057204202224N00045573EA0141801531
B1057214202219N00045575EA0141401530
B1057224202213N00045577EA0141101527
B1057234202207N00045578EA0140901525
B1057244202200N00045578EA0141001524
B1057254202194N00045579EA0141001523
B1057264202188N00045581EA0140901523
B1057274202183N00045582EA0140801522
B1057284202178N00045584EA0140501520
B1057294202172N00045585EA0140301518
B1057304202166N00045585EA0140101516
B1057314202160N00045586EA0140101514
B1057324202154N00045588EA0140001513
B1057334202148N00045589EA0139901512
B1057344202143N00045591EA0139901511
B1057354202137N00045592EA0139701508
B1057364202131N00045595EA0139401506
B1057374202125N00045597EA0139401506
B1057384202119N00045600EA0139401506
B1057394202114N00045602EA0139601506
B1057404202109N00045604EA0139501506
B1057414202103N00045605EA0139401507
B1057424202097N00045607EA0139601507
B1057434202091N00045609EA0139701509
B1057444202084N00045612EA0140101512
B1057454202079N00045615EA0140301515
B1057464202074N00045617EA0140501518
B1057474202070N00045617EA0140601518
B1057484202065N00045616EA0140401518
B1057494202060N00045615EA0140401518
B1057504202055N00045613EA0140601518
B1057514202051N00045609EA0140801520
B1057524202050N00045605EA0140901523
B1057534202052N00045602EA0141101524
B1057544202055N00045600EA0141201524
B1057554202059N00045599EA0141101524
B1057564202063N00045599EA0141101524
B1057574202069N00045602EA0141001523
B1057584202074N00045607EA0140801522
B1057594202079N00045617EA0140901522
B1058004202081N00045627EA0141301523
B1058014202080N00045637EA0141401526
B1058024202079N00045646EA0141601529
B1058034202077N00045653EA0141801531
B1058044202075N00045661EA0142001532
B1058054202072N00045668EA0141701531
B1058064202067N00045675EA0141501529
B1058074202061N00045679EA0141501528
B1058084202054N00045680EA0141501528
B1058094202048N00045680EA0141701530
B1058104202042N00045680EA0141901532
B1058114202038N00045681EA0142101534
B1058124202034N00045683EA0142001533
B1058134202030N00045683EA0141801531
B1058144202027N00045682EA0141301527
B1058154202023N00045679EA0140901523
B1058164202020N00045676EA0140801520
B1058174202016N00045673EA0140601518
B1058184202014N00045670EA0140401517
B1058194202011N00045666EA0140301515
B1058204202009N00045663EA0140101513
B1058214202007N00045660EA0139801511
B1058224202004N00045656EA0139601508
B1058234202001N00045653EA0139401506
B1058244201997N00045650EA0139301505
B1058254201992N00045647EA0139101503
B1058264201987N00045645EA0139001502
B1058274201982N00045644EA0138801501
B1058284201976N00045642EA0138801500
B1058294201971N00045640EA0138401498
B1058304201966N00045638EA0138501497
B1058314201960N00045637EA0138501496
B1058324201955N00045637EA0138401496
B1058334201951N00045638EA0138301495
B1058344201946N00045639EA0138201493
B1058354201941N00045640EA0137901491
B1058364201936N00045641EA0137601489
B1058374201930N00045642EA0137601487
B1058384201925N00045645EA0137501486
B1058394201919N00045649EA0137601486
B1058404201915N00045653EA0137401485
B1058414201910N00045657EA0137201484
B1058424201905N00045661EA0137001482
B1058434201900N00045665EA0136801480
B1058444201895N00045670EA0136901478
B1058454201890N00045674EA0136601477
B1058464201886N00045679EA0136401475
B1058474201882N00045685EA0136101473
B1058484201878N00045691EA0135801470
B1058494201874N00045698EA0135401466
B1058504201870N00045705EA0135301464
B1058514201866N00045714EA0135201462
B1058524201863N00045722EA0135001460
B1058534201861N00045731EA0134701458
B1058544201859N00045740EA0134601456
B1058554201857N00045749EA0134501454
B1058564201855N00045758EA0134301452
B1058574201853N00045768EA0134101450
B1058584201851N00045777EA0133901449
B1058594201849N00045786EA0133801447
B1059004201847N00045794EA0133701446
B1059014201844N00045802EA0133601445
B1059024201840N00045808EA0133601443
B1059034201835N00045814EA0133401443
B1059044201830N00045818EA0133401442
B1059054201825N00045820EA0133101441
B1059064201821N00045822EA0133101440
B1059074201816N00045822EA0133001438
B1059084201812N00045821EA0132801436
B1059094201808N00045818EA0132601435
B1059104201804N00045815EA0132501434
B1059114201802N00045810EA0132401433
B1059124201802N00045806EA0132401432
B1059134201802N00045801EA0132301431
B1059144201804N00045796EA0132201429
B1059154201805N00045792EA0131901427
B1059164201807N00045787EA0131501425
B1059174201809N00045782EA0131501423
B1059184201810N00045777EA0131201420
B1059194201810N00045772EA0131001419
B1059204201810N00045767EA0130901417
B1059214201810N00045761EA0130701416
B1059224201810N00045756EA0130601414
B1059234201811N00045750EA0130401412
B1059244201811N00045745EA0130201410
B1059254201810N00045740EA0130001408
B1059264201809N00045735EA0129801406
B1059274201808N00045729EA0129701403
B1059284201807N00045724EA0129501401
B1059294201806N00045719EA0129201400
B1059304201804N00045714EA0129101398
B1059314201802N00045710EA0128801397
B1059324201799N00045706EA0128601395
B1059334201796N00045702EA0128601393
B1059344201794N00045698EA0128501392
B1059354201792N00045694EA0128301391
B1059364201788N00045690EA0128201390
B1059374201785N00045686EA0128101388
B1059384201780N00045683EA0128001387
B1059394201776N00045678EA0127901387
B1059404201772N00045673EA0128001387
B1059414201769N00045669EA0127901387
B1059424201766N00045665EA0128001386
B1059434201762N00045661EA0127701384
B1059444201758N00045657EA0127601383
B1059454201754N00045652EA0127401381
B1059464201750N00045647EA0127401381
B1059474201745N00045643EA0127401381
B1059484201741N00045638EA0127301380
B1059494201736N00045634EA0127201380
B1059504201731N00045630EA0127301380
B1059514201726N00045627EA0127201379
B1059524201720N00045624EA0127201378
B1059534201715N00045620EA0127001378
B1059544201709N00045616EA0127201378
B1059554201703N00045612EA0127201379
B1059564201698N00045608EA0127501381
B1059574201694N00045603EA0127501382
B1059584201689N00045599EA0127701383
B1059594201685N00045596EA0127901385
B1100004201681N00045593EA0128201387
B1100014201677N00045591EA0128301389
B1100024201673N00045589EA0128201389
B1100034201669N00045586EA0128201388
B1100044201664N00045582EA0128201388
B1100054201660N00045580EA0128301388
B1100064201655N00045580EA0128301388
B1100074201650N00045582EA0128401389
B1100084201646N00045586EA0128501390
B1100094201643N00045589EA0128301390
B1100104201641N00045594EA0128101388
B1100114201639N00045600EA0128101386
B1100124201636N00045607EA0127901385
B1100134201635N00045616EA0127801384
B1100144201635N00045625EA0127901384
B1100154201636N00045633EA0127901385
B1100164201638N00045641EA0128001386
B1100174201639N00045649EA0128001386
B1100184201642N00045657EA0127901385
B1100194201645N00045665EA0127901386
B1100204201649N00045673EA0128001386
B1100214201655N00045678EA0128101386
B1100224201661N00045680EA0128001387
B1100234201667N00045679EA0128101388
B1100244201672N00045678EA0128201389
B1100254201676N00045676EA0128201389
B1100264201681N00045675EA0128101388
B1100274201686N00045673EA0128001386
B1100284201692N00045670EA0127901386
B1100294201698N00045667EA0128001386
B1100304201703N00045665EA0128201388
B1100314201707N00045664EA0128401390
B1100324201712N00045663EA0128401391
B1100334201717N00045664EA0128601392
B1100344201723N00045665EA0128701393
B1100354201728N00045666EA0128801394
B1100364201733N00045667EA0128901395
B1100374201739N00045667EA0128901396
B1100384201744N00045667EA0129001397
B1100394201749N00045668EA0129201398
B1100404201755N00045669EA0129401400
B1100414201760N00045670EA0129601401
B1100424201765N00045670EA0129501402
B1100434201770N00045670EA0129601402
B1100444201775N00045667EA0129501401
B1100454201780N00045664EA0129401401
B1100464201784N00045660EA0129401402
B1100474201788N00045656EA0129601402
B1100484201790N00045651EA0129601403
B1100494201793N00045648EA0129701404
B1100504201795N00045644EA0129601405
B1100514201798N00045640EA0129701405
B1100524201800N00045636EA0129601404
B1100534201802N00045632EA0129301402
B1100544201802N00045628EA0129201400
B1100554201802N00045623EA0129001398
B1100564201801N00045618EA0128901396
B1100574201799N00045614EA0128801395
B1100584201796N00045612EA0128401393
B1100594201793N00045610EA0128401391
B1101004201789N00045609EA0128001388
B1101014201785N00045608EA0127801386
B1101024201780N00045607EA0127601384
B1101034201776N00045607EA0127401382
B1101044201771N00045608EA0127501380
B1101054201766N00045610EA0127401379
B1101064201760N00045612EA0127301379
B1101074201755N00045614EA0127201379
B1101084201751N00045615EA0127201378
B1101094201746N00045616EA0127201378
B1101104201742N00045617EA0127001376
B1101114201738N00045619EA0126801375
B1101124201733N00045620EA0126701374
B1101134201729N00045621EA0126701373
B1101144201724N00045622EA0126801373
B1101154201720N00045623EA0126701373
B1101164201716N00045624EA0126501372
B1101174201711N00045625EA0126401370
B1101184201707N00045626EA0126301369
B1101194201702N00045627EA0126101368
B1101204201698N00045628EA0126101367
B1101214201693N00045628EA0126101366
B1101224201689N00045629EA0125901365
B1101234201685N00045629EA0125801363
B1101244201680N00045629EA0125601362
B1101254201676N00045629EA0125501361
B1101264201671N00045629EA0125301360
B1101274201667N00045628EA0125401358
B1101284201663N00045627EA0125101356
B1101294201658N00045626EA0124801354
B1101304201653N00045625EA0124601352
B1101314201648N00045625EA0124401350
B1101324201642N00045625EA0124301348
B1101334201637N00045626EA0124101346
B1101344201631N00045627EA0123901344
B1101354201625N00045628EA0123601342
B1101364201619N00045628EA0123601340
B1101374201613N00045629EA0123501338
B1101384201607N00045630EA0123301337
B1101394201601N00045631EA0123301336
B1101404201596N00045632EA0123101335
B1101414201590N00045632EA0122801333
B1101424201584N00045633EA0122701331
B1101434201578N00045633EA0122601330
B1101444201572N00045634EA0122501328
B1101454201567N00045635EA0122401327
B1101464201561N00045636EA0122301326
B1101474201555N00045636EA0122201325
B1101484201550N00045637EA0122101323
B1101494201544N00045638EA0121901322
B1101504201538N00045639EA0121901320
B1101514201532N00045640EA0121701319
B1101524201526N00045641EA0121601318
B1101534201520N00045642EA0121501317
B1101544201514N00045643EA0121401316
B1101554201508N00045644EA0121301314
B1101564201502N00045646EA0121001313
B1101574201496N00045648EA0120901311
B1101584201490N00045650EA0120701310
B1101594201484N00045653EA0120701308
B1102004201478N00045655EA0120601307
B1102014201472N00045657EA0120401306
B1102024201466N00045660EA0120401304
B1102034201461N00045662EA0120001303
B1102044201455N00045665EA0120101301
B1102054201449N00045667EA0119901299
B1102064201443N00045669EA0119701297
B1102074201437N00045671EA0119601296
B1102084201431N00045673EA0119401294
B1102094201425N00045675EA0119301293
B1102104201419N00045677EA0119101291
B1102114201413N00045680EA0118901289
B1102124201407N00045682EA0118801287
B1102134201401N00045685EA0118701286
B1102144201395N00045688EA0118501284
B1102154201389N00045690EA0118401282
B1102164201384N00045692EA0118401281
B1102174201378N00045695EA0118001279
B1102184201372N00045697EA0117901277
B1102194201366N00045699EA0117701275
B1102204201360N00045701EA0117501273
B1102214201354N00045703EA0117301271
B1102224201348N00045705EA0117201269
B1102234201343N00045707EA0116801267
B1102244201337N00045708EA0116601265
B1102254201331N00045710EA0116401263
B1102264201324N00045711EA0116201261
B1102274201318N00045713EA0116101258
B1102284201312N00045716EA0115901257
B1102294201306N00045719EA0115701255
B1102304201300N00045722EA0115401253
B1102314201294N00045724EA0115301251
B1102324201288N00045727EA0115101248
B1102334201282N00045730EA0114901246
B1102344201276N00045732EA0114701244
B1102354201270N00045735EA0114501242
B1102364201264N00045737EA0114301241
B1102374201258N00045740EA0114101238
B1102384201252N00045742EA0113901236
B1102394201246N00045743EA0113701233
B1102404201240N00045745EA0113301231
B1102414201234N00045746EA0113101228
B1102424201228N00045747EA0113001225
B1102434201222N00045748EA0112701223
B1102444201215N00045749EA0112601221
B1102454201209N00045751EA0112301219
B1102464201202N00045752EA0112201217
B1102474201196N00045754EA0112001216
B1102484201190N00045756EA0111901214
B1102494201184N00045757EA0111701212
B1102504201178N00045759EA0111301210
B1102514201172N00045761EA0111201207
B1102524201165N00045763EA0110901205
B1102534201159N00045764EA0110901203
B1102544201153N00045766EA0110701201
B1102554201146N00045768EA0110501199
B1102564201140N00045769EA0110301197
B1102574201134N00045771EA0110101196
B1102584201128N00045773EA0109901194
B1102594201122N00045774EA0109801192
B1103004201116N00045776EA0109601190
B1103014201110N00045778EA0109401187
B1103024201103N00045780EA0109101185
B1103034201097N00045783EA0109001183
B1103044201091N00045785EA0108901182
B1103054201084N00045788EA0108701180
B1103064201079N00045790EA0108501179
B1103074201073N00045793EA0108301177
B1103084201067N00045795EA0108101175
B1103094201061N00045797EA0108001173
B1103104201054N00045799EA0107801171
B1103114201048N00045800EA0107601170
B1103124201042N00045802EA0107501168
B1103134201036N00045804EA0107201165
B1103144201030N00045805EA0107001163
B1103154201023N00045805EA0106901161
B1103164201017N00045807EA0106701159
B1103174201011N00045809EA0106601158
B1103184201005N00045811EA0106501157
B1103194200999N00045813EA0106401156
B1103204200993N00045815EA0106401155
B1103214200987N00045817EA0106001153
B1103224200981N00045819EA0105801151
B1103234200975N00045821EA0105601149
B1103244200968N00045823EA0105501147
B1103254200962N00045826EA0105301145
B1103264200956N00045827EA0105301144
B1103274200949N00045829EA0105001142
B1103284200943N00045831EA0104901141
B1103294200936N00045833EA0104701139
B1103304200930N00045835EA0104601137
B1103314200923N00045838EA0104501136
B1103324200917N00045840EA0104401134
B1103334200910N00045842EA0104301133
B1103344200904N00045844EA0104201133
B1103354200898N00045847EA0104101132
B1103364200891N00045849EA0104001131
B1103374200885N00045851EA0104001130
B1103384200879N00045853EA0103701128
B1103394200873N00045855EA0103501126
B1103404200867N00045856EA0103401124
B1103414200861N00045858EA0103201122
B1103424200854N00045859EA0102901120
B1103434200847N00045860EA0102901118
B1103444200841N00045861EA0102801117
B1103454200835N00045862EA0102601116
B1103464200828N00045864EA0102501115
B1103474200823N00045865EA0102401114
B1103484200817N00045867EA0102201112
B1103494200810N00045868EA0101901110
B1103504200804N00045869EA0101901108
B1103514200798N00045870EA0101501106
B1103524200792N00045871EA0101501104
B1103534200786N00045873EA0101201102
B1103544200780N00045875EA0101001100
B1103554200773N00045877EA0100701097
B1103564200767N00045879EA0100401094
B1103574200760N00045881EA0100101091
B1103584200753N00045883EA0100101090
B1103594200747N00045885EA0100101089
B1104004200740N00045886EA0100001088
B1104014200735N00045887EA0099801087
B1104024200729N00045889EA0099701086
B1104034200724N00045891EA0099701085
B1104044200719N00045893EA0099701085
B1104054200715N00045895EA0099501083
B1104064200711N00045896EA0099101080
B1104074200706N00045896EA0098701077
B1104084200701N00045895EA0098601075
B1104094200696N00045893EA0098601073
B1104104200692N00045891EA0098401072
B1104114200688N00045888EA0098301071
B1104124200685N00045884EA0098001069
B1104134200683N00045879EA0097901067
B1104144200682N00045873EA0097801065
B1104154200683N00045866EA0097601063
B1104164200685N00045860EA0097501062
B1104174200687N00045855EA0097301061
B1104184200691N00045850EA0097201059
B1104194200695N00045845EA0097101058
B1104204200698N00045841EA0097101057
B1104214200702N00045836EA0097001056
B1104224200705N00045832EA0097001055
B1104234200708N00045827EA0096801054
B1104244200712N00045823EA0096601052
B1104254200715N00045818EA0096501050
B1104264200718N00045813EA0096201049
B1104274200721N00045808EA0096001047
B1104284200724N00045802EA0096001046
B1104294200728N00045797EA0095901045
B1104304200731N00045792EA0096001045
B1104314200734N00045787EA0095901045
B1104324200737N00045783EA0096001045
B1104334200741N00045778EA0095901044
B1104344200745N00045774EA0095901044
B1104354200750N00045769EA0095901044
B1104364200754N00045764EA0095801046
B1104374200757N00045760EA0096101047
B1104384200761N00045757EA0096101048
B1104394200764N00045754EA0096101048
B1104404200767N00045750EA0095901047
B1104414200769N00045744EA0095701045
B1104424200772N00045739EA0095701045
B1104434200774N00045733EA0096001045
B1104444200777N00045729EA0095901045
B1104454200780N00045725EA0095801045
B1104464200783N00045721EA0095701043
B1104474200787N00045717EA0095501042
B1104484200792N00045712EA0095301041
B1104494200796N00045708EA0095201040
B1104504200799N00045704EA0095301040
B1104514200803N00045702EA0095201039
B1104524200807N00045700EA0095101037
B1104534200811N00045697EA0095101036
B1104544200816N00045696EA0095101036
B1104554200820N00045694EA0095201037
B1104564200825N00045693EA0095101037
B1104574200829N00045693EA0095101037
B1104584200833N00045692EA0095001037
B1104594200837N00045691EA0095001036
B1105004200841N00045689EA0095101035
B1105014200845N00045689EA0094801035
B1105024200849N00045689EA0094701034
B1105034200854N00045689EA0094701032
B1105044200858N00045690EA0094401031
B1105054200863N00045690EA0094401030
B1105064200869N00045691EA0094401030
B1105074200874N00045692EA0094601031
B1105084200878N00045693EA0094601031
B1105094200883N00045695EA0094401031
B1105104200888N00045697EA0094301030
B1105114200892N00045700EA0094301029
B1105124200898N00045702EA0094101027
B1105134200903N00045704EA0094001027
B1105144200908N00045705EA0094001026
B1105154200914N00045706EA0094001025
B1105164200919N00045707EA0093801025
B1105174200925N00045707EA0093901025
B1105184200930N00045708EA0093801024
B1105194200936N00045709EA0093801023
B1105204200941N00045709EA0093501021
B1105214200947N00045709EA0093101018
B1105224200953N00045707EA0092901016
B1105234200958N00045706EA0092701013
B1105244200964N00045705EA0092601011
B1105254200970N00045704EA0092501010
B1105264200976N00045703EA0092201008
B1105274200981N00045701EA0092001005
B1105284200986N00045700EA0091701002
B1105294200992N00045699EA0091501000
B1105304200998N00045698EA0091300997
B1105314201004N00045697EA0091300996
B1105324201011N00045695EA0091200996
B1105334201017N00045694EA0091300996
B1105344201023N00045693EA0091200995
B1105354201029N00045692EA0091300996
B1105364201035N00045692EA0091200996
B1105374201040N00045691EA0091200995
B1105384201046N00045690EA0090900993
B1105394201052N00045689EA0090800992
B1105404201058N00045687EA0090800991
B1105414201064N00045686EA0090800990
B1105424201071N00045685EA0090800991
B1105434201077N00045684EA0091100993
B1105444201083N00045683EA0091500995
B1105454201089N00045681EA0091600997
B1105464201094N00045679EA0091800999
B1105474201099N00045678EA0091901001
B1105484201104N00045678EA0091901002
B1105494201108N00045678EA0092001003
B1105504201113N00045678EA0091901003
B1105514201117N00045677EA0091901002
B1105524201122N00045677EA0091901001
B1105534201127N00045677EA0091801000
B1105544201133N00045679EA0091801000
B1105554201139N00045681EA0091801000
B1105564201145N00045682EA0091701001
B1105574201150N00045683EA0091901001
B1105584201156N00045684EA0091601000
B1105594201162N00045686EA0091500999
B1106004201169N00045687EA0091901001
B1106014201176N00045688EA0092201004
B1106024201181N00045688EA0092301007
B1106034201186N00045687EA0092501009
B1106044201191N00045687EA0092301009
B1106054201197N00045688EA0092401009
B1106064201203N00045689EA0092601009
B1106074201210N00045690EA0092701011
B1106084201216N00045691EA0093001015
B1106094201221N00045692EA0093601018
B1106104201225N00045694EA0093801020
B1106114201228N00045697EA0093501020
B1106124201231N00045699EA0093001017
B1106134201236N00045700EA0092901014
B1106144201243N00045702EA0092801012
B1106154201249N00045703EA0092901011
B1106164201255N00045704EA0092901012
B1106174201259N00045705EA0092901012
B1106184201264N00045706EA0092701012
B1106194201269N00045706EA0092701011
B1106204201274N00045707EA0092501011
B1106214201280N00045708EA0093001012
B1106224201285N00045708EA0093301015
B1106234201288N00045708EA0093201017
B1106244201291N00045708EA0093401018
B1106254201294N00045707EA0093301017
B1106264201299N00045705EA0092801014
B1106274201304N00045703EA0092801013
B1106284201309N00045701EA0092901012
B1106294201314N00045700EA0092901013
B1106304201319N00045699EA0093001014
B1106314201323N00045698EA0093101015
B1106324201328N00045696EA0092901015
B1106334201333N00045695EA0092901015
B1106344201338N00045696EA0092901015
B1106354201344N00045696EA0092901015
B1106364201348N00045697EA0093001016
B1106374201353N00045697EA0092901015
B1106384201357N00045696EA0092601014
B1106394201362N00045696EA0092401011
B1106404201368N00045697EA0092401009
B1106414201374N00045698EA0092301009
B1106424201380N00045699EA0092601010
B1106434201384N00045700EA0092401010
B1106444201389N00045700EA0092201008
B1106454201394N00045701EA0092101006
B1106464201400N00045702EA0091801003
B1106474201406N00045702EA0091701003
B1106484201412N00045701EA0092001005
B1106494201417N00045697EA0092201007
B1106504201420N00045694EA0092301009
B1106514201423N00045692EA0092301009
B1106524201427N00045690EA0092201008
B1106534201431N00045688EA0091901005
B1106544201436N00045684EA0091801003
B1106554201440N00045679EA0091801003
B1106564201445N00045676EA0091801004
B1106574201449N00045676EA0092001006
B1106584201452N00045677EA0092001006
B1106594201456N00045678EA0091701004
B1107004201460N00045678EA0091601002
B1107014201466N00045680EA0091601002
B1107024201470N00045685EA0091401000
B1107034201473N00045694EA0090900997
B1107044201474N00045705EA0091000995
B1107054201474N00045714EA0091300996
B1107064201475N00045722EA0091200996
B1107074201475N00045728EA0091100995
B1107084201474N00045734EA0090700992
B1107094201471N00045742EA0090300988
B1107104201467N00045749EA0090300987
B1107114201462N00045755EA0090300987
B1107124201456N00045757EA0090400987
B1107134201452N00045757EA0090300986
B1107144201448N00045755EA0090300985
B1107154201446N00045751EA0089900983
B1107164201446N00045745EA0089700981
B1107174201448N00045739EA0089700980
B1107184201450N00045734EA0089900981
B1107194201453N00045730EA0089800981
B1107204201454N00045727EA0089600979
B1107214201455N00045722EA0089300977
B1107224201457N00045717EA0089200975
B1107234201458N00045712EA0089100973
B1107244201458N00045706EA0089000972
B1107254201456N00045701EA0088600970
B1107264201453N00045697EA0088400967
B1107274201450N00045693EA0088400965
B1107284201445N00045689EA0088300965
B1107294201442N00045685EA0088500966
B1107304201439N00045682EA0088500967
B1107314201436N00045680EA0088400967
B1107324201432N00045678EA0088200965
B1107334201428N00045677EA0087900962
B1107344201424N00045676EA0087700958
B1107354201419N00045675EA0087500956
B1107364201414N00045674EA0087300954
B1107374201409N00045670EA0087400954
B1107384201405N00045666EA0087500954
B1107394201401N00045662EA0087500955
B1107404201398N00045659EA0087700956
B1107414201395N00045655EA0087600957
B1107424201392N00045652EA0087400956
B1107434201389N00045648EA0087400955
B1107444201386N00045645EA0087300954
B1107454201383N00045642EA0087300954
B1107464201380N00045640EA0087200953
B1107474201378N00045637EA0087000951
B1107484201376N00045634EA0087000950
B1107494201374N00045630EA0086900948
B1107504201372N00045627EA0086800947
B1107514201370N00045624EA0086700947
B1107524201368N00045621EA0086600945
B1107534201365N00045618EA0086400944
B1107544201364N00045615EA0086200942
B1107554201362N00045611EA0086100940
B1107564201361N00045606EA0085900938
B1107574201359N00045602EA0086000938
B1107584201359N00045598EA0085800937
B1107594201359N00045594EA0085800936
B1108004201359N00045590EA0085500935
B1108014201359N00045586EA0085500934
B1108024201359N00045582EA0085300932
B1108034201359N00045578EA0085300930
B1108044201360N00045574EA0085100929
B1108054201360N00045570EA0084900928
B1108064201360N00045566EA0084900927
B1108074201359N00045562EA0084900926
B1108084201359N00045558EA0084700925
B1108094201358N00045555EA0084300923
B1108104201357N00045551EA0084200920
B1108114201356N00045546EA0084100919
B1108124201354N00045542EA0083900917
B1108134201353N00045539EA0083900917
B1108144201351N00045536EA0083800915
B1108154201349N00045534EA0083500913
B1108164201347N00045531EA0083200911
B1108174201345N00045527EA0083000908
B1108184201342N00045523EA0082800906
B1108194201340N00045519EA0082700904
B1108204201338N00045515EA0082500903
B1108214201335N00045513EA0082300901
B1108224201332N00045510EA0082200899
B1108234201328N00045506EA0081900897
B1108244201326N00045502EA0081800894
B1108254201324N00045496EA0081600893
B1108264201322N00045491EA0081600892
B1108274201320N00045487EA0081500891
B1108284201318N00045483EA0081300889
B1108294201316N00045479EA0080900886
B1108304201315N00045474EA0080500882
B1108314201313N00045469EA0080200879
B1108324201311N00045463EA0080000876
B1108334201309N00045457EA0080000874
B1108344201307N00045452EA0079800873
B1108354201305N00045447EA0079600871
B1108364201303N00045442EA0079400869
B1108374201302N00045436EA0079200867
B1108384201300N00045430EA0079100865
B1108394201299N00045424EA0079000865
B1108404201298N00045420EA0079100866
B1108414201299N00045415EA0079100866
B1108424201299N00045411EA0079100866
B1108434201300N00045407EA0078900865
B1108444201301N00045402EA0078900864
B1108454201302N00045397EA0078800863
B1108464201303N00045392EA0078700862
B1108474201304N00045387EA0078600861
B1108484201304N00045382EA0078500860
B1108494201305N00045376EA0078400858
B1108504201305N00045370EA0078300857
B1108514201304N00045363EA0078100856
B1108524201303N00045357EA0078000855
B1108534201303N00045352EA0078000854
B1108544201302N00045346EA0077900854
B1108554201301N00045341EA0077800852
B1108564201299N00045335EA0077600851
B1108574201298N00045328EA0077800850
B1108584201296N00045323EA0077700850
B1108594201294N00045318EA0077600850
B1109004201292N00045314EA0077500849
B1109014201291N00045309EA0077300847
B1109024201289N00045304EA0077100844
B1109034201289N00045298EA0077000843
B1109044201288N00045292EA0077000842
B1109054201286N00045288EA0076900842
B1109064201285N00045283EA0076900841
B1109074201285N00045278EA0076700839
B1109084201285N00045273EA0076400837
B1109094201285N00045268EA0076300835
B1109104201284N00045262EA0076200833
B1109114201284N00045256EA0075900832
B1109124201283N00045251EA0075800831
B1109134201283N00045246EA0075700829
B1109144201282N00045241EA0075600829
B1109154201281N00045236EA0075600828
B1109164201279N00045232EA0075400827
B1109174201277N00045228EA0075500826
B1109184201274N00045224EA0075300826
B1109194201271N00045220EA0075200825
B1109204201268N00045216EA0075100824
B1109214201264N00045214EA0074800822
B1109224201259N00045214EA0074700820
B1109234201253N00045214EA0074600818
B1109244201249N00045212EA0074400816
B1109254201246N00045207EA0074200813
B1109264201244N00045201EA0074000812
B1109274201244N00045196EA0074200812
B1109284201245N00045192EA0074100812
B1109294201246N00045189EA0074000811
B1109304201249N00045187EA0073900809
B1109314201252N00045185EA0073800808
B1109324201253N00045184EA0073900807
B1109334201253N00045184EA0074000808
B1109344201253N00045184EA0073800808
B1109354201253N00045183EA0073800808
B1109364201253N00045183EA0073900808
B1109374201253N00045183EA0073800808
B1109384201253N00045183EA0073900808
B1109394201253N00045183EA0073800808
B1109404201253N00045183EA0073900808
B1109414201253N00045183EA0073900808
B1109424201253N00045183EA0073900808
B1109434201253N00045183EA0074000808
B1109444201253N00045183EA0073900808
B1109454201253N00045183EA0073900808
B1109464201253N00045183EA0073900808
B1109474201253N00045183EA0073800808
B1109484201253N00045183EA0073800808
B1109494201253N00045183EA0073900808
GkTZFErqH6bK3KhVCNV/s8S/oNt8rd31eAGfK8Is3s1vb1x4AQAVgxq2iSRvWXFqOnpmBsdxNTZV
GdDBn5deHuzU7mgqWkr/4K+Rn9LZ/1w3XJ3JMkWsQFtY1ws33p3JwKpmF0bSjJpf5i2tm1iXILwa
GPxbC7gBUeq87/UBtAZr4Y=
